<?xml version="1.0" encoding="UTF-8"?>
<gpx version="1.1" creator="radtour" xmlns="http://www.topografix.com/GPX/1/1">
<trk><name>R1 Bozen - Meran - Mals</name><trkseg>
<trkpt lat="46.498572" lon="11.35475"><ele>268.5</ele></trkpt>
<trkpt lat="46.49858" lon="11.354603"><ele>268.5</ele></trkpt>
<trkpt lat="46.498584" lon="11.35453"><ele>268.5</ele></trkpt>
<trkpt lat="46.498087" lon="11.354602"><ele>268.5</ele></trkpt>
<trkpt lat="46.497904" lon="11.354378"><ele>268.5</ele></trkpt>
<trkpt lat="46.49776" lon="11.353585"><ele>268.3</ele></trkpt>
<trkpt lat="46.497763" lon="11.353394"><ele>268.3</ele></trkpt>
<trkpt lat="46.497436" lon="11.353393"><ele>268.2</ele></trkpt>
<trkpt lat="46.497263" lon="11.353449"><ele>268.1</ele></trkpt>
<trkpt lat="46.497206" lon="11.353456"><ele>268.1</ele></trkpt>
<trkpt lat="46.496774" lon="11.353503"><ele>268.0</ele></trkpt>
<trkpt lat="46.496117" lon="11.353554"><ele>266.9</ele></trkpt>
<trkpt lat="46.496023" lon="11.353528"><ele>266.7</ele></trkpt>
<trkpt lat="46.495889" lon="11.35345"><ele>266.4</ele></trkpt>
<trkpt lat="46.495804" lon="11.353365"><ele>266.3</ele></trkpt>
<trkpt lat="46.49567" lon="11.353253"><ele>266.0</ele></trkpt>
<trkpt lat="46.495546" lon="11.353202"><ele>265.7</ele></trkpt>
<trkpt lat="46.495468" lon="11.35324"><ele>265.6</ele></trkpt>
<trkpt lat="46.495386" lon="11.353429"><ele>265.3</ele></trkpt>
<trkpt lat="46.49527" lon="11.353974"><ele>264.5</ele></trkpt>
<trkpt lat="46.495225" lon="11.353949"><ele>264.4</ele></trkpt>
<trkpt lat="46.495202" lon="11.353937"><ele>264.3</ele></trkpt>
<trkpt lat="46.495117" lon="11.353887"><ele>264.0</ele></trkpt>
<trkpt lat="46.495041" lon="11.353841"><ele>263.7</ele></trkpt>
<trkpt lat="46.494989" lon="11.353888"><ele>263.5</ele></trkpt>
<trkpt lat="46.494883" lon="11.353921"><ele>263.2</ele></trkpt>
<trkpt lat="46.494638" lon="11.353865"><ele>262.3</ele></trkpt>
<trkpt lat="46.494613" lon="11.353858"><ele>262.2</ele></trkpt>
<trkpt lat="46.494615" lon="11.353836"><ele>262.2</ele></trkpt>
<trkpt lat="46.494633" lon="11.353392"><ele>261.2</ele></trkpt>
<trkpt lat="46.494616" lon="11.353061"><ele>260.4</ele></trkpt>
<trkpt lat="46.494592" lon="11.353014"><ele>260.3</ele></trkpt>
<trkpt lat="46.494541" lon="11.352625"><ele>259.4</ele></trkpt>
<trkpt lat="46.494431" lon="11.352131"><ele>258.5</ele></trkpt>
<trkpt lat="46.494247" lon="11.351199"><ele>258.4</ele></trkpt>
<trkpt lat="46.493974" lon="11.349997"><ele>258.1</ele></trkpt>
<trkpt lat="46.493868" lon="11.349407"><ele>258.3</ele></trkpt>
<trkpt lat="46.493833" lon="11.349065"><ele>258.5</ele></trkpt>
<trkpt lat="46.493819" lon="11.348994"><ele>258.5</ele></trkpt>
<trkpt lat="46.493818" lon="11.348969"><ele>258.6</ele></trkpt>
<trkpt lat="46.493834" lon="11.347674"><ele>259.3</ele></trkpt>
<trkpt lat="46.493836" lon="11.347606"><ele>259.3</ele></trkpt>
<trkpt lat="46.493807" lon="11.34762"><ele>259.3</ele></trkpt>
<trkpt lat="46.493716" lon="11.347679"><ele>259.4</ele></trkpt>
<trkpt lat="46.493265" lon="11.347615"><ele>259.3</ele></trkpt>
<trkpt lat="46.492727" lon="11.347412"><ele>258.8</ele></trkpt>
<trkpt lat="46.49235" lon="11.347198"><ele>258.5</ele></trkpt>
<trkpt lat="46.492151" lon="11.347171"><ele>258.3</ele></trkpt>
<trkpt lat="46.491687" lon="11.346816"><ele>257.7</ele></trkpt>
<trkpt lat="46.491043" lon="11.34612"><ele>256.3</ele></trkpt>
<trkpt lat="46.490585" lon="11.345801"><ele>255.4</ele></trkpt>
<trkpt lat="46.49032" lon="11.345637"><ele>254.8</ele></trkpt>
<trkpt lat="46.490117" lon="11.345436"><ele>254.7</ele></trkpt>
<trkpt lat="46.490043" lon="11.345262"><ele>254.7</ele></trkpt>
<trkpt lat="46.490069" lon="11.345007"><ele>254.6</ele></trkpt>
<trkpt lat="46.490054" lon="11.344874"><ele>254.5</ele></trkpt>
<trkpt lat="46.489914" lon="11.344786"><ele>254.5</ele></trkpt>
<trkpt lat="46.489813" lon="11.344641"><ele>254.4</ele></trkpt>
<trkpt lat="46.489725" lon="11.34425"><ele>254.3</ele></trkpt>
<trkpt lat="46.489618" lon="11.343409"><ele>254.1</ele></trkpt>
<trkpt lat="46.489757" lon="11.342784"><ele>254.3</ele></trkpt>
<trkpt lat="46.489821" lon="11.342599"><ele>254.4</ele></trkpt>
<trkpt lat="46.489922" lon="11.342494"><ele>254.4</ele></trkpt>
<trkpt lat="46.489912" lon="11.342455"><ele>254.4</ele></trkpt>
<trkpt lat="46.489857" lon="11.342228"><ele>254.5</ele></trkpt>
<trkpt lat="46.489796" lon="11.341969"><ele>254.6</ele></trkpt>
<trkpt lat="46.489793" lon="11.341822"><ele>254.7</ele></trkpt>
<trkpt lat="46.489804" lon="11.341768"><ele>254.7</ele></trkpt>
<trkpt lat="46.48978" lon="11.341658"><ele>254.7</ele></trkpt>
<trkpt lat="46.48976" lon="11.341574"><ele>254.8</ele></trkpt>
<trkpt lat="46.489105" lon="11.338669"><ele>253.3</ele></trkpt>
<trkpt lat="46.488581" lon="11.336882"><ele>252.5</ele></trkpt>
<trkpt lat="46.488441" lon="11.336318"><ele>252.3</ele></trkpt>
<trkpt lat="46.488309" lon="11.335611"><ele>252.0</ele></trkpt>
<trkpt lat="46.488049" lon="11.334399"><ele>251.7</ele></trkpt>
<trkpt lat="46.488043" lon="11.334343"><ele>251.7</ele></trkpt>
<trkpt lat="46.487929" lon="11.333754"><ele>251.6</ele></trkpt>
<trkpt lat="46.487645" lon="11.332994"><ele>250.9</ele></trkpt>
<trkpt lat="46.487289" lon="11.332099"><ele>250.0</ele></trkpt>
<trkpt lat="46.487255" lon="11.331928"><ele>249.8</ele></trkpt>
<trkpt lat="46.487232" lon="11.33174"><ele>249.7</ele></trkpt>
<trkpt lat="46.487112" lon="11.331313"><ele>249.3</ele></trkpt>
<trkpt lat="46.487038" lon="11.331088"><ele>249.1</ele></trkpt>
<trkpt lat="46.486899" lon="11.330748"><ele>248.9</ele></trkpt>
<trkpt lat="46.486818" lon="11.330661"><ele>248.9</ele></trkpt>
<trkpt lat="46.486747" lon="11.330509"><ele>248.8</ele></trkpt>
<trkpt lat="46.486306" lon="11.329225"><ele>248.0</ele></trkpt>
<trkpt lat="46.486224" lon="11.328904"><ele>247.8</ele></trkpt>
<trkpt lat="46.486234" lon="11.328757"><ele>247.8</ele></trkpt>
<trkpt lat="46.486197" lon="11.328615"><ele>247.7</ele></trkpt>
<trkpt lat="46.486066" lon="11.328358"><ele>247.6</ele></trkpt>
<trkpt lat="46.485888" lon="11.328083"><ele>247.5</ele></trkpt>
<trkpt lat="46.485793" lon="11.328043"><ele>247.5</ele></trkpt>
<trkpt lat="46.48565" lon="11.327897"><ele>247.4</ele></trkpt>
<trkpt lat="46.484896" lon="11.326694"><ele>247.0</ele></trkpt>
<trkpt lat="46.483226" lon="11.324316"><ele>246.4</ele></trkpt>
<trkpt lat="46.483008" lon="11.323955"><ele>246.3</ele></trkpt>
<trkpt lat="46.482492" lon="11.323017"><ele>246.0</ele></trkpt>
<trkpt lat="46.482406" lon="11.322556"><ele>245.7</ele></trkpt>
<trkpt lat="46.482366" lon="11.322472"><ele>245.7</ele></trkpt>
<trkpt lat="46.482257" lon="11.322299"><ele>245.5</ele></trkpt>
<trkpt lat="46.48223" lon="11.322261"><ele>245.5</ele></trkpt>
<trkpt lat="46.48217" lon="11.322207"><ele>245.4</ele></trkpt>
<trkpt lat="46.481856" lon="11.322024"><ele>245.2</ele></trkpt>
<trkpt lat="46.481835" lon="11.322052"><ele>245.2</ele></trkpt>
<trkpt lat="46.481815" lon="11.322081"><ele>245.1</ele></trkpt>
<trkpt lat="46.481802" lon="11.3221"><ele>245.1</ele></trkpt>
<trkpt lat="46.481061" lon="11.320961"><ele>244.3</ele></trkpt>
<trkpt lat="46.479935" lon="11.319168"><ele>243.3</ele></trkpt>
<trkpt lat="46.479408" lon="11.318229"><ele>242.8</ele></trkpt>
<trkpt lat="46.47882" lon="11.317146"><ele>242.4</ele></trkpt>
<trkpt lat="46.478476" lon="11.316707"><ele>242.3</ele></trkpt>
<trkpt lat="46.477242" lon="11.314744"><ele>242.0</ele></trkpt>
<trkpt lat="46.476808" lon="11.314099"><ele>241.9</ele></trkpt>
<trkpt lat="46.476486" lon="11.313682"><ele>241.7</ele></trkpt>
<trkpt lat="46.475968" lon="11.313113"><ele>241.2</ele></trkpt>
<trkpt lat="46.475857" lon="11.31296"><ele>241.1</ele></trkpt>
<trkpt lat="46.475194" lon="11.312138"><ele>240.5</ele></trkpt>
<trkpt lat="46.474649" lon="11.311512"><ele>240.1</ele></trkpt>
<trkpt lat="46.473898" lon="11.310777"><ele>239.7</ele></trkpt>
<trkpt lat="46.473542" lon="11.310492"><ele>239.8</ele></trkpt>
<trkpt lat="46.473538" lon="11.310424"><ele>239.8</ele></trkpt>
<trkpt lat="46.473558" lon="11.309882"><ele>240.0</ele></trkpt>
<trkpt lat="46.47356" lon="11.309511"><ele>240.1</ele></trkpt>
<trkpt lat="46.473596" lon="11.309449"><ele>240.2</ele></trkpt>
<trkpt lat="46.474085" lon="11.309454"><ele>240.4</ele></trkpt>
<trkpt lat="46.474575" lon="11.309361"><ele>240.5</ele></trkpt>
<trkpt lat="46.475136" lon="11.309187"><ele>240.5</ele></trkpt>
<trkpt lat="46.475635" lon="11.308991"><ele>240.4</ele></trkpt>
<trkpt lat="46.476747" lon="11.308512"><ele>240.4</ele></trkpt>
<trkpt lat="46.477138" lon="11.308379"><ele>240.4</ele></trkpt>
<trkpt lat="46.477414" lon="11.308338"><ele>240.4</ele></trkpt>
<trkpt lat="46.477761" lon="11.308337"><ele>240.4</ele></trkpt>
<trkpt lat="46.478564" lon="11.308494"><ele>240.3</ele></trkpt>
<trkpt lat="46.478714" lon="11.308499"><ele>240.3</ele></trkpt>
<trkpt lat="46.479067" lon="11.308435"><ele>240.3</ele></trkpt>
<trkpt lat="46.47934" lon="11.308332"><ele>240.2</ele></trkpt>
<trkpt lat="46.480279" lon="11.307849"><ele>240.1</ele></trkpt>
<trkpt lat="46.481299" lon="11.30726"><ele>239.9</ele></trkpt>
<trkpt lat="46.481965" lon="11.306698"><ele>240.1</ele></trkpt>
<trkpt lat="46.482412" lon="11.306223"><ele>240.3</ele></trkpt>
<trkpt lat="46.482575" lon="11.306006"><ele>240.3</ele></trkpt>
<trkpt lat="46.48267" lon="11.305874"><ele>240.4</ele></trkpt>
<trkpt lat="46.482792" lon="11.305599"><ele>240.5</ele></trkpt>
<trkpt lat="46.48306" lon="11.304699"><ele>240.9</ele></trkpt>
<trkpt lat="46.483102" lon="11.304597"><ele>241.0</ele></trkpt>
<trkpt lat="46.483075" lon="11.30452"><ele>241.0</ele></trkpt>
<trkpt lat="46.482674" lon="11.303694"><ele>241.5</ele></trkpt>
<trkpt lat="46.482551" lon="11.303399"><ele>241.6</ele></trkpt>
<trkpt lat="46.482716" lon="11.303407"><ele>241.6</ele></trkpt>
<trkpt lat="46.482748" lon="11.303375"><ele>241.6</ele></trkpt>
<trkpt lat="46.483897" lon="11.29995"><ele>241.0</ele></trkpt>
<trkpt lat="46.483997" lon="11.299575"><ele>240.9</ele></trkpt>
<trkpt lat="46.484115" lon="11.29946"><ele>240.8</ele></trkpt>
<trkpt lat="46.484227" lon="11.299174"><ele>240.7</ele></trkpt>
<trkpt lat="46.484287" lon="11.299217"><ele>240.7</ele></trkpt>
<trkpt lat="46.48481" lon="11.299591"><ele>240.2</ele></trkpt>
<trkpt lat="46.48492" lon="11.299669"><ele>240.1</ele></trkpt>
<trkpt lat="46.484942" lon="11.299609"><ele>240.1</ele></trkpt>
<trkpt lat="46.48493" lon="11.299208"><ele>239.9</ele></trkpt>
<trkpt lat="46.484947" lon="11.299083"><ele>239.8</ele></trkpt>
<trkpt lat="46.485001" lon="11.298904"><ele>239.7</ele></trkpt>
<trkpt lat="46.48516" lon="11.29856"><ele>239.5</ele></trkpt>
<trkpt lat="46.485211" lon="11.298368"><ele>239.4</ele></trkpt>
<trkpt lat="46.48527" lon="11.298105"><ele>239.3</ele></trkpt>
<trkpt lat="46.486708" lon="11.293887"><ele>239.3</ele></trkpt>
<trkpt lat="46.487236" lon="11.292478"><ele>239.4</ele></trkpt>
<trkpt lat="46.48806" lon="11.290059"><ele>239.8</ele></trkpt>
<trkpt lat="46.48824" lon="11.289591"><ele>239.9</ele></trkpt>
<trkpt lat="46.488416" lon="11.289214"><ele>239.9</ele></trkpt>
<trkpt lat="46.488561" lon="11.288977"><ele>240.0</ele></trkpt>
<trkpt lat="46.489018" lon="11.28839"><ele>240.0</ele></trkpt>
<trkpt lat="46.489302" lon="11.288106"><ele>240.0</ele></trkpt>
<trkpt lat="46.489657" lon="11.287807"><ele>240.1</ele></trkpt>
<trkpt lat="46.490147" lon="11.287504"><ele>240.1</ele></trkpt>
<trkpt lat="46.490338" lon="11.287417"><ele>240.1</ele></trkpt>
<trkpt lat="46.490635" lon="11.287297"><ele>240.1</ele></trkpt>
<trkpt lat="46.491509" lon="11.287042"><ele>240.2</ele></trkpt>
<trkpt lat="46.492165" lon="11.286752"><ele>240.2</ele></trkpt>
<trkpt lat="46.492669" lon="11.286437"><ele>240.3</ele></trkpt>
<trkpt lat="46.493024" lon="11.286169"><ele>240.3</ele></trkpt>
<trkpt lat="46.493319" lon="11.285888"><ele>240.3</ele></trkpt>
<trkpt lat="46.49384" lon="11.285236"><ele>240.3</ele></trkpt>
<trkpt lat="46.494264" lon="11.28456"><ele>240.3</ele></trkpt>
<trkpt lat="46.496916" lon="11.279981"><ele>239.9</ele></trkpt>
<trkpt lat="46.497342" lon="11.279135"><ele>239.9</ele></trkpt>
<trkpt lat="46.497712" lon="11.278179"><ele>239.9</ele></trkpt>
<trkpt lat="46.498028" lon="11.277099"><ele>239.9</ele></trkpt>
<trkpt lat="46.498158" lon="11.276446"><ele>240.0</ele></trkpt>
<trkpt lat="46.498259" lon="11.275792"><ele>240.1</ele></trkpt>
<trkpt lat="46.498326" lon="11.27508"><ele>240.2</ele></trkpt>
<trkpt lat="46.498388" lon="11.273609"><ele>240.4</ele></trkpt>
<trkpt lat="46.498453" lon="11.273148"><ele>240.4</ele></trkpt>
<trkpt lat="46.498534" lon="11.272699"><ele>240.5</ele></trkpt>
<trkpt lat="46.498822" lon="11.271731"><ele>240.5</ele></trkpt>
<trkpt lat="46.499271" lon="11.270708"><ele>240.5</ele></trkpt>
<trkpt lat="46.499631" lon="11.270163"><ele>240.5</ele></trkpt>
<trkpt lat="46.50016" lon="11.269616"><ele>240.6</ele></trkpt>
<trkpt lat="46.500555" lon="11.26929"><ele>240.7</ele></trkpt>
<trkpt lat="46.501933" lon="11.268483"><ele>240.9</ele></trkpt>
<trkpt lat="46.506073" lon="11.266136"><ele>241.9</ele></trkpt>
<trkpt lat="46.506894" lon="11.265667"><ele>242.3</ele></trkpt>
<trkpt lat="46.507556" lon="11.265214"><ele>242.5</ele></trkpt>
<trkpt lat="46.508627" lon="11.264623"><ele>242.7</ele></trkpt>
<trkpt lat="46.508694" lon="11.264585"><ele>242.7</ele></trkpt>
<trkpt lat="46.509142" lon="11.264315"><ele>242.7</ele></trkpt>
<trkpt lat="46.509601" lon="11.263978"><ele>242.7</ele></trkpt>
<trkpt lat="46.510028" lon="11.263587"><ele>242.7</ele></trkpt>
<trkpt lat="46.510421" lon="11.263139"><ele>242.6</ele></trkpt>
<trkpt lat="46.510728" lon="11.262725"><ele>242.5</ele></trkpt>
<trkpt lat="46.511012" lon="11.26228"><ele>242.4</ele></trkpt>
<trkpt lat="46.511344" lon="11.261658"><ele>242.3</ele></trkpt>
<trkpt lat="46.51157" lon="11.261171"><ele>242.2</ele></trkpt>
<trkpt lat="46.511672" lon="11.260897"><ele>242.2</ele></trkpt>
<trkpt lat="46.511836" lon="11.260605"><ele>242.1</ele></trkpt>
<trkpt lat="46.513776" lon="11.256356"><ele>241.8</ele></trkpt>
<trkpt lat="46.514818" lon="11.25397"><ele>242.1</ele></trkpt>
<trkpt lat="46.515087" lon="11.253478"><ele>242.1</ele></trkpt>
<trkpt lat="46.515393" lon="11.253095"><ele>242.1</ele></trkpt>
<trkpt lat="46.516533" lon="11.252022"><ele>242.1</ele></trkpt>
<trkpt lat="46.517077" lon="11.251396"><ele>242.0</ele></trkpt>
<trkpt lat="46.518644" lon="11.249078"><ele>242.0</ele></trkpt>
<trkpt lat="46.51903" lon="11.248587"><ele>242.0</ele></trkpt>
<trkpt lat="46.520129" lon="11.247475"><ele>242.2</ele></trkpt>
<trkpt lat="46.520567" lon="11.247157"><ele>242.3</ele></trkpt>
<trkpt lat="46.52089" lon="11.246997"><ele>242.4</ele></trkpt>
<trkpt lat="46.521208" lon="11.246886"><ele>242.5</ele></trkpt>
<trkpt lat="46.521472" lon="11.246729"><ele>242.6</ele></trkpt>
<trkpt lat="46.521575" lon="11.246636"><ele>242.7</ele></trkpt>
<trkpt lat="46.522141" lon="11.246251"><ele>242.9</ele></trkpt>
<trkpt lat="46.522358" lon="11.246119"><ele>242.9</ele></trkpt>
<trkpt lat="46.522481" lon="11.246044"><ele>243.0</ele></trkpt>
<trkpt lat="46.522904" lon="11.245796"><ele>243.2</ele></trkpt>
<trkpt lat="46.523295" lon="11.245628"><ele>243.3</ele></trkpt>
<trkpt lat="46.523419" lon="11.24559"><ele>243.4</ele></trkpt>
<trkpt lat="46.529292" lon="11.242026"><ele>244.1</ele></trkpt>
<trkpt lat="46.529392" lon="11.241931"><ele>244.1</ele></trkpt>
<trkpt lat="46.529516" lon="11.241819"><ele>244.2</ele></trkpt>
<trkpt lat="46.530323" lon="11.241295"><ele>244.6</ele></trkpt>
<trkpt lat="46.530546" lon="11.241165"><ele>244.7</ele></trkpt>
<trkpt lat="46.530998" lon="11.240899"><ele>244.8</ele></trkpt>
<trkpt lat="46.531394" lon="11.240706"><ele>244.9</ele></trkpt>
<trkpt lat="46.531463" lon="11.240701"><ele>244.9</ele></trkpt>
<trkpt lat="46.532138" lon="11.240264"><ele>245.0</ele></trkpt>
<trkpt lat="46.532741" lon="11.239808"><ele>244.6</ele></trkpt>
<trkpt lat="46.533363" lon="11.239277"><ele>244.2</ele></trkpt>
<trkpt lat="46.533893" lon="11.238767"><ele>244.1</ele></trkpt>
<trkpt lat="46.534996" lon="11.237479"><ele>243.9</ele></trkpt>
<trkpt lat="46.535876" lon="11.236643"><ele>244.0</ele></trkpt>
<trkpt lat="46.538041" lon="11.235051"><ele>244.2</ele></trkpt>
<trkpt lat="46.538255" lon="11.23492"><ele>244.2</ele></trkpt>
<trkpt lat="46.538913" lon="11.23464"><ele>244.3</ele></trkpt>
<trkpt lat="46.539319" lon="11.234381"><ele>244.4</ele></trkpt>
<trkpt lat="46.540374" lon="11.233502"><ele>244.6</ele></trkpt>
<trkpt lat="46.540818" lon="11.233076"><ele>244.7</ele></trkpt>
<trkpt lat="46.541262" lon="11.232501"><ele>244.9</ele></trkpt>
<trkpt lat="46.541468" lon="11.23218"><ele>245.0</ele></trkpt>
<trkpt lat="46.541722" lon="11.231699"><ele>245.1</ele></trkpt>
<trkpt lat="46.54195" lon="11.231196"><ele>245.2</ele></trkpt>
<trkpt lat="46.542777" lon="11.229099"><ele>245.6</ele></trkpt>
<trkpt lat="46.543048" lon="11.228488"><ele>245.7</ele></trkpt>
<trkpt lat="46.543604" lon="11.226798"><ele>245.9</ele></trkpt>
<trkpt lat="46.54386" lon="11.226244"><ele>245.9</ele></trkpt>
<trkpt lat="46.544264" lon="11.225651"><ele>245.9</ele></trkpt>
<trkpt lat="46.54476" lon="11.225265"><ele>245.9</ele></trkpt>
<trkpt lat="46.545061" lon="11.225103"><ele>245.9</ele></trkpt>
<trkpt lat="46.545256" lon="11.225033"><ele>245.9</ele></trkpt>
<trkpt lat="46.547362" lon="11.224613"><ele>245.8</ele></trkpt>
<trkpt lat="46.548129" lon="11.224416"><ele>245.7</ele></trkpt>
<trkpt lat="46.548657" lon="11.224204"><ele>245.7</ele></trkpt>
<trkpt lat="46.549463" lon="11.223724"><ele>245.9</ele></trkpt>
<trkpt lat="46.549957" lon="11.223332"><ele>246.2</ele></trkpt>
<trkpt lat="46.550503" lon="11.222771"><ele>246.7</ele></trkpt>
<trkpt lat="46.550796" lon="11.222379"><ele>246.9</ele></trkpt>
<trkpt lat="46.55089" lon="11.222256"><ele>247.0</ele></trkpt>
<trkpt lat="46.551592" lon="11.221125"><ele>247.4</ele></trkpt>
<trkpt lat="46.551865" lon="11.220741"><ele>247.5</ele></trkpt>
<trkpt lat="46.552438" lon="11.220181"><ele>247.8</ele></trkpt>
<trkpt lat="46.552722" lon="11.219974"><ele>247.8</ele></trkpt>
<trkpt lat="46.553131" lon="11.219764"><ele>248.0</ele></trkpt>
<trkpt lat="46.554329" lon="11.219372"><ele>248.2</ele></trkpt>
<trkpt lat="46.555105" lon="11.218989"><ele>248.3</ele></trkpt>
<trkpt lat="46.555146" lon="11.218963"><ele>248.3</ele></trkpt>
<trkpt lat="46.555241" lon="11.218903"><ele>248.3</ele></trkpt>
<trkpt lat="46.555534" lon="11.21872"><ele>248.3</ele></trkpt>
<trkpt lat="46.555633" lon="11.21867"><ele>248.2</ele></trkpt>
<trkpt lat="46.555773" lon="11.218529"><ele>248.2</ele></trkpt>
<trkpt lat="46.556266" lon="11.217987"><ele>248.1</ele></trkpt>
<trkpt lat="46.556632" lon="11.217757"><ele>248.0</ele></trkpt>
<trkpt lat="46.556881" lon="11.217666"><ele>248.0</ele></trkpt>
<trkpt lat="46.55713" lon="11.217615"><ele>248.0</ele></trkpt>
<trkpt lat="46.557467" lon="11.217592"><ele>248.1</ele></trkpt>
<trkpt lat="46.557927" lon="11.217686"><ele>248.2</ele></trkpt>
<trkpt lat="46.559226" lon="11.218449"><ele>248.6</ele></trkpt>
<trkpt lat="46.559673" lon="11.218658"><ele>248.7</ele></trkpt>
<trkpt lat="46.560011" lon="11.218695"><ele>248.8</ele></trkpt>
<trkpt lat="46.560854" lon="11.218709"><ele>248.8</ele></trkpt>
<trkpt lat="46.561665" lon="11.218339"><ele>248.5</ele></trkpt>
<trkpt lat="46.562253" lon="11.21792"><ele>248.3</ele></trkpt>
<trkpt lat="46.562543" lon="11.217651"><ele>248.3</ele></trkpt>
<trkpt lat="46.566945" lon="11.212888"><ele>248.6</ele></trkpt>
<trkpt lat="46.567733" lon="11.21188"><ele>248.6</ele></trkpt>
<trkpt lat="46.568168" lon="11.211171"><ele>248.5</ele></trkpt>
<trkpt lat="46.568645" lon="11.210283"><ele>248.4</ele></trkpt>
<trkpt lat="46.572035" lon="11.202683"><ele>249.6</ele></trkpt>
<trkpt lat="46.572362" lon="11.202026"><ele>250.0</ele></trkpt>
<trkpt lat="46.572757" lon="11.201341"><ele>250.3</ele></trkpt>
<trkpt lat="46.573198" lon="11.200677"><ele>250.8</ele></trkpt>
<trkpt lat="46.573766" lon="11.199928"><ele>251.4</ele></trkpt>
<trkpt lat="46.574247" lon="11.199361"><ele>251.8</ele></trkpt>
<trkpt lat="46.574573" lon="11.198981"><ele>252.0</ele></trkpt>
<trkpt lat="46.574788" lon="11.198786"><ele>252.1</ele></trkpt>
<trkpt lat="46.576878" lon="11.196415"><ele>252.4</ele></trkpt>
<trkpt lat="46.580785" lon="11.192069"><ele>252.8</ele></trkpt>
<trkpt lat="46.58155" lon="11.191365"><ele>252.9</ele></trkpt>
<trkpt lat="46.582139" lon="11.190918"><ele>253.0</ele></trkpt>
<trkpt lat="46.58299" lon="11.190373"><ele>253.3</ele></trkpt>
<trkpt lat="46.583723" lon="11.190008"><ele>253.6</ele></trkpt>
<trkpt lat="46.585615" lon="11.189116"><ele>254.6</ele></trkpt>
<trkpt lat="46.586125" lon="11.188904"><ele>254.8</ele></trkpt>
<trkpt lat="46.586236" lon="11.188863"><ele>254.9</ele></trkpt>
<trkpt lat="46.587009" lon="11.188575"><ele>255.1</ele></trkpt>
<trkpt lat="46.588133" lon="11.18823"><ele>255.2</ele></trkpt>
<trkpt lat="46.589476" lon="11.18794"><ele>255.4</ele></trkpt>
<trkpt lat="46.591099" lon="11.187678"><ele>255.5</ele></trkpt>
<trkpt lat="46.591996" lon="11.187565"><ele>255.4</ele></trkpt>
<trkpt lat="46.593647" lon="11.187518"><ele>255.4</ele></trkpt>
<trkpt lat="46.595048" lon="11.18738"><ele>255.8</ele></trkpt>
<trkpt lat="46.596468" lon="11.187165"><ele>256.4</ele></trkpt>
<trkpt lat="46.597356" lon="11.186938"><ele>256.7</ele></trkpt>
<trkpt lat="46.600024" lon="11.185999"><ele>257.7</ele></trkpt>
<trkpt lat="46.604258" lon="11.184582"><ele>259.6</ele></trkpt>
<trkpt lat="46.604771" lon="11.184331"><ele>259.8</ele></trkpt>
<trkpt lat="46.608612" lon="11.181831"><ele>261.1</ele></trkpt>
<trkpt lat="46.609186" lon="11.181461"><ele>261.4</ele></trkpt>
<trkpt lat="46.609478" lon="11.181311"><ele>261.6</ele></trkpt>
<trkpt lat="46.610418" lon="11.181112"><ele>261.9</ele></trkpt>
<trkpt lat="46.611182" lon="11.181217"><ele>262.2</ele></trkpt>
<trkpt lat="46.611467" lon="11.181297"><ele>262.1</ele></trkpt>
<trkpt lat="46.61204" lon="11.181562"><ele>262.1</ele></trkpt>
<trkpt lat="46.612478" lon="11.181885"><ele>262.0</ele></trkpt>
<trkpt lat="46.612636" lon="11.182035"><ele>262.0</ele></trkpt>
<trkpt lat="46.613275" lon="11.182778"><ele>262.2</ele></trkpt>
<trkpt lat="46.613981" lon="11.183451"><ele>262.4</ele></trkpt>
<trkpt lat="46.614274" lon="11.183674"><ele>262.5</ele></trkpt>
<trkpt lat="46.614704" lon="11.183949"><ele>262.4</ele></trkpt>
<trkpt lat="46.615705" lon="11.184418"><ele>262.3</ele></trkpt>
<trkpt lat="46.616011" lon="11.184521"><ele>262.2</ele></trkpt>
<trkpt lat="46.616402" lon="11.184608"><ele>262.2</ele></trkpt>
<trkpt lat="46.618508" lon="11.184809"><ele>262.2</ele></trkpt>
<trkpt lat="46.61909" lon="11.184812"><ele>262.4</ele></trkpt>
<trkpt lat="46.61983" lon="11.184684"><ele>262.9</ele></trkpt>
<trkpt lat="46.62001" lon="11.184645"><ele>263.0</ele></trkpt>
<trkpt lat="46.620687" lon="11.18445"><ele>263.6</ele></trkpt>
<trkpt lat="46.621577" lon="11.183995"><ele>264.2</ele></trkpt>
<trkpt lat="46.628959" lon="11.179738"><ele>267.2</ele></trkpt>
<trkpt lat="46.629582" lon="11.179312"><ele>267.6</ele></trkpt>
<trkpt lat="46.629993" lon="11.178952"><ele>267.8</ele></trkpt>
<trkpt lat="46.63038" lon="11.178559"><ele>268.1</ele></trkpt>
<trkpt lat="46.630835" lon="11.178004"><ele>268.5</ele></trkpt>
<trkpt lat="46.631309" lon="11.177311"><ele>268.7</ele></trkpt>
<trkpt lat="46.631484" lon="11.177287"><ele>268.8</ele></trkpt>
<trkpt lat="46.631717" lon="11.176948"><ele>268.9</ele></trkpt>
<trkpt lat="46.633426" lon="11.174344"><ele>270.2</ele></trkpt>
<trkpt lat="46.633535" lon="11.174205"><ele>270.3</ele></trkpt>
<trkpt lat="46.63393" lon="11.173746"><ele>270.8</ele></trkpt>
<trkpt lat="46.634158" lon="11.17353"><ele>271.1</ele></trkpt>
<trkpt lat="46.634503" lon="11.173244"><ele>271.5</ele></trkpt>
<trkpt lat="46.634945" lon="11.172951"><ele>272.1</ele></trkpt>
<trkpt lat="46.635031" lon="11.172932"><ele>272.2</ele></trkpt>
<trkpt lat="46.635128" lon="11.173064"><ele>272.2</ele></trkpt>
<trkpt lat="46.635304" lon="11.173205"><ele>272.2</ele></trkpt>
<trkpt lat="46.635468" lon="11.173205"><ele>272.2</ele></trkpt>
<trkpt lat="46.635774" lon="11.173"><ele>272.2</ele></trkpt>
<trkpt lat="46.636633" lon="11.172507"><ele>272.1</ele></trkpt>
<trkpt lat="46.636971" lon="11.172329"><ele>271.8</ele></trkpt>
<trkpt lat="46.637524" lon="11.172105"><ele>271.3</ele></trkpt>
<trkpt lat="46.637735" lon="11.172054"><ele>271.1</ele></trkpt>
<trkpt lat="46.638225" lon="11.172037"><ele>270.6</ele></trkpt>
<trkpt lat="46.638384" lon="11.172111"><ele>270.4</ele></trkpt>
<trkpt lat="46.639958" lon="11.172098"><ele>268.6</ele></trkpt>
<trkpt lat="46.640673" lon="11.172201"><ele>268.4</ele></trkpt>
<trkpt lat="46.641349" lon="11.172383"><ele>268.7</ele></trkpt>
<trkpt lat="46.64191" lon="11.172595"><ele>268.9</ele></trkpt>
<trkpt lat="46.642639" lon="11.172982"><ele>269.6</ele></trkpt>
<trkpt lat="46.643051" lon="11.173273"><ele>270.1</ele></trkpt>
<trkpt lat="46.644747" lon="11.174529"><ele>272.7</ele></trkpt>
<trkpt lat="46.645278" lon="11.175036"><ele>273.8</ele></trkpt>
<trkpt lat="46.645343" lon="11.175045"><ele>274.0</ele></trkpt>
<trkpt lat="46.645418" lon="11.175037"><ele>274.2</ele></trkpt>
<trkpt lat="46.645524" lon="11.175067"><ele>274.5</ele></trkpt>
<trkpt lat="46.645766" lon="11.17523"><ele>275.2</ele></trkpt>
<trkpt lat="46.64776" lon="11.17678"><ele>280.8</ele></trkpt>
<trkpt lat="46.647755" lon="11.176717"><ele>280.9</ele></trkpt>
<trkpt lat="46.647773" lon="11.176629"><ele>281.0</ele></trkpt>
<trkpt lat="46.647819" lon="11.17657"><ele>281.1</ele></trkpt>
<trkpt lat="46.647861" lon="11.176556"><ele>281.2</ele></trkpt>
<trkpt lat="46.647926" lon="11.176594"><ele>281.4</ele></trkpt>
<trkpt lat="46.648317" lon="11.176979"><ele>282.3</ele></trkpt>
<trkpt lat="46.6485" lon="11.176956"><ele>282.4</ele></trkpt>
<trkpt lat="46.648692" lon="11.17698"><ele>282.4</ele></trkpt>
<trkpt lat="46.648863" lon="11.176918"><ele>282.3</ele></trkpt>
<trkpt lat="46.64916" lon="11.176792"><ele>282.3</ele></trkpt>
<trkpt lat="46.649632" lon="11.176481"><ele>282.3</ele></trkpt>
<trkpt lat="46.649948" lon="11.176203"><ele>282.2</ele></trkpt>
<trkpt lat="46.650462" lon="11.175644"><ele>282.6</ele></trkpt>
<trkpt lat="46.650815" lon="11.175282"><ele>282.8</ele></trkpt>
<trkpt lat="46.651066" lon="11.175151"><ele>283.0</ele></trkpt>
<trkpt lat="46.6515" lon="11.175063"><ele>283.3</ele></trkpt>
<trkpt lat="46.652581" lon="11.174976"><ele>284.2</ele></trkpt>
<trkpt lat="46.652732" lon="11.17491"><ele>284.4</ele></trkpt>
<trkpt lat="46.652798" lon="11.174854"><ele>284.4</ele></trkpt>
<trkpt lat="46.652932" lon="11.174655"><ele>284.6</ele></trkpt>
<trkpt lat="46.653228" lon="11.174055"><ele>285.0</ele></trkpt>
<trkpt lat="46.653535" lon="11.173034"><ele>285.4</ele></trkpt>
<trkpt lat="46.653782" lon="11.172229"><ele>285.8</ele></trkpt>
<trkpt lat="46.65395" lon="11.171802"><ele>286.0</ele></trkpt>
<trkpt lat="46.654121" lon="11.171474"><ele>286.1</ele></trkpt>
<trkpt lat="46.654391" lon="11.171047"><ele>286.3</ele></trkpt>
<trkpt lat="46.65489" lon="11.170453"><ele>286.7</ele></trkpt>
<trkpt lat="46.655105" lon="11.170146"><ele>286.8</ele></trkpt>
<trkpt lat="46.655018" lon="11.170134"><ele>286.9</ele></trkpt>
<trkpt lat="46.654848" lon="11.170024"><ele>286.8</ele></trkpt>
<trkpt lat="46.654516" lon="11.16981"><ele>286.4</ele></trkpt>
<trkpt lat="46.65449" lon="11.169768"><ele>286.4</ele></trkpt>
<trkpt lat="46.654771" lon="11.169073"><ele>285.8</ele></trkpt>
<trkpt lat="46.653939" lon="11.168564"><ele>285.1</ele></trkpt>
<trkpt lat="46.653754" lon="11.168452"><ele>285.0</ele></trkpt>
<trkpt lat="46.654064" lon="11.167563"><ele>284.7</ele></trkpt>
<trkpt lat="46.65408" lon="11.167515"><ele>284.7</ele></trkpt>
<trkpt lat="46.654589" lon="11.166004"><ele>285.0</ele></trkpt>
<trkpt lat="46.65466" lon="11.165795"><ele>285.2</ele></trkpt>
<trkpt lat="46.654705" lon="11.165662"><ele>285.3</ele></trkpt>
<trkpt lat="46.654932" lon="11.164991"><ele>286.0</ele></trkpt>
<trkpt lat="46.654992" lon="11.164929"><ele>286.1</ele></trkpt>
<trkpt lat="46.655373" lon="11.163836"><ele>287.1</ele></trkpt>
<trkpt lat="46.655504" lon="11.163616"><ele>287.3</ele></trkpt>
<trkpt lat="46.655593" lon="11.163552"><ele>287.4</ele></trkpt>
<trkpt lat="46.655679" lon="11.163519"><ele>287.5</ele></trkpt>
<trkpt lat="46.655754" lon="11.163515"><ele>287.6</ele></trkpt>
<trkpt lat="46.655851" lon="11.163541"><ele>287.7</ele></trkpt>
<trkpt lat="46.655968" lon="11.163615"><ele>287.9</ele></trkpt>
<trkpt lat="46.656252" lon="11.163748"><ele>288.2</ele></trkpt>
<trkpt lat="46.656355" lon="11.163755"><ele>288.4</ele></trkpt>
<trkpt lat="46.656559" lon="11.163675"><ele>288.6</ele></trkpt>
<trkpt lat="46.656659" lon="11.163465"><ele>288.8</ele></trkpt>
<trkpt lat="46.656848" lon="11.162948"><ele>288.8</ele></trkpt>
<trkpt lat="46.657058" lon="11.162286"><ele>288.9</ele></trkpt>
<trkpt lat="46.657136" lon="11.162239"><ele>288.9</ele></trkpt>
<trkpt lat="46.6573" lon="11.16232"><ele>288.9</ele></trkpt>
<trkpt lat="46.657377" lon="11.162324"><ele>288.9</ele></trkpt>
<trkpt lat="46.657455" lon="11.162254"><ele>288.9</ele></trkpt>
<trkpt lat="46.657756" lon="11.161294"><ele>289.3</ele></trkpt>
<trkpt lat="46.658113" lon="11.160128"><ele>290.1</ele></trkpt>
<trkpt lat="46.65875" lon="11.160286"><ele>290.7</ele></trkpt>
<trkpt lat="46.658834" lon="11.160379"><ele>291.0</ele></trkpt>
<trkpt lat="46.658932" lon="11.160434"><ele>291.2</ele></trkpt>
<trkpt lat="46.659405" lon="11.160598"><ele>292.4</ele></trkpt>
<trkpt lat="46.659992" lon="11.160935"><ele>293.9</ele></trkpt>
<trkpt lat="46.660079" lon="11.160986"><ele>294.1</ele></trkpt>
<trkpt lat="46.660134" lon="11.160828"><ele>294.4</ele></trkpt>
<trkpt lat="46.661071" lon="11.160636"><ele>295.0</ele></trkpt>
<trkpt lat="46.661141" lon="11.160573"><ele>295.0</ele></trkpt>
<trkpt lat="46.661318" lon="11.160195"><ele>295.0</ele></trkpt>
<trkpt lat="46.661634" lon="11.159892"><ele>295.0</ele></trkpt>
<trkpt lat="46.66162" lon="11.15966"><ele>295.0</ele></trkpt>
<trkpt lat="46.66167" lon="11.159636"><ele>295.0</ele></trkpt>
<trkpt lat="46.661733" lon="11.159612"><ele>295.0</ele></trkpt>
<trkpt lat="46.661774" lon="11.159597"><ele>295.0</ele></trkpt>
<trkpt lat="46.661615" lon="11.159091"><ele>294.5</ele></trkpt>
<trkpt lat="46.661538" lon="11.158931"><ele>294.4</ele></trkpt>
<trkpt lat="46.661427" lon="11.158696"><ele>294.1</ele></trkpt>
<trkpt lat="46.660952" lon="11.157686"><ele>293.1</ele></trkpt>
<trkpt lat="46.659812" lon="11.15528"><ele>292.2</ele></trkpt>
<trkpt lat="46.659581" lon="11.154793"><ele>292.0</ele></trkpt>
<trkpt lat="46.659382" lon="11.154374"><ele>291.8</ele></trkpt>
<trkpt lat="46.658072" lon="11.151609"><ele>291.0</ele></trkpt>
<trkpt lat="46.657075" lon="11.149482"><ele>290.7</ele></trkpt>
<trkpt lat="46.656727" lon="11.148724"><ele>290.6</ele></trkpt>
<trkpt lat="46.656777" lon="11.148669"><ele>290.6</ele></trkpt>
<trkpt lat="46.656845" lon="11.148483"><ele>290.7</ele></trkpt>
<trkpt lat="46.657064" lon="11.148112"><ele>291.0</ele></trkpt>
<trkpt lat="46.657275" lon="11.147795"><ele>291.2</ele></trkpt>
<trkpt lat="46.657873" lon="11.14718"><ele>291.7</ele></trkpt>
<trkpt lat="46.658233" lon="11.146935"><ele>291.8</ele></trkpt>
<trkpt lat="46.658367" lon="11.146928"><ele>291.8</ele></trkpt>
<trkpt lat="46.658457" lon="11.146881"><ele>291.8</ele></trkpt>
<trkpt lat="46.658868" lon="11.146546"><ele>291.8</ele></trkpt>
<trkpt lat="46.659027" lon="11.146558"><ele>291.8</ele></trkpt>
<trkpt lat="46.659102" lon="11.146558"><ele>291.8</ele></trkpt>
<trkpt lat="46.659205" lon="11.146656"><ele>291.8</ele></trkpt>
<trkpt lat="46.659229" lon="11.146602"><ele>291.8</ele></trkpt>
<trkpt lat="46.659365" lon="11.146398"><ele>291.8</ele></trkpt>
<trkpt lat="46.659413" lon="11.146293"><ele>291.8</ele></trkpt>
<trkpt lat="46.659392" lon="11.14612"><ele>291.8</ele></trkpt>
<trkpt lat="46.659403" lon="11.146049"><ele>291.8</ele></trkpt>
<trkpt lat="46.659458" lon="11.145978"><ele>291.8</ele></trkpt>
<trkpt lat="46.659535" lon="11.145966"><ele>291.9</ele></trkpt>
<trkpt lat="46.659778" lon="11.145626"><ele>291.9</ele></trkpt>
<trkpt lat="46.659803" lon="11.14537"><ele>292.0</ele></trkpt>
<trkpt lat="46.660294" lon="11.14522"><ele>292.1</ele></trkpt>
<trkpt lat="46.660528" lon="11.145147"><ele>292.1</ele></trkpt>
<trkpt lat="46.660766" lon="11.145059"><ele>292.2</ele></trkpt>
<trkpt lat="46.66103" lon="11.144994"><ele>292.3</ele></trkpt>
<trkpt lat="46.661204" lon="11.144951"><ele>292.4</ele></trkpt>
<trkpt lat="46.661774" lon="11.144778"><ele>292.9</ele></trkpt>
<trkpt lat="46.662118" lon="11.144702"><ele>293.2</ele></trkpt>
<trkpt lat="46.662201" lon="11.144622"><ele>293.3</ele></trkpt>
<trkpt lat="46.662518" lon="11.144543"><ele>293.6</ele></trkpt>
<trkpt lat="46.662813" lon="11.144511"><ele>293.8</ele></trkpt>
<trkpt lat="46.663176" lon="11.144382"><ele>294.1</ele></trkpt>
<trkpt lat="46.663281" lon="11.144333"><ele>294.2</ele></trkpt>
<trkpt lat="46.663359" lon="11.144396"><ele>294.2</ele></trkpt>
<trkpt lat="46.664402" lon="11.145295"><ele>295.1</ele></trkpt>
<trkpt lat="46.665289" lon="11.146218"><ele>295.9</ele></trkpt>
<trkpt lat="46.6657" lon="11.146693"><ele>296.2</ele></trkpt>
<trkpt lat="46.665973" lon="11.146935"><ele>296.2</ele></trkpt>
<trkpt lat="46.66598" lon="11.146918"><ele>296.1</ele></trkpt>
<trkpt lat="46.666207" lon="11.146337"><ele>295.9</ele></trkpt>
<trkpt lat="46.66622" lon="11.146303"><ele>295.9</ele></trkpt>
<trkpt lat="46.666204" lon="11.146267"><ele>295.9</ele></trkpt>
<trkpt lat="46.666051" lon="11.145928"><ele>295.7</ele></trkpt>
<trkpt lat="46.665683" lon="11.144781"><ele>295.3</ele></trkpt>
<trkpt lat="46.665537" lon="11.144124"><ele>295.4</ele></trkpt>
<trkpt lat="46.665459" lon="11.143663"><ele>295.4</ele></trkpt>
<trkpt lat="46.665474" lon="11.143393"><ele>295.4</ele></trkpt>
<trkpt lat="46.665464" lon="11.143046"><ele>295.4</ele></trkpt>
<trkpt lat="46.665356" lon="11.142869"><ele>295.4</ele></trkpt>
<trkpt lat="46.665243" lon="11.142661"><ele>295.5</ele></trkpt>
<trkpt lat="46.665209" lon="11.142569"><ele>295.5</ele></trkpt>
<trkpt lat="46.665228" lon="11.142495"><ele>295.5</ele></trkpt>
<trkpt lat="46.665662" lon="11.142095"><ele>296.7</ele></trkpt>
<trkpt lat="46.666262" lon="11.141223"><ele>298.7</ele></trkpt>
<trkpt lat="46.666535" lon="11.140737"><ele>299.7</ele></trkpt>
<trkpt lat="46.667198" lon="11.139714"><ele>302.1</ele></trkpt>
<trkpt lat="46.667632" lon="11.139211"><ele>303.4</ele></trkpt>
<trkpt lat="46.667979" lon="11.138884"><ele>304.2</ele></trkpt>
<trkpt lat="46.668928" lon="11.13825"><ele>305.3</ele></trkpt>
<trkpt lat="46.669407" lon="11.137829"><ele>305.8</ele></trkpt>
<trkpt lat="46.669761" lon="11.137442"><ele>306.5</ele></trkpt>
<trkpt lat="46.67022" lon="11.136805"><ele>307.6</ele></trkpt>
<trkpt lat="46.670707" lon="11.136035"><ele>308.9</ele></trkpt>
<trkpt lat="46.671247" lon="11.135101"><ele>310.5</ele></trkpt>
<trkpt lat="46.671543" lon="11.134721"><ele>311.3</ele></trkpt>
<trkpt lat="46.671839" lon="11.134404"><ele>312.0</ele></trkpt>
<trkpt lat="46.672131" lon="11.134114"><ele>312.7</ele></trkpt>
<trkpt lat="46.672842" lon="11.133504"><ele>314.7</ele></trkpt>
<trkpt lat="46.673481" lon="11.132816"><ele>316.6</ele></trkpt>
<trkpt lat="46.673733" lon="11.132469"><ele>317.4</ele></trkpt>
<trkpt lat="46.67434" lon="11.131401"><ele>319.4</ele></trkpt>
<trkpt lat="46.674642" lon="11.130918"><ele>320.4</ele></trkpt>
<trkpt lat="46.675941" lon="11.12927"><ele>324.8</ele></trkpt>
<trkpt lat="46.676234" lon="11.128822"><ele>326.0</ele></trkpt>
<trkpt lat="46.67625" lon="11.128749"><ele>326.2</ele></trkpt>
<trkpt lat="46.676284" lon="11.128616"><ele>326.5</ele></trkpt>
<trkpt lat="46.676549" lon="11.127986"><ele>328.0</ele></trkpt>
<trkpt lat="46.676738" lon="11.127339"><ele>329.4</ele></trkpt>
<trkpt lat="46.676916" lon="11.126549"><ele>331.0</ele></trkpt>
<trkpt lat="46.677127" lon="11.125885"><ele>332.3</ele></trkpt>
<trkpt lat="46.677493" lon="11.125116"><ele>333.9</ele></trkpt>
<trkpt lat="46.677984" lon="11.124331"><ele>335.9</ele></trkpt>
<trkpt lat="46.678201" lon="11.123861"><ele>337.3</ele></trkpt>
<trkpt lat="46.678366" lon="11.123474"><ele>338.4</ele></trkpt>
<trkpt lat="46.678622" lon="11.122859"><ele>340.2</ele></trkpt>
<trkpt lat="46.678707" lon="11.122738"><ele>340.6</ele></trkpt>
<trkpt lat="46.678726" lon="11.122663"><ele>340.8</ele></trkpt>
<trkpt lat="46.678826" lon="11.122461"><ele>341.4</ele></trkpt>
<trkpt lat="46.679188" lon="11.121342"><ele>343.6</ele></trkpt>
<trkpt lat="46.679389" lon="11.120603"><ele>345.0</ele></trkpt>
<trkpt lat="46.679778" lon="11.118339"><ele>349.7</ele></trkpt>
<trkpt lat="46.679831" lon="11.118296"><ele>349.9</ele></trkpt>
<trkpt lat="46.68008" lon="11.118424"><ele>350.7</ele></trkpt>
<trkpt lat="46.680155" lon="11.118395"><ele>351.0</ele></trkpt>
<trkpt lat="46.680458" lon="11.117418"><ele>353.1</ele></trkpt>
<trkpt lat="46.680427" lon="11.117347"><ele>353.3</ele></trkpt>
<trkpt lat="46.680394" lon="11.117183"><ele>353.6</ele></trkpt>
<trkpt lat="46.68039" lon="11.116671"><ele>354.6</ele></trkpt>
<trkpt lat="46.68022" lon="11.116622"><ele>355.1</ele></trkpt>
<trkpt lat="46.68013" lon="11.116559"><ele>355.4</ele></trkpt>
<trkpt lat="46.68007" lon="11.116507"><ele>355.5</ele></trkpt>
<trkpt lat="46.680032" lon="11.11642"><ele>355.7</ele></trkpt>
<trkpt lat="46.680055" lon="11.116257"><ele>356.1</ele></trkpt>
<trkpt lat="46.680063" lon="11.116062"><ele>356.4</ele></trkpt>
<trkpt lat="46.680143" lon="11.115543"><ele>357.6</ele></trkpt>
<trkpt lat="46.680324" lon="11.114556"><ele>360.1</ele></trkpt>
<trkpt lat="46.680422" lon="11.113479"><ele>362.7</ele></trkpt>
<trkpt lat="46.680452" lon="11.11276"><ele>365.1</ele></trkpt>
<trkpt lat="46.680391" lon="11.111613"><ele>369.2</ele></trkpt>
<trkpt lat="46.680406" lon="11.111282"><ele>370.4</ele></trkpt>
<trkpt lat="46.680476" lon="11.110649"><ele>372.7</ele></trkpt>
<trkpt lat="46.680507" lon="11.11008"><ele>374.9</ele></trkpt>
<trkpt lat="46.680512" lon="11.109599"><ele>376.7</ele></trkpt>
<trkpt lat="46.680486" lon="11.109181"><ele>378.3</ele></trkpt>
<trkpt lat="46.680388" lon="11.108606"><ele>380.6</ele></trkpt>
<trkpt lat="46.680068" lon="11.107573"><ele>385.4</ele></trkpt>
<trkpt lat="46.680006" lon="11.107254"><ele>387.0</ele></trkpt>
<trkpt lat="46.679978" lon="11.106836"><ele>388.9</ele></trkpt>
<trkpt lat="46.679996" lon="11.106144"><ele>392.2</ele></trkpt>
<trkpt lat="46.680082" lon="11.105239"><ele>396.9</ele></trkpt>
<trkpt lat="46.680125" lon="11.104184"><ele>403.3</ele></trkpt>
<trkpt lat="46.680157" lon="11.103956"><ele>404.7</ele></trkpt>
<trkpt lat="46.680146" lon="11.103765"><ele>405.9</ele></trkpt>
<trkpt lat="46.680232" lon="11.103214"><ele>409.3</ele></trkpt>
<trkpt lat="46.680265" lon="11.103117"><ele>410.0</ele></trkpt>
<trkpt lat="46.680323" lon="11.103028"><ele>410.7</ele></trkpt>
<trkpt lat="46.680522" lon="11.102874"><ele>412.7</ele></trkpt>
<trkpt lat="46.680731" lon="11.102265"><ele>416.8</ele></trkpt>
<trkpt lat="46.68115" lon="11.101561"><ele>422.3</ele></trkpt>
<trkpt lat="46.681198" lon="11.101428"><ele>423.2</ele></trkpt>
<trkpt lat="46.68122" lon="11.101126"><ele>425.1</ele></trkpt>
<trkpt lat="46.681247" lon="11.101041"><ele>425.6</ele></trkpt>
<trkpt lat="46.681302" lon="11.101003"><ele>426.2</ele></trkpt>
<trkpt lat="46.681382" lon="11.101033"><ele>426.8</ele></trkpt>
<trkpt lat="46.681479" lon="11.10128"><ele>428.1</ele></trkpt>
<trkpt lat="46.68153" lon="11.101581"><ele>429.6</ele></trkpt>
<trkpt lat="46.681522" lon="11.101729"><ele>430.2</ele></trkpt>
<trkpt lat="46.681541" lon="11.101767"><ele>430.5</ele></trkpt>
<trkpt lat="46.681573" lon="11.101763"><ele>430.7</ele></trkpt>
<trkpt lat="46.681603" lon="11.101684"><ele>431.1</ele></trkpt>
<trkpt lat="46.681618" lon="11.101408"><ele>432.4</ele></trkpt>
<trkpt lat="46.681685" lon="11.101181"><ele>433.5</ele></trkpt>
<trkpt lat="46.681807" lon="11.1009"><ele>435.1</ele></trkpt>
<trkpt lat="46.681895" lon="11.100583"><ele>436.7</ele></trkpt>
<trkpt lat="46.681829" lon="11.100301"><ele>438.1</ele></trkpt>
<trkpt lat="46.681756" lon="11.100164"><ele>438.8</ele></trkpt>
<trkpt lat="46.681691" lon="11.100009"><ele>439.2</ele></trkpt>
<trkpt lat="46.68171" lon="11.099951"><ele>439.3</ele></trkpt>
<trkpt lat="46.681787" lon="11.099933"><ele>439.6</ele></trkpt>
<trkpt lat="46.681884" lon="11.099993"><ele>440.0</ele></trkpt>
<trkpt lat="46.682111" lon="11.100162"><ele>440.9</ele></trkpt>
<trkpt lat="46.682188" lon="11.100237"><ele>441.2</ele></trkpt>
<trkpt lat="46.682194" lon="11.100286"><ele>441.3</ele></trkpt>
<trkpt lat="46.682085" lon="11.100547"><ele>442.0</ele></trkpt>
<trkpt lat="46.68186" lon="11.101383"><ele>444.1</ele></trkpt>
<trkpt lat="46.681843" lon="11.101661"><ele>444.8</ele></trkpt>
<trkpt lat="46.681863" lon="11.101811"><ele>445.3</ele></trkpt>
<trkpt lat="46.681895" lon="11.101835"><ele>445.4</ele></trkpt>
<trkpt lat="46.681923" lon="11.101819"><ele>445.6</ele></trkpt>
<trkpt lat="46.681926" lon="11.101462"><ele>446.7</ele></trkpt>
<trkpt lat="46.682217" lon="11.100744"><ele>449.4</ele></trkpt>
<trkpt lat="46.682282" lon="11.100726"><ele>449.7</ele></trkpt>
<trkpt lat="46.682301" lon="11.100788"><ele>449.9</ele></trkpt>
<trkpt lat="46.682287" lon="11.100859"><ele>450.1</ele></trkpt>
<trkpt lat="46.682239" lon="11.100879"><ele>450.4</ele></trkpt>
<trkpt lat="46.682139" lon="11.101112"><ele>451.2</ele></trkpt>
<trkpt lat="46.682034" lon="11.101662"><ele>453.1</ele></trkpt>
<trkpt lat="46.682082" lon="11.101724"><ele>453.5</ele></trkpt>
<trkpt lat="46.682251" lon="11.101699"><ele>454.8</ele></trkpt>
<trkpt lat="46.682293" lon="11.101646"><ele>455.3</ele></trkpt>
<trkpt lat="46.682403" lon="11.101326"><ele>457.2</ele></trkpt>
<trkpt lat="46.682517" lon="11.100769"><ele>460.3</ele></trkpt>
<trkpt lat="46.682571" lon="11.100452"><ele>462.1</ele></trkpt>
<trkpt lat="46.682794" lon="11.099738"><ele>466.3</ele></trkpt>
<trkpt lat="46.682944" lon="11.099045"><ele>471.2</ele></trkpt>
<trkpt lat="46.683073" lon="11.098152"><ele>477.8</ele></trkpt>
<trkpt lat="46.683126" lon="11.097762"><ele>480.7</ele></trkpt>
<trkpt lat="46.683142" lon="11.097065"><ele>485.7</ele></trkpt>
<trkpt lat="46.683155" lon="11.096645"><ele>487.6</ele></trkpt>
<trkpt lat="46.683157" lon="11.096529"><ele>488.0</ele></trkpt>
<trkpt lat="46.68317" lon="11.096219"><ele>489.1</ele></trkpt>
<trkpt lat="46.683251" lon="11.096034"><ele>489.9</ele></trkpt>
<trkpt lat="46.683247" lon="11.095905"><ele>490.4</ele></trkpt>
<trkpt lat="46.683151" lon="11.095652"><ele>491.4</ele></trkpt>
<trkpt lat="46.683076" lon="11.095527"><ele>492.0</ele></trkpt>
<trkpt lat="46.683053" lon="11.095434"><ele>492.4</ele></trkpt>
<trkpt lat="46.683121" lon="11.094953"><ele>494.2</ele></trkpt>
<trkpt lat="46.683075" lon="11.094665"><ele>495.2</ele></trkpt>
<trkpt lat="46.683025" lon="11.094612"><ele>495.6</ele></trkpt>
<trkpt lat="46.682679" lon="11.094652"><ele>495.6</ele></trkpt>
<trkpt lat="46.682613" lon="11.094706"><ele>495.6</ele></trkpt>
<trkpt lat="46.682503" lon="11.094907"><ele>495.5</ele></trkpt>
<trkpt lat="46.682444" lon="11.095244"><ele>495.3</ele></trkpt>
<trkpt lat="46.682402" lon="11.095294"><ele>495.3</ele></trkpt>
<trkpt lat="46.682376" lon="11.095294"><ele>495.3</ele></trkpt>
<trkpt lat="46.68223" lon="11.095263"><ele>495.2</ele></trkpt>
<trkpt lat="46.682174" lon="11.095226"><ele>495.1</ele></trkpt>
<trkpt lat="46.682112" lon="11.095131"><ele>495.1</ele></trkpt>
<trkpt lat="46.681759" lon="11.094529"><ele>494.7</ele></trkpt>
<trkpt lat="46.681714" lon="11.094309"><ele>495.0</ele></trkpt>
<trkpt lat="46.68175" lon="11.093303"><ele>498.2</ele></trkpt>
<trkpt lat="46.681739" lon="11.093018"><ele>499.2</ele></trkpt>
<trkpt lat="46.681693" lon="11.092787"><ele>499.9</ele></trkpt>
<trkpt lat="46.681621" lon="11.092569"><ele>500.7</ele></trkpt>
<trkpt lat="46.681546" lon="11.092421"><ele>501.3</ele></trkpt>
<trkpt lat="46.681421" lon="11.092285"><ele>502.1</ele></trkpt>
<trkpt lat="46.681098" lon="11.092034"><ele>503.5</ele></trkpt>
<trkpt lat="46.681061" lon="11.092081"><ele>503.6</ele></trkpt>
<trkpt lat="46.681021" lon="11.092132"><ele>503.7</ele></trkpt>
<trkpt lat="46.680784" lon="11.092037"><ele>504.3</ele></trkpt>
<trkpt lat="46.680765" lon="11.092052"><ele>504.4</ele></trkpt>
<trkpt lat="46.680702" lon="11.092609"><ele>505.4</ele></trkpt>
<trkpt lat="46.680681" lon="11.092633"><ele>505.4</ele></trkpt>
<trkpt lat="46.680527" lon="11.092624"><ele>505.8</ele></trkpt>
<trkpt lat="46.680369" lon="11.092615"><ele>506.2</ele></trkpt>
<trkpt lat="46.680306" lon="11.092591"><ele>506.4</ele></trkpt>
<trkpt lat="46.680058" lon="11.092375"><ele>507.1</ele></trkpt>
<trkpt lat="46.68004" lon="11.092334"><ele>507.2</ele></trkpt>
<trkpt lat="46.680007" lon="11.092184"><ele>507.4</ele></trkpt>
<trkpt lat="46.680018" lon="11.091931"><ele>507.7</ele></trkpt>
<trkpt lat="46.680021" lon="11.091722"><ele>507.7</ele></trkpt>
<trkpt lat="46.679855" lon="11.091104"><ele>507.9</ele></trkpt>
<trkpt lat="46.679702" lon="11.090461"><ele>508.1</ele></trkpt>
<trkpt lat="46.679598" lon="11.090112"><ele>508.1</ele></trkpt>
<trkpt lat="46.679289" lon="11.089493"><ele>508.5</ele></trkpt>
<trkpt lat="46.678986" lon="11.0888"><ele>509.1</ele></trkpt>
<trkpt lat="46.678256" lon="11.087949"><ele>510.2</ele></trkpt>
<trkpt lat="46.67819" lon="11.087838"><ele>510.3</ele></trkpt>
<trkpt lat="46.678056" lon="11.087492"><ele>510.1</ele></trkpt>
<trkpt lat="46.678006" lon="11.087165"><ele>509.9</ele></trkpt>
<trkpt lat="46.677537" lon="11.086176"><ele>508.9</ele></trkpt>
<trkpt lat="46.677333" lon="11.085432"><ele>508.3</ele></trkpt>
<trkpt lat="46.677228" lon="11.085133"><ele>508.4</ele></trkpt>
<trkpt lat="46.677058" lon="11.084793"><ele>508.4</ele></trkpt>
<trkpt lat="46.676939" lon="11.084594"><ele>508.4</ele></trkpt>
<trkpt lat="46.676661" lon="11.08423"><ele>508.5</ele></trkpt>
<trkpt lat="46.675319" lon="11.08323"><ele>509.2</ele></trkpt>
<trkpt lat="46.674746" lon="11.082811"><ele>509.7</ele></trkpt>
<trkpt lat="46.674182" lon="11.082272"><ele>510.0</ele></trkpt>
<trkpt lat="46.673761" lon="11.08168"><ele>510.0</ele></trkpt>
<trkpt lat="46.671633" lon="11.078959"><ele>510.1</ele></trkpt>
<trkpt lat="46.671337" lon="11.078604"><ele>510.1</ele></trkpt>
<trkpt lat="46.671239" lon="11.078473"><ele>510.0</ele></trkpt>
<trkpt lat="46.670181" lon="11.077119"><ele>509.9</ele></trkpt>
<trkpt lat="46.669553" lon="11.076189"><ele>510.2</ele></trkpt>
<trkpt lat="46.669227" lon="11.07563"><ele>510.5</ele></trkpt>
<trkpt lat="46.668687" lon="11.074604"><ele>510.7</ele></trkpt>
<trkpt lat="46.668365" lon="11.073837"><ele>510.9</ele></trkpt>
<trkpt lat="46.666888" lon="11.070371"><ele>510.7</ele></trkpt>
<trkpt lat="46.666239" lon="11.068763"><ele>510.8</ele></trkpt>
<trkpt lat="46.66623" lon="11.06874"><ele>510.8</ele></trkpt>
<trkpt lat="46.665158" lon="11.066164"><ele>510.9</ele></trkpt>
<trkpt lat="46.665112" lon="11.066051"><ele>510.9</ele></trkpt>
<trkpt lat="46.665089" lon="11.065997"><ele>510.9</ele></trkpt>
<trkpt lat="46.662777" lon="11.060474"><ele>512.2</ele></trkpt>
<trkpt lat="46.662386" lon="11.059427"><ele>512.3</ele></trkpt>
<trkpt lat="46.662129" lon="11.058553"><ele>512.1</ele></trkpt>
<trkpt lat="46.661906" lon="11.057683"><ele>512.0</ele></trkpt>
<trkpt lat="46.661755" lon="11.056836"><ele>511.6</ele></trkpt>
<trkpt lat="46.661582" lon="11.055442"><ele>511.0</ele></trkpt>
<trkpt lat="46.661511" lon="11.053814"><ele>510.9</ele></trkpt>
<trkpt lat="46.661467" lon="11.050865"><ele>511.7</ele></trkpt>
<trkpt lat="46.661425" lon="11.050357"><ele>511.9</ele></trkpt>
<trkpt lat="46.661383" lon="11.049257"><ele>512.3</ele></trkpt>
<trkpt lat="46.661219" lon="11.047832"><ele>513.0</ele></trkpt>
<trkpt lat="46.660942" lon="11.046413"><ele>513.9</ele></trkpt>
<trkpt lat="46.660679" lon="11.045468"><ele>514.6</ele></trkpt>
<trkpt lat="46.660415" lon="11.04466"><ele>515.2</ele></trkpt>
<trkpt lat="46.659988" lon="11.043575"><ele>515.7</ele></trkpt>
<trkpt lat="46.659413" lon="11.042176"><ele>516.4</ele></trkpt>
<trkpt lat="46.658543" lon="11.040048"><ele>517.1</ele></trkpt>
<trkpt lat="46.657283" lon="11.03701"><ele>517.3</ele></trkpt>
<trkpt lat="46.655936" lon="11.03371"><ele>517.9</ele></trkpt>
<trkpt lat="46.655823" lon="11.033453"><ele>517.9</ele></trkpt>
<trkpt lat="46.655307" lon="11.032191"><ele>518.4</ele></trkpt>
<trkpt lat="46.651572" lon="11.023048"><ele>522.6</ele></trkpt>
<trkpt lat="46.651169" lon="11.02212"><ele>522.9</ele></trkpt>
<trkpt lat="46.650547" lon="11.020868"><ele>523.1</ele></trkpt>
<trkpt lat="46.649812" lon="11.019537"><ele>523.3</ele></trkpt>
<trkpt lat="46.647863" lon="11.016274"><ele>523.3</ele></trkpt>
<trkpt lat="46.647436" lon="11.015472"><ele>523.3</ele></trkpt>
<trkpt lat="46.647065" lon="11.014656"><ele>523.4</ele></trkpt>
<trkpt lat="46.646731" lon="11.013789"><ele>523.6</ele></trkpt>
<trkpt lat="46.646469" lon="11.012997"><ele>523.9</ele></trkpt>
<trkpt lat="46.646211" lon="11.012086"><ele>524.2</ele></trkpt>
<trkpt lat="46.646007" lon="11.011202"><ele>524.6</ele></trkpt>
<trkpt lat="46.645839" lon="11.010274"><ele>525.1</ele></trkpt>
<trkpt lat="46.645713" lon="11.00939"><ele>525.5</ele></trkpt>
<trkpt lat="46.645654" lon="11.00882"><ele>525.8</ele></trkpt>
<trkpt lat="46.645579" lon="11.00767"><ele>526.6</ele></trkpt>
<trkpt lat="46.645518" lon="11.006083"><ele>527.6</ele></trkpt>
<trkpt lat="46.645515" lon="11.005567"><ele>527.8</ele></trkpt>
<trkpt lat="46.64555" lon="11.004911"><ele>528.1</ele></trkpt>
<trkpt lat="46.645566" lon="11.004909"><ele>528.1</ele></trkpt>
<trkpt lat="46.645566" lon="11.004864"><ele>528.2</ele></trkpt>
<trkpt lat="46.645565" lon="11.004778"><ele>528.2</ele></trkpt>
<trkpt lat="46.645594" lon="11.004756"><ele>528.2</ele></trkpt>
<trkpt lat="46.645701" lon="11.003555"><ele>528.7</ele></trkpt>
<trkpt lat="46.645822" lon="11.00268"><ele>528.9</ele></trkpt>
<trkpt lat="46.646026" lon="11.001312"><ele>529.1</ele></trkpt>
<trkpt lat="46.646139" lon="11.00073"><ele>529.3</ele></trkpt>
<trkpt lat="46.646326" lon="10.99998"><ele>529.7</ele></trkpt>
<trkpt lat="46.648157" lon="10.994119"><ele>532.8</ele></trkpt>
<trkpt lat="46.648505" lon="10.992981"><ele>533.5</ele></trkpt>
<trkpt lat="46.648528" lon="10.992831"><ele>533.5</ele></trkpt>
<trkpt lat="46.648529" lon="10.992695"><ele>533.6</ele></trkpt>
<trkpt lat="46.648608" lon="10.992266"><ele>533.8</ele></trkpt>
<trkpt lat="46.648584" lon="10.992114"><ele>533.9</ele></trkpt>
<trkpt lat="46.648589" lon="10.99205"><ele>533.9</ele></trkpt>
<trkpt lat="46.64857" lon="10.992048"><ele>533.9</ele></trkpt>
<trkpt lat="46.648218" lon="10.991999"><ele>534.2</ele></trkpt>
<trkpt lat="46.648202" lon="10.991481"><ele>534.7</ele></trkpt>
<trkpt lat="46.648026" lon="10.990125"><ele>535.9</ele></trkpt>
<trkpt lat="46.648002" lon="10.990029"><ele>536.0</ele></trkpt>
<trkpt lat="46.647897" lon="10.989511"><ele>536.5</ele></trkpt>
<trkpt lat="46.647822" lon="10.988981"><ele>537.2</ele></trkpt>
<trkpt lat="46.647772" lon="10.988124"><ele>538.5</ele></trkpt>
<trkpt lat="46.647801" lon="10.987351"><ele>539.6</ele></trkpt>
<trkpt lat="46.648005" lon="10.985065"><ele>542.3</ele></trkpt>
<trkpt lat="46.648046" lon="10.984304"><ele>543.1</ele></trkpt>
<trkpt lat="46.648039" lon="10.983916"><ele>543.6</ele></trkpt>
<trkpt lat="46.647969" lon="10.98347"><ele>544.1</ele></trkpt>
<trkpt lat="46.647723" lon="10.982622"><ele>545.2</ele></trkpt>
<trkpt lat="46.647626" lon="10.982361"><ele>545.5</ele></trkpt>
<trkpt lat="46.64703" lon="10.98102"><ele>547.5</ele></trkpt>
<trkpt lat="46.64685" lon="10.98035"><ele>548.4</ele></trkpt>
<trkpt lat="46.646805" lon="10.979861"><ele>549.0</ele></trkpt>
<trkpt lat="46.646812" lon="10.979399"><ele>549.6</ele></trkpt>
<trkpt lat="46.647048" lon="10.976782"><ele>549.7</ele></trkpt>
<trkpt lat="46.647052" lon="10.976718"><ele>549.8</ele></trkpt>
<trkpt lat="46.647069" lon="10.976483"><ele>549.9</ele></trkpt>
<trkpt lat="46.647066" lon="10.97487"><ele>550.5</ele></trkpt>
<trkpt lat="46.64701" lon="10.973998"><ele>550.9</ele></trkpt>
<trkpt lat="46.646842" lon="10.973125"><ele>551.3</ele></trkpt>
<trkpt lat="46.646779" lon="10.972646"><ele>551.5</ele></trkpt>
<trkpt lat="46.646748" lon="10.972179"><ele>551.7</ele></trkpt>
<trkpt lat="46.646755" lon="10.971318"><ele>552.1</ele></trkpt>
<trkpt lat="46.646627" lon="10.969775"><ele>552.8</ele></trkpt>
<trkpt lat="46.646564" lon="10.969482"><ele>552.9</ele></trkpt>
<trkpt lat="46.646301" lon="10.968851"><ele>553.3</ele></trkpt>
<trkpt lat="46.645888" lon="10.968135"><ele>553.7</ele></trkpt>
<trkpt lat="46.645615" lon="10.967507"><ele>554.0</ele></trkpt>
<trkpt lat="46.64548" lon="10.966995"><ele>554.2</ele></trkpt>
<trkpt lat="46.645348" lon="10.966072"><ele>553.7</ele></trkpt>
<trkpt lat="46.645359" lon="10.966068"><ele>553.6</ele></trkpt>
<trkpt lat="46.645566" lon="10.966027"><ele>553.4</ele></trkpt>
<trkpt lat="46.645589" lon="10.966024"><ele>553.4</ele></trkpt>
<trkpt lat="46.645582" lon="10.965969"><ele>553.4</ele></trkpt>
<trkpt lat="46.645577" lon="10.965917"><ele>553.3</ele></trkpt>
<trkpt lat="46.645539" lon="10.965359"><ele>552.9</ele></trkpt>
<trkpt lat="46.645517" lon="10.96504"><ele>552.7</ele></trkpt>
<trkpt lat="46.645412" lon="10.964427"><ele>552.3</ele></trkpt>
<trkpt lat="46.645234" lon="10.963828"><ele>552.0</ele></trkpt>
<trkpt lat="46.645029" lon="10.963372"><ele>551.8</ele></trkpt>
<trkpt lat="46.644277" lon="10.961468"><ele>550.8</ele></trkpt>
<trkpt lat="46.643796" lon="10.96038"><ele>550.2</ele></trkpt>
<trkpt lat="46.643257" lon="10.959023"><ele>549.5</ele></trkpt>
<trkpt lat="46.643198" lon="10.958828"><ele>549.4</ele></trkpt>
<trkpt lat="46.641903" lon="10.955686"><ele>548.7</ele></trkpt>
<trkpt lat="46.640208" lon="10.951471"><ele>550.5</ele></trkpt>
<trkpt lat="46.639942" lon="10.950873"><ele>550.8</ele></trkpt>
<trkpt lat="46.637212" lon="10.944188"><ele>554.1</ele></trkpt>
<trkpt lat="46.63566" lon="10.940386"><ele>556.6</ele></trkpt>
<trkpt lat="46.635541" lon="10.940085"><ele>556.7</ele></trkpt>
<trkpt lat="46.63529" lon="10.939336"><ele>556.8</ele></trkpt>
<trkpt lat="46.635154" lon="10.939114"><ele>556.8</ele></trkpt>
<trkpt lat="46.634862" lon="10.938355"><ele>556.7</ele></trkpt>
<trkpt lat="46.634797" lon="10.938195"><ele>556.7</ele></trkpt>
<trkpt lat="46.632525" lon="10.932685"><ele>557.8</ele></trkpt>
<trkpt lat="46.630902" lon="10.928743"><ele>561.2</ele></trkpt>
<trkpt lat="46.6306" lon="10.928014"><ele>561.4</ele></trkpt>
<trkpt lat="46.630222" lon="10.927083"><ele>561.5</ele></trkpt>
<trkpt lat="46.629949" lon="10.92641"><ele>561.6</ele></trkpt>
<trkpt lat="46.629376" lon="10.925026"><ele>561.6</ele></trkpt>
<trkpt lat="46.628261" lon="10.922316"><ele>562.7</ele></trkpt>
<trkpt lat="46.627607" lon="10.920704"><ele>563.6</ele></trkpt>
<trkpt lat="46.62731" lon="10.919947"><ele>564.1</ele></trkpt>
<trkpt lat="46.627184" lon="10.919651"><ele>564.2</ele></trkpt>
<trkpt lat="46.626648" lon="10.918332"><ele>564.8</ele></trkpt>
<trkpt lat="46.626247" lon="10.917332"><ele>565.3</ele></trkpt>
<trkpt lat="46.625974" lon="10.916443"><ele>565.5</ele></trkpt>
<trkpt lat="46.625781" lon="10.915523"><ele>565.6</ele></trkpt>
<trkpt lat="46.625679" lon="10.914976"><ele>565.7</ele></trkpt>
<trkpt lat="46.625597" lon="10.913896"><ele>566.0</ele></trkpt>
<trkpt lat="46.625589" lon="10.913125"><ele>566.3</ele></trkpt>
<trkpt lat="46.625616" lon="10.912761"><ele>566.4</ele></trkpt>
<trkpt lat="46.625763" lon="10.911285"><ele>567.3</ele></trkpt>
<trkpt lat="46.625942" lon="10.910106"><ele>568.2</ele></trkpt>
<trkpt lat="46.626076" lon="10.909534"><ele>568.7</ele></trkpt>
<trkpt lat="46.626362" lon="10.908605"><ele>569.5</ele></trkpt>
<trkpt lat="46.627384" lon="10.905687"><ele>572.2</ele></trkpt>
<trkpt lat="46.627623" lon="10.904798"><ele>573.1</ele></trkpt>
<trkpt lat="46.627825" lon="10.903622"><ele>575.0</ele></trkpt>
<trkpt lat="46.627896" lon="10.902821"><ele>576.3</ele></trkpt>
<trkpt lat="46.627991" lon="10.901715"><ele>578.3</ele></trkpt>
<trkpt lat="46.628053" lon="10.901398"><ele>578.9</ele></trkpt>
<trkpt lat="46.628035" lon="10.901342"><ele>579.0</ele></trkpt>
<trkpt lat="46.62801" lon="10.901303"><ele>579.1</ele></trkpt>
<trkpt lat="46.62791" lon="10.901296"><ele>579.4</ele></trkpt>
<trkpt lat="46.627878" lon="10.901082"><ele>579.8</ele></trkpt>
<trkpt lat="46.627822" lon="10.900921"><ele>580.2</ele></trkpt>
<trkpt lat="46.627814" lon="10.900597"><ele>580.8</ele></trkpt>
<trkpt lat="46.627739" lon="10.899913"><ele>582.1</ele></trkpt>
<trkpt lat="46.627681" lon="10.899727"><ele>582.4</ele></trkpt>
<trkpt lat="46.627598" lon="10.899458"><ele>582.8</ele></trkpt>
<trkpt lat="46.627464" lon="10.898957"><ele>583.5</ele></trkpt>
<trkpt lat="46.627412" lon="10.898409"><ele>584.2</ele></trkpt>
<trkpt lat="46.627453" lon="10.8965"><ele>586.9</ele></trkpt>
<trkpt lat="46.62743" lon="10.896014"><ele>587.6</ele></trkpt>
<trkpt lat="46.627354" lon="10.895581"><ele>588.3</ele></trkpt>
<trkpt lat="46.627208" lon="10.895036"><ele>589.2</ele></trkpt>
<trkpt lat="46.626695" lon="10.893479"><ele>592.1</ele></trkpt>
<trkpt lat="46.626561" lon="10.892902"><ele>593.2</ele></trkpt>
<trkpt lat="46.626492" lon="10.892746"><ele>593.5</ele></trkpt>
<trkpt lat="46.626254" lon="10.892365"><ele>594.8</ele></trkpt>
<trkpt lat="46.626192" lon="10.892092"><ele>595.7</ele></trkpt>
<trkpt lat="46.626017" lon="10.89093"><ele>599.5</ele></trkpt>
<trkpt lat="46.626022" lon="10.890717"><ele>600.2</ele></trkpt>
<trkpt lat="46.626047" lon="10.890586"><ele>600.7</ele></trkpt>
<trkpt lat="46.626208" lon="10.890068"><ele>602.5</ele></trkpt>
<trkpt lat="46.626303" lon="10.889528"><ele>603.1</ele></trkpt>
<trkpt lat="46.626319" lon="10.889039"><ele>603.7</ele></trkpt>
<trkpt lat="46.626302" lon="10.88876"><ele>604.0</ele></trkpt>
<trkpt lat="46.626207" lon="10.888036"><ele>604.8</ele></trkpt>
<trkpt lat="46.626082" lon="10.887503"><ele>605.4</ele></trkpt>
<trkpt lat="46.625645" lon="10.886306"><ele>607.0</ele></trkpt>
<trkpt lat="46.625388" lon="10.885688"><ele>607.9</ele></trkpt>
<trkpt lat="46.62474" lon="10.884391"><ele>611.4</ele></trkpt>
<trkpt lat="46.624339" lon="10.882792"><ele>616.1</ele></trkpt>
<trkpt lat="46.624184" lon="10.881929"><ele>618.9</ele></trkpt>
<trkpt lat="46.624059" lon="10.881324"><ele>620.8</ele></trkpt>
<trkpt lat="46.624005" lon="10.880992"><ele>621.9</ele></trkpt>
<trkpt lat="46.62398" lon="10.880415"><ele>623.7</ele></trkpt>
<trkpt lat="46.623928" lon="10.880001"><ele>624.6</ele></trkpt>
<trkpt lat="46.623856" lon="10.879644"><ele>625.4</ele></trkpt>
<trkpt lat="46.623688" lon="10.879219"><ele>626.4</ele></trkpt>
<trkpt lat="46.623616" lon="10.878676"><ele>627.5</ele></trkpt>
<trkpt lat="46.623615" lon="10.878151"><ele>628.7</ele></trkpt>
<trkpt lat="46.623725" lon="10.876855"><ele>630.1</ele></trkpt>
<trkpt lat="46.62385" lon="10.87497"><ele>631.0</ele></trkpt>
<trkpt lat="46.623804" lon="10.87472"><ele>630.7</ele></trkpt>
<trkpt lat="46.623714" lon="10.874455"><ele>630.4</ele></trkpt>
<trkpt lat="46.623478" lon="10.873985"><ele>629.8</ele></trkpt>
<trkpt lat="46.623336" lon="10.873519"><ele>629.3</ele></trkpt>
<trkpt lat="46.622844" lon="10.872214"><ele>628.5</ele></trkpt>
<trkpt lat="46.622819" lon="10.872019"><ele>628.4</ele></trkpt>
<trkpt lat="46.622827" lon="10.871879"><ele>628.4</ele></trkpt>
<trkpt lat="46.62296" lon="10.871181"><ele>628.4</ele></trkpt>
<trkpt lat="46.622964" lon="10.87057"><ele>628.3</ele></trkpt>
<trkpt lat="46.62291" lon="10.870069"><ele>628.5</ele></trkpt>
<trkpt lat="46.622864" lon="10.869855"><ele>628.7</ele></trkpt>
<trkpt lat="46.622738" lon="10.869465"><ele>629.0</ele></trkpt>
<trkpt lat="46.622684" lon="10.869406"><ele>629.0</ele></trkpt>
<trkpt lat="46.622638" lon="10.869427"><ele>629.1</ele></trkpt>
<trkpt lat="46.622366" lon="10.86962"><ele>629.4</ele></trkpt>
<trkpt lat="46.622292" lon="10.869628"><ele>629.4</ele></trkpt>
<trkpt lat="46.622151" lon="10.869403"><ele>629.6</ele></trkpt>
<trkpt lat="46.621109" lon="10.866883"><ele>629.0</ele></trkpt>
<trkpt lat="46.621116" lon="10.866817"><ele>629.0</ele></trkpt>
<trkpt lat="46.621034" lon="10.866715"><ele>628.9</ele></trkpt>
<trkpt lat="46.62096" lon="10.866556"><ele>628.8</ele></trkpt>
<trkpt lat="46.620936" lon="10.866454"><ele>628.7</ele></trkpt>
<trkpt lat="46.620859" lon="10.866305"><ele>628.6</ele></trkpt>
<trkpt lat="46.620858" lon="10.866194"><ele>628.5</ele></trkpt>
<trkpt lat="46.6209" lon="10.865976"><ele>628.4</ele></trkpt>
<trkpt lat="46.620895" lon="10.865731"><ele>628.2</ele></trkpt>
<trkpt lat="46.620895" lon="10.865671"><ele>628.2</ele></trkpt>
<trkpt lat="46.620818" lon="10.865238"><ele>627.9</ele></trkpt>
<trkpt lat="46.620803" lon="10.864975"><ele>627.7</ele></trkpt>
<trkpt lat="46.620861" lon="10.864617"><ele>627.5</ele></trkpt>
<trkpt lat="46.621021" lon="10.864021"><ele>627.4</ele></trkpt>
<trkpt lat="46.621158" lon="10.863749"><ele>627.9</ele></trkpt>
<trkpt lat="46.621482" lon="10.863154"><ele>628.8</ele></trkpt>
<trkpt lat="46.621499" lon="10.863159"><ele>628.8</ele></trkpt>
<trkpt lat="46.621751" lon="10.863267"><ele>629.3</ele></trkpt>
<trkpt lat="46.621775" lon="10.863264"><ele>629.3</ele></trkpt>
<trkpt lat="46.621984" lon="10.862917"><ele>629.9</ele></trkpt>
<trkpt lat="46.622338" lon="10.862217"><ele>631.3</ele></trkpt>
<trkpt lat="46.622456" lon="10.861949"><ele>631.9</ele></trkpt>
<trkpt lat="46.622517" lon="10.861738"><ele>632.4</ele></trkpt>
<trkpt lat="46.622665" lon="10.860594"><ele>634.6</ele></trkpt>
<trkpt lat="46.622667" lon="10.860061"><ele>635.5</ele></trkpt>
<trkpt lat="46.622609" lon="10.859461"><ele>635.5</ele></trkpt>
<trkpt lat="46.622452" lon="10.858802"><ele>635.5</ele></trkpt>
<trkpt lat="46.622262" lon="10.857836"><ele>635.6</ele></trkpt>
<trkpt lat="46.621856" lon="10.856325"><ele>635.3</ele></trkpt>
<trkpt lat="46.621747" lon="10.855357"><ele>635.1</ele></trkpt>
<trkpt lat="46.621503" lon="10.855161"><ele>635.0</ele></trkpt>
<trkpt lat="46.621444" lon="10.855012"><ele>635.0</ele></trkpt>
<trkpt lat="46.621305" lon="10.854464"><ele>635.1</ele></trkpt>
<trkpt lat="46.621265" lon="10.85385"><ele>635.1</ele></trkpt>
<trkpt lat="46.621277" lon="10.853279"><ele>635.2</ele></trkpt>
<trkpt lat="46.62153" lon="10.851946"><ele>636.3</ele></trkpt>
<trkpt lat="46.621597" lon="10.851406"><ele>637.0</ele></trkpt>
<trkpt lat="46.621603" lon="10.850938"><ele>637.6</ele></trkpt>
<trkpt lat="46.621551" lon="10.849742"><ele>638.6</ele></trkpt>
<trkpt lat="46.621544" lon="10.849196"><ele>638.7</ele></trkpt>
<trkpt lat="46.621511" lon="10.848934"><ele>638.7</ele></trkpt>
<trkpt lat="46.621424" lon="10.848573"><ele>638.8</ele></trkpt>
<trkpt lat="46.621074" lon="10.847551"><ele>639.0</ele></trkpt>
<trkpt lat="46.620815" lon="10.846848"><ele>639.2</ele></trkpt>
<trkpt lat="46.620352" lon="10.845195"><ele>639.8</ele></trkpt>
<trkpt lat="46.619889" lon="10.843997"><ele>641.7</ele></trkpt>
<trkpt lat="46.619536" lon="10.84258"><ele>643.7</ele></trkpt>
<trkpt lat="46.619415" lon="10.842176"><ele>644.1</ele></trkpt>
<trkpt lat="46.619295" lon="10.841798"><ele>644.5</ele></trkpt>
<trkpt lat="46.619185" lon="10.841591"><ele>644.7</ele></trkpt>
<trkpt lat="46.619035" lon="10.841397"><ele>645.0</ele></trkpt>
<trkpt lat="46.618822" lon="10.841272"><ele>645.3</ele></trkpt>
<trkpt lat="46.618702" lon="10.841116"><ele>645.5</ele></trkpt>
<trkpt lat="46.618321" lon="10.840741"><ele>646.2</ele></trkpt>
<trkpt lat="46.618239" lon="10.840248"><ele>646.8</ele></trkpt>
<trkpt lat="46.618246" lon="10.840156"><ele>646.9</ele></trkpt>
<trkpt lat="46.618326" lon="10.839925"><ele>647.1</ele></trkpt>
<trkpt lat="46.618363" lon="10.839819"><ele>647.3</ele></trkpt>
<trkpt lat="46.618452" lon="10.839624"><ele>647.5</ele></trkpt>
<trkpt lat="46.618722" lon="10.838864"><ele>648.4</ele></trkpt>
<trkpt lat="46.619059" lon="10.837809"><ele>649.4</ele></trkpt>
<trkpt lat="46.619252" lon="10.837283"><ele>649.9</ele></trkpt>
<trkpt lat="46.620423" lon="10.83424"><ele>650.3</ele></trkpt>
<trkpt lat="46.620421" lon="10.834131"><ele>650.3</ele></trkpt>
<trkpt lat="46.62037" lon="10.834026"><ele>650.3</ele></trkpt>
<trkpt lat="46.620212" lon="10.833865"><ele>650.3</ele></trkpt>
<trkpt lat="46.620155" lon="10.833753"><ele>650.3</ele></trkpt>
<trkpt lat="46.620165" lon="10.833691"><ele>650.3</ele></trkpt>
<trkpt lat="46.620142" lon="10.833674"><ele>650.3</ele></trkpt>
<trkpt lat="46.619942" lon="10.833562"><ele>650.3</ele></trkpt>
<trkpt lat="46.619921" lon="10.833553"><ele>650.3</ele></trkpt>
<trkpt lat="46.620198" lon="10.832489"><ele>650.3</ele></trkpt>
<trkpt lat="46.620439" lon="10.831619"><ele>650.9</ele></trkpt>
<trkpt lat="46.620628" lon="10.830917"><ele>651.7</ele></trkpt>
<trkpt lat="46.62068" lon="10.830543"><ele>652.1</ele></trkpt>
<trkpt lat="46.620689" lon="10.82993"><ele>652.8</ele></trkpt>
<trkpt lat="46.620678" lon="10.829456"><ele>653.3</ele></trkpt>
<trkpt lat="46.620651" lon="10.828938"><ele>653.9</ele></trkpt>
<trkpt lat="46.620537" lon="10.827905"><ele>655.1</ele></trkpt>
<trkpt lat="46.62044" lon="10.827476"><ele>655.6</ele></trkpt>
<trkpt lat="46.620438" lon="10.82731"><ele>655.8</ele></trkpt>
<trkpt lat="46.620375" lon="10.827103"><ele>656.1</ele></trkpt>
<trkpt lat="46.620341" lon="10.826995"><ele>656.2</ele></trkpt>
<trkpt lat="46.620233" lon="10.826657"><ele>656.4</ele></trkpt>
<trkpt lat="46.620153" lon="10.825994"><ele>656.6</ele></trkpt>
<trkpt lat="46.620109" lon="10.825858"><ele>656.6</ele></trkpt>
<trkpt lat="46.62" lon="10.825724"><ele>656.7</ele></trkpt>
<trkpt lat="46.619994" lon="10.825369"><ele>656.8</ele></trkpt>
<trkpt lat="46.619993" lon="10.825231"><ele>656.8</ele></trkpt>
<trkpt lat="46.619992" lon="10.825081"><ele>656.8</ele></trkpt>
<trkpt lat="46.619963" lon="10.824877"><ele>656.9</ele></trkpt>
<trkpt lat="46.619993" lon="10.824708"><ele>657.0</ele></trkpt>
<trkpt lat="46.620031" lon="10.824646"><ele>657.0</ele></trkpt>
<trkpt lat="46.620099" lon="10.824538"><ele>657.0</ele></trkpt>
<trkpt lat="46.620128" lon="10.824431"><ele>657.0</ele></trkpt>
<trkpt lat="46.620115" lon="10.824246"><ele>657.0</ele></trkpt>
<trkpt lat="46.620141" lon="10.824105"><ele>657.1</ele></trkpt>
<trkpt lat="46.62003" lon="10.823"><ele>657.2</ele></trkpt>
<trkpt lat="46.61965" lon="10.820497"><ele>657.7</ele></trkpt>
<trkpt lat="46.619551" lon="10.819723"><ele>657.9</ele></trkpt>
<trkpt lat="46.619529" lon="10.819396"><ele>658.0</ele></trkpt>
<trkpt lat="46.619531" lon="10.819085"><ele>658.1</ele></trkpt>
<trkpt lat="46.619577" lon="10.818681"><ele>658.1</ele></trkpt>
<trkpt lat="46.61983" lon="10.817451"><ele>658.3</ele></trkpt>
<trkpt lat="46.619866" lon="10.816826"><ele>658.5</ele></trkpt>
<trkpt lat="46.619857" lon="10.816522"><ele>658.6</ele></trkpt>
<trkpt lat="46.619754" lon="10.81562"><ele>658.9</ele></trkpt>
<trkpt lat="46.61964" lon="10.814859"><ele>659.1</ele></trkpt>
<trkpt lat="46.619019" lon="10.812119"><ele>659.5</ele></trkpt>
<trkpt lat="46.618878" lon="10.811769"><ele>659.5</ele></trkpt>
<trkpt lat="46.618843" lon="10.811609"><ele>659.4</ele></trkpt>
<trkpt lat="46.61881" lon="10.811258"><ele>659.2</ele></trkpt>
<trkpt lat="46.61883" lon="10.811092"><ele>659.0</ele></trkpt>
<trkpt lat="46.618819" lon="10.810652"><ele>658.7</ele></trkpt>
<trkpt lat="46.6189" lon="10.80977"><ele>658.2</ele></trkpt>
<trkpt lat="46.61892" lon="10.80927"><ele>657.8</ele></trkpt>
<trkpt lat="46.618857" lon="10.807997"><ele>658.0</ele></trkpt>
<trkpt lat="46.618757" lon="10.806706"><ele>658.3</ele></trkpt>
<trkpt lat="46.618337" lon="10.804202"><ele>660.6</ele></trkpt>
<trkpt lat="46.618264" lon="10.803654"><ele>660.9</ele></trkpt>
<trkpt lat="46.618055" lon="10.80147"><ele>662.2</ele></trkpt>
<trkpt lat="46.617945" lon="10.799711"><ele>663.7</ele></trkpt>
<trkpt lat="46.617613" lon="10.796889"><ele>667.2</ele></trkpt>
<trkpt lat="46.61749" lon="10.795401"><ele>669.4</ele></trkpt>
<trkpt lat="46.617362" lon="10.794536"><ele>670.8</ele></trkpt>
<trkpt lat="46.616651" lon="10.791856"><ele>673.9</ele></trkpt>
<trkpt lat="46.616613" lon="10.791591"><ele>674.1</ele></trkpt>
<trkpt lat="46.616604" lon="10.791248"><ele>674.4</ele></trkpt>
<trkpt lat="46.616637" lon="10.790706"><ele>674.9</ele></trkpt>
<trkpt lat="46.616627" lon="10.790484"><ele>675.1</ele></trkpt>
<trkpt lat="46.616537" lon="10.789895"><ele>675.6</ele></trkpt>
<trkpt lat="46.616535" lon="10.789777"><ele>675.7</ele></trkpt>
<trkpt lat="46.616536" lon="10.789699"><ele>675.8</ele></trkpt>
<trkpt lat="46.616549" lon="10.789368"><ele>676.0</ele></trkpt>
<trkpt lat="46.616525" lon="10.788859"><ele>676.5</ele></trkpt>
<trkpt lat="46.616445" lon="10.788119"><ele>678.3</ele></trkpt>
<trkpt lat="46.616356" lon="10.787786"><ele>679.3</ele></trkpt>
<trkpt lat="46.616281" lon="10.787303"><ele>680.7</ele></trkpt>
<trkpt lat="46.616143" lon="10.786737"><ele>682.4</ele></trkpt>
<trkpt lat="46.616092" lon="10.786496"><ele>683.1</ele></trkpt>
<trkpt lat="46.616041" lon="10.786059"><ele>684.4</ele></trkpt>
<trkpt lat="46.616014" lon="10.785291"><ele>686.8</ele></trkpt>
<trkpt lat="46.616007" lon="10.785059"><ele>687.6</ele></trkpt>
<trkpt lat="46.616047" lon="10.784348"><ele>689.9</ele></trkpt>
<trkpt lat="46.616149" lon="10.783464"><ele>692.8</ele></trkpt>
<trkpt lat="46.616115" lon="10.782721"><ele>695.6</ele></trkpt>
<trkpt lat="46.616128" lon="10.781808"><ele>698.9</ele></trkpt>
<trkpt lat="46.616225" lon="10.780456"><ele>703.6</ele></trkpt>
<trkpt lat="46.616256" lon="10.779685"><ele>705.9</ele></trkpt>
<trkpt lat="46.616204" lon="10.778032"><ele>710.1</ele></trkpt>
<trkpt lat="46.616176" lon="10.777576"><ele>710.5</ele></trkpt>
<trkpt lat="46.616279" lon="10.776821"><ele>711.1</ele></trkpt>
<trkpt lat="46.616576" lon="10.775516"><ele>710.9</ele></trkpt>
<trkpt lat="46.616658" lon="10.775266"><ele>710.0</ele></trkpt>
<trkpt lat="46.616836" lon="10.77487"><ele>708.5</ele></trkpt>
<trkpt lat="46.6173" lon="10.774176"><ele>705.5</ele></trkpt>
<trkpt lat="46.617659" lon="10.773476"><ele>703.3</ele></trkpt>
<trkpt lat="46.617841" lon="10.773011"><ele>702.7</ele></trkpt>
<trkpt lat="46.617931" lon="10.772647"><ele>702.2</ele></trkpt>
<trkpt lat="46.617955" lon="10.772401"><ele>702.0</ele></trkpt>
<trkpt lat="46.618008" lon="10.772269"><ele>701.8</ele></trkpt>
<trkpt lat="46.618944" lon="10.771336"><ele>702.3</ele></trkpt>
<trkpt lat="46.619135" lon="10.771112"><ele>703.3</ele></trkpt>
<trkpt lat="46.619383" lon="10.770676"><ele>704.7</ele></trkpt>
<trkpt lat="46.619502" lon="10.770409"><ele>705.5</ele></trkpt>
<trkpt lat="46.619597" lon="10.769623"><ele>707.8</ele></trkpt>
<trkpt lat="46.619642" lon="10.768771"><ele>711.5</ele></trkpt>
<trkpt lat="46.619738" lon="10.767598"><ele>716.7</ele></trkpt>
<trkpt lat="46.619755" lon="10.767523"><ele>717.1</ele></trkpt>
<trkpt lat="46.619801" lon="10.767463"><ele>717.5</ele></trkpt>
<trkpt lat="46.620009" lon="10.767383"><ele>718.8</ele></trkpt>
<trkpt lat="46.620066" lon="10.767278"><ele>719.1</ele></trkpt>
<trkpt lat="46.620132" lon="10.76693"><ele>719.7</ele></trkpt>
<trkpt lat="46.620476" lon="10.765673"><ele>722.0</ele></trkpt>
<trkpt lat="46.620723" lon="10.764918"><ele>723.5</ele></trkpt>
<trkpt lat="46.620832" lon="10.763819"><ele>726.9</ele></trkpt>
<trkpt lat="46.620807" lon="10.763832"><ele>727.0</ele></trkpt>
<trkpt lat="46.62064" lon="10.763898"><ele>727.8</ele></trkpt>
<trkpt lat="46.6206" lon="10.76387"><ele>728.0</ele></trkpt>
<trkpt lat="46.620409" lon="10.763215"><ele>730.2</ele></trkpt>
<trkpt lat="46.620357" lon="10.763165"><ele>730.4</ele></trkpt>
<trkpt lat="46.62027" lon="10.762873"><ele>731.4</ele></trkpt>
<trkpt lat="46.620184" lon="10.762467"><ele>732.6</ele></trkpt>
<trkpt lat="46.620072" lon="10.762222"><ele>733.4</ele></trkpt>
<trkpt lat="46.619986" lon="10.762197"><ele>733.7</ele></trkpt>
<trkpt lat="46.61974" lon="10.76179"><ele>735.2</ele></trkpt>
<trkpt lat="46.619365" lon="10.760685"><ele>738.5</ele></trkpt>
<trkpt lat="46.619141" lon="10.7596"><ele>739.9</ele></trkpt>
<trkpt lat="46.618841" lon="10.758853"><ele>740.9</ele></trkpt>
<trkpt lat="46.618631" lon="10.758143"><ele>741.9</ele></trkpt>
<trkpt lat="46.618375" lon="10.757019"><ele>743.7</ele></trkpt>
<trkpt lat="46.618235" lon="10.756072"><ele>745.1</ele></trkpt>
<trkpt lat="46.618246" lon="10.75515"><ele>747.1</ele></trkpt>
<trkpt lat="46.618204" lon="10.754269"><ele>749.2</ele></trkpt>
<trkpt lat="46.618191" lon="10.753926"><ele>750.0</ele></trkpt>
<trkpt lat="46.618233" lon="10.753377"><ele>751.4</ele></trkpt>
<trkpt lat="46.618283" lon="10.753039"><ele>752.2</ele></trkpt>
<trkpt lat="46.618274" lon="10.752571"><ele>753.3</ele></trkpt>
<trkpt lat="46.618271" lon="10.752431"><ele>753.6</ele></trkpt>
<trkpt lat="46.618249" lon="10.752247"><ele>754.0</ele></trkpt>
<trkpt lat="46.618126" lon="10.751843"><ele>755.0</ele></trkpt>
<trkpt lat="46.6181" lon="10.75152"><ele>755.8</ele></trkpt>
<trkpt lat="46.617881" lon="10.750463"><ele>758.2</ele></trkpt>
<trkpt lat="46.617848" lon="10.750365"><ele>758.4</ele></trkpt>
<trkpt lat="46.617741" lon="10.750276"><ele>758.7</ele></trkpt>
<trkpt lat="46.617455" lon="10.750149"><ele>759.5</ele></trkpt>
<trkpt lat="46.617378" lon="10.75004"><ele>759.8</ele></trkpt>
<trkpt lat="46.617313" lon="10.749815"><ele>760.2</ele></trkpt>
<trkpt lat="46.61726" lon="10.749466"><ele>760.9</ele></trkpt>
<trkpt lat="46.616968" lon="10.748781"><ele>762.3</ele></trkpt>
<trkpt lat="46.61662" lon="10.748258"><ele>763.2</ele></trkpt>
<trkpt lat="46.616218" lon="10.748052"><ele>764.0</ele></trkpt>
<trkpt lat="46.615637" lon="10.747598"><ele>765.1</ele></trkpt>
<trkpt lat="46.615401" lon="10.747257"><ele>765.7</ele></trkpt>
<trkpt lat="46.615175" lon="10.746993"><ele>766.6</ele></trkpt>
<trkpt lat="46.615076" lon="10.746829"><ele>767.1</ele></trkpt>
<trkpt lat="46.615023" lon="10.746441"><ele>767.9</ele></trkpt>
<trkpt lat="46.615023" lon="10.746106"><ele>768.7</ele></trkpt>
<trkpt lat="46.614978" lon="10.745862"><ele>769.2</ele></trkpt>
<trkpt lat="46.61498" lon="10.745178"><ele>770.7</ele></trkpt>
<trkpt lat="46.614916" lon="10.744959"><ele>771.2</ele></trkpt>
<trkpt lat="46.614652" lon="10.744596"><ele>773.2</ele></trkpt>
<trkpt lat="46.614312" lon="10.743943"><ele>776.3</ele></trkpt>
<trkpt lat="46.614095" lon="10.743581"><ele>778.2</ele></trkpt>
<trkpt lat="46.613968" lon="10.743116"><ele>780.2</ele></trkpt>
<trkpt lat="46.613879" lon="10.742657"><ele>782.0</ele></trkpt>
<trkpt lat="46.613828" lon="10.741711"><ele>785.6</ele></trkpt>
<trkpt lat="46.613825" lon="10.741406"><ele>786.7</ele></trkpt>
<trkpt lat="46.613745" lon="10.741081"><ele>788.1</ele></trkpt>
<trkpt lat="46.613711" lon="10.741001"><ele>788.4</ele></trkpt>
<trkpt lat="46.613419" lon="10.740323"><ele>791.4</ele></trkpt>
<trkpt lat="46.613431" lon="10.740269"><ele>791.5</ele></trkpt>
<trkpt lat="46.613445" lon="10.74025"><ele>791.6</ele></trkpt>
<trkpt lat="46.613685" lon="10.739923"><ele>792.6</ele></trkpt>
<trkpt lat="46.613735" lon="10.739798"><ele>792.9</ele></trkpt>
<trkpt lat="46.61372" lon="10.739565"><ele>793.3</ele></trkpt>
<trkpt lat="46.613759" lon="10.739308"><ele>793.9</ele></trkpt>
<trkpt lat="46.613907" lon="10.738784"><ele>795.0</ele></trkpt>
<trkpt lat="46.613999" lon="10.737389"><ele>797.4</ele></trkpt>
<trkpt lat="46.613917" lon="10.736636"><ele>798.2</ele></trkpt>
<trkpt lat="46.613823" lon="10.7363"><ele>798.6</ele></trkpt>
<trkpt lat="46.613744" lon="10.735896"><ele>799.1</ele></trkpt>
<trkpt lat="46.613729" lon="10.735507"><ele>799.5</ele></trkpt>
<trkpt lat="46.613648" lon="10.734968"><ele>800.7</ele></trkpt>
<trkpt lat="46.613603" lon="10.734156"><ele>802.8</ele></trkpt>
<trkpt lat="46.613619" lon="10.733251"><ele>805.1</ele></trkpt>
<trkpt lat="46.613522" lon="10.732837"><ele>806.3</ele></trkpt>
<trkpt lat="46.613251" lon="10.73212"><ele>809.6</ele></trkpt>
<trkpt lat="46.613194" lon="10.731549"><ele>812.0</ele></trkpt>
<trkpt lat="46.612934" lon="10.730925"><ele>815.0</ele></trkpt>
<trkpt lat="46.612742" lon="10.730718"><ele>816.5</ele></trkpt>
<trkpt lat="46.612636" lon="10.730697"><ele>817.1</ele></trkpt>
<trkpt lat="46.612563" lon="10.730761"><ele>817.6</ele></trkpt>
<trkpt lat="46.612402" lon="10.730888"><ele>818.6</ele></trkpt>
<trkpt lat="46.6123" lon="10.730875"><ele>819.1</ele></trkpt>
<trkpt lat="46.612159" lon="10.730672"><ele>820.2</ele></trkpt>
<trkpt lat="46.611807" lon="10.729935"><ele>823.5</ele></trkpt>
<trkpt lat="46.611605" lon="10.729196"><ele>826.4</ele></trkpt>
<trkpt lat="46.611529" lon="10.729045"><ele>827.2</ele></trkpt>
<trkpt lat="46.611431" lon="10.72885"><ele>828.3</ele></trkpt>
<trkpt lat="46.611377" lon="10.728415"><ele>830.3</ele></trkpt>
<trkpt lat="46.611358" lon="10.727826"><ele>833.0</ele></trkpt>
<trkpt lat="46.611296" lon="10.727607"><ele>834.1</ele></trkpt>
<trkpt lat="46.610638" lon="10.726744"><ele>840.2</ele></trkpt>
<trkpt lat="46.610424" lon="10.726358"><ele>842.7</ele></trkpt>
<trkpt lat="46.610276" lon="10.725773"><ele>845.9</ele></trkpt>
<trkpt lat="46.610235" lon="10.725529"><ele>847.2</ele></trkpt>
<trkpt lat="46.610216" lon="10.725308"><ele>848.3</ele></trkpt>
<trkpt lat="46.610363" lon="10.724699"><ele>851.6</ele></trkpt>
<trkpt lat="46.610403" lon="10.724252"><ele>853.1</ele></trkpt>
<trkpt lat="46.610401" lon="10.724035"><ele>853.8</ele></trkpt>
<trkpt lat="46.610314" lon="10.723847"><ele>854.4</ele></trkpt>
<trkpt lat="46.610273" lon="10.723583"><ele>855.2</ele></trkpt>
<trkpt lat="46.610241" lon="10.723257"><ele>856.1</ele></trkpt>
<trkpt lat="46.610262" lon="10.72271"><ele>857.7</ele></trkpt>
<trkpt lat="46.610185" lon="10.722308"><ele>858.9</ele></trkpt>
<trkpt lat="46.610183" lon="10.721353"><ele>860.8</ele></trkpt>
<trkpt lat="46.610219" lon="10.721089"><ele>861.3</ele></trkpt>
<trkpt lat="46.610221" lon="10.721018"><ele>861.4</ele></trkpt>
<trkpt lat="46.610219" lon="10.720811"><ele>861.7</ele></trkpt>
<trkpt lat="46.610142" lon="10.720088"><ele>863.0</ele></trkpt>
<trkpt lat="46.609983" lon="10.719381"><ele>864.2</ele></trkpt>
<trkpt lat="46.609991" lon="10.718915"><ele>864.6</ele></trkpt>
<trkpt lat="46.610062" lon="10.71843"><ele>865.1</ele></trkpt>
<trkpt lat="46.610161" lon="10.717957"><ele>865.6</ele></trkpt>
<trkpt lat="46.610178" lon="10.717765"><ele>865.8</ele></trkpt>
<trkpt lat="46.610102" lon="10.717359"><ele>866.2</ele></trkpt>
<trkpt lat="46.610084" lon="10.717088"><ele>866.5</ele></trkpt>
<trkpt lat="46.609908" lon="10.716084"><ele>868.9</ele></trkpt>
<trkpt lat="46.60992" lon="10.715125"><ele>871.5</ele></trkpt>
<trkpt lat="46.609956" lon="10.71497"><ele>872.0</ele></trkpt>
<trkpt lat="46.609962" lon="10.714741"><ele>872.6</ele></trkpt>
<trkpt lat="46.610009" lon="10.714501"><ele>873.3</ele></trkpt>
<trkpt lat="46.610017" lon="10.714049"><ele>874.5</ele></trkpt>
<trkpt lat="46.609958" lon="10.713601"><ele>875.8</ele></trkpt>
<trkpt lat="46.609948" lon="10.713308"><ele>876.7</ele></trkpt>
<trkpt lat="46.609912" lon="10.713007"><ele>877.5</ele></trkpt>
<trkpt lat="46.609962" lon="10.712756"><ele>878.3</ele></trkpt>
<trkpt lat="46.610031" lon="10.712577"><ele>878.8</ele></trkpt>
<trkpt lat="46.610056" lon="10.712407"><ele>879.3</ele></trkpt>
<trkpt lat="46.610323" lon="10.711733"><ele>880.5</ele></trkpt>
<trkpt lat="46.610487" lon="10.7112"><ele>877.5</ele></trkpt>
<trkpt lat="46.61067" lon="10.710756"><ele>874.9</ele></trkpt>
<trkpt lat="46.610746" lon="10.710145"><ele>871.8</ele></trkpt>
<trkpt lat="46.610865" lon="10.709882"><ele>870.2</ele></trkpt>
<trkpt lat="46.611076" lon="10.709754"><ele>868.5</ele></trkpt>
<trkpt lat="46.611256" lon="10.709608"><ele>867.8</ele></trkpt>
<trkpt lat="46.611964" lon="10.709196"><ele>867.0</ele></trkpt>
<trkpt lat="46.612144" lon="10.708974"><ele>866.7</ele></trkpt>
<trkpt lat="46.612203" lon="10.708852"><ele>866.6</ele></trkpt>
<trkpt lat="46.612239" lon="10.708683"><ele>866.4</ele></trkpt>
<trkpt lat="46.612255" lon="10.70798"><ele>866.0</ele></trkpt>
<trkpt lat="46.612247" lon="10.707563"><ele>866.8</ele></trkpt>
<trkpt lat="46.612153" lon="10.707085"><ele>867.7</ele></trkpt>
<trkpt lat="46.612213" lon="10.707024"><ele>867.9</ele></trkpt>
<trkpt lat="46.612319" lon="10.706932"><ele>868.3</ele></trkpt>
<trkpt lat="46.612394" lon="10.706852"><ele>868.5</ele></trkpt>
<trkpt lat="46.612593" lon="10.706637"><ele>869.2</ele></trkpt>
<trkpt lat="46.613039" lon="10.706292"><ele>870.6</ele></trkpt>
<trkpt lat="46.613678" lon="10.705449"><ele>870.9</ele></trkpt>
<trkpt lat="46.613882" lon="10.70513"><ele>871.0</ele></trkpt>
<trkpt lat="46.614025" lon="10.704748"><ele>871.0</ele></trkpt>
<trkpt lat="46.61417" lon="10.704371"><ele>871.1</ele></trkpt>
<trkpt lat="46.614288" lon="10.703877"><ele>871.0</ele></trkpt>
<trkpt lat="46.614401" lon="10.703369"><ele>870.9</ele></trkpt>
<trkpt lat="46.614461" lon="10.703102"><ele>870.9</ele></trkpt>
<trkpt lat="46.614793" lon="10.70212"><ele>870.7</ele></trkpt>
<trkpt lat="46.614838" lon="10.701923"><ele>870.7</ele></trkpt>
<trkpt lat="46.614956" lon="10.701413"><ele>870.1</ele></trkpt>
<trkpt lat="46.615096" lon="10.701002"><ele>869.5</ele></trkpt>
<trkpt lat="46.615331" lon="10.700521"><ele>868.7</ele></trkpt>
<trkpt lat="46.615439" lon="10.700226"><ele>868.2</ele></trkpt>
<trkpt lat="46.61551" lon="10.700114"><ele>868.0</ele></trkpt>
<trkpt lat="46.61556" lon="10.700081"><ele>867.9</ele></trkpt>
<trkpt lat="46.615598" lon="10.700092"><ele>867.8</ele></trkpt>
<trkpt lat="46.615629" lon="10.700101"><ele>867.7</ele></trkpt>
<trkpt lat="46.615655" lon="10.700115"><ele>867.7</ele></trkpt>
<trkpt lat="46.615837" lon="10.700218"><ele>867.3</ele></trkpt>
<trkpt lat="46.61592" lon="10.700276"><ele>867.1</ele></trkpt>
<trkpt lat="46.615933" lon="10.700228"><ele>867.0</ele></trkpt>
<trkpt lat="46.616004" lon="10.700008"><ele>866.9</ele></trkpt>
<trkpt lat="46.616153" lon="10.699803"><ele>866.7</ele></trkpt>
<trkpt lat="46.616257" lon="10.699579"><ele>866.5</ele></trkpt>
<trkpt lat="46.616432" lon="10.699097"><ele>866.2</ele></trkpt>
<trkpt lat="46.616575" lon="10.699118"><ele>866.1</ele></trkpt>
<trkpt lat="46.616767" lon="10.698828"><ele>865.9</ele></trkpt>
<trkpt lat="46.616865" lon="10.698787"><ele>865.8</ele></trkpt>
<trkpt lat="46.616899" lon="10.698507"><ele>865.6</ele></trkpt>
<trkpt lat="46.616861" lon="10.698283"><ele>865.5</ele></trkpt>
<trkpt lat="46.616862" lon="10.698115"><ele>865.4</ele></trkpt>
<trkpt lat="46.616905" lon="10.69783"><ele>865.4</ele></trkpt>
<trkpt lat="46.616927" lon="10.697694"><ele>865.3</ele></trkpt>
<trkpt lat="46.616919" lon="10.697541"><ele>865.3</ele></trkpt>
<trkpt lat="46.616903" lon="10.697357"><ele>865.2</ele></trkpt>
<trkpt lat="46.616915" lon="10.697257"><ele>865.2</ele></trkpt>
<trkpt lat="46.617107" lon="10.696314"><ele>865.0</ele></trkpt>
<trkpt lat="46.617291" lon="10.695234"><ele>864.9</ele></trkpt>
<trkpt lat="46.617635" lon="10.692976"><ele>864.9</ele></trkpt>
<trkpt lat="46.617782" lon="10.692172"><ele>864.6</ele></trkpt>
<trkpt lat="46.617865" lon="10.691456"><ele>864.4</ele></trkpt>
<trkpt lat="46.617835" lon="10.691381"><ele>864.4</ele></trkpt>
<trkpt lat="46.617781" lon="10.691321"><ele>864.4</ele></trkpt>
<trkpt lat="46.617477" lon="10.691257"><ele>864.3</ele></trkpt>
<trkpt lat="46.617436" lon="10.691249"><ele>864.2</ele></trkpt>
<trkpt lat="46.617537" lon="10.690489"><ele>864.1</ele></trkpt>
<trkpt lat="46.617558" lon="10.690084"><ele>864.1</ele></trkpt>
<trkpt lat="46.617678" lon="10.688859"><ele>863.9</ele></trkpt>
<trkpt lat="46.617783" lon="10.688037"><ele>863.9</ele></trkpt>
<trkpt lat="46.618675" lon="10.67952"><ele>865.6</ele></trkpt>
<trkpt lat="46.618738" lon="10.679097"><ele>865.7</ele></trkpt>
<trkpt lat="46.619215" lon="10.674397"><ele>866.9</ele></trkpt>
<trkpt lat="46.619266" lon="10.673975"><ele>866.9</ele></trkpt>
<trkpt lat="46.619335" lon="10.673717"><ele>867.0</ele></trkpt>
<trkpt lat="46.619308" lon="10.673334"><ele>867.0</ele></trkpt>
<trkpt lat="46.619333" lon="10.67312"><ele>867.1</ele></trkpt>
<trkpt lat="46.619382" lon="10.673004"><ele>867.1</ele></trkpt>
<trkpt lat="46.61937" lon="10.672793"><ele>867.1</ele></trkpt>
<trkpt lat="46.619449" lon="10.671955"><ele>867.2</ele></trkpt>
<trkpt lat="46.619652" lon="10.670266"><ele>867.3</ele></trkpt>
<trkpt lat="46.619657" lon="10.670037"><ele>867.3</ele></trkpt>
<trkpt lat="46.620051" lon="10.666472"><ele>867.6</ele></trkpt>
<trkpt lat="46.62005" lon="10.66624"><ele>867.5</ele></trkpt>
<trkpt lat="46.620166" lon="10.665121"><ele>867.3</ele></trkpt>
<trkpt lat="46.620204" lon="10.664931"><ele>867.1</ele></trkpt>
<trkpt lat="46.620352" lon="10.663293"><ele>866.0</ele></trkpt>
<trkpt lat="46.620392" lon="10.663093"><ele>865.8</ele></trkpt>
<trkpt lat="46.620408" lon="10.662742"><ele>865.6</ele></trkpt>
<trkpt lat="46.620482" lon="10.662432"><ele>865.6</ele></trkpt>
<trkpt lat="46.620606" lon="10.6616"><ele>866.1</ele></trkpt>
<trkpt lat="46.620606" lon="10.661362"><ele>866.2</ele></trkpt>
<trkpt lat="46.620694" lon="10.660788"><ele>866.6</ele></trkpt>
<trkpt lat="46.620784" lon="10.659604"><ele>867.2</ele></trkpt>
<trkpt lat="46.620743" lon="10.659359"><ele>867.3</ele></trkpt>
<trkpt lat="46.620733" lon="10.659245"><ele>867.4</ele></trkpt>
<trkpt lat="46.620984" lon="10.657986"><ele>868.1</ele></trkpt>
<trkpt lat="46.621071" lon="10.65729"><ele>868.4</ele></trkpt>
<trkpt lat="46.621084" lon="10.656885"><ele>868.5</ele></trkpt>
<trkpt lat="46.621346" lon="10.654559"><ele>869.2</ele></trkpt>
<trkpt lat="46.621703" lon="10.650988"><ele>870.4</ele></trkpt>
<trkpt lat="46.621772" lon="10.65059"><ele>870.5</ele></trkpt>
<trkpt lat="46.621785" lon="10.65019"><ele>870.7</ele></trkpt>
<trkpt lat="46.622038" lon="10.648113"><ele>871.4</ele></trkpt>
<trkpt lat="46.622041" lon="10.648055"><ele>871.4</ele></trkpt>
<trkpt lat="46.62204" lon="10.648002"><ele>871.4</ele></trkpt>
<trkpt lat="46.622011" lon="10.647965"><ele>871.4</ele></trkpt>
<trkpt lat="46.621325" lon="10.647892"><ele>871.7</ele></trkpt>
<trkpt lat="46.620945" lon="10.64779"><ele>871.9</ele></trkpt>
<trkpt lat="46.620697" lon="10.647662"><ele>872.1</ele></trkpt>
<trkpt lat="46.620401" lon="10.647369"><ele>872.3</ele></trkpt>
<trkpt lat="46.61967" lon="10.646667"><ele>872.8</ele></trkpt>
<trkpt lat="46.618713" lon="10.64575"><ele>873.7</ele></trkpt>
<trkpt lat="46.617806" lon="10.644979"><ele>875.7</ele></trkpt>
<trkpt lat="46.617328" lon="10.644563"><ele>877.1</ele></trkpt>
<trkpt lat="46.616923" lon="10.644176"><ele>878.3</ele></trkpt>
<trkpt lat="46.616832" lon="10.643991"><ele>878.7</ele></trkpt>
<trkpt lat="46.616714" lon="10.643194"><ele>880.6</ele></trkpt>
<trkpt lat="46.616613" lon="10.642039"><ele>883.3</ele></trkpt>
<trkpt lat="46.616595" lon="10.641591"><ele>884.3</ele></trkpt>
<trkpt lat="46.616662" lon="10.641165"><ele>885.2</ele></trkpt>
<trkpt lat="46.616721" lon="10.640948"><ele>885.7</ele></trkpt>
<trkpt lat="46.617149" lon="10.639836"><ele>888.0</ele></trkpt>
<trkpt lat="46.617224" lon="10.639273"><ele>889.1</ele></trkpt>
<trkpt lat="46.617255" lon="10.639188"><ele>889.3</ele></trkpt>
<trkpt lat="46.617706" lon="10.638695"><ele>890.2</ele></trkpt>
<trkpt lat="46.617779" lon="10.638442"><ele>890.5</ele></trkpt>
<trkpt lat="46.617991" lon="10.637287"><ele>891.6</ele></trkpt>
<trkpt lat="46.618233" lon="10.636427"><ele>891.7</ele></trkpt>
<trkpt lat="46.618221" lon="10.636108"><ele>891.4</ele></trkpt>
<trkpt lat="46.618214" lon="10.635995"><ele>891.3</ele></trkpt>
<trkpt lat="46.618142" lon="10.635274"><ele>890.6</ele></trkpt>
<trkpt lat="46.618043" lon="10.634746"><ele>890.2</ele></trkpt>
<trkpt lat="46.61793" lon="10.634318"><ele>889.8</ele></trkpt>
<trkpt lat="46.617831" lon="10.633955"><ele>889.3</ele></trkpt>
<trkpt lat="46.617766" lon="10.633411"><ele>888.6</ele></trkpt>
<trkpt lat="46.617457" lon="10.632255"><ele>887.0</ele></trkpt>
<trkpt lat="46.617328" lon="10.63136"><ele>885.8</ele></trkpt>
<trkpt lat="46.617171" lon="10.631049"><ele>885.3</ele></trkpt>
<trkpt lat="46.616923" lon="10.630521"><ele>884.4</ele></trkpt>
<trkpt lat="46.616841" lon="10.630396"><ele>884.2</ele></trkpt>
<trkpt lat="46.617337" lon="10.629988"><ele>883.1</ele></trkpt>
<trkpt lat="46.617728" lon="10.629728"><ele>882.2</ele></trkpt>
<trkpt lat="46.618541" lon="10.629279"><ele>880.4</ele></trkpt>
<trkpt lat="46.618892" lon="10.62889"><ele>879.5</ele></trkpt>
<trkpt lat="46.619189" lon="10.62844"><ele>879.1</ele></trkpt>
<trkpt lat="46.619609" lon="10.62743"><ele>878.5</ele></trkpt>
<trkpt lat="46.619763" lon="10.627128"><ele>878.4</ele></trkpt>
<trkpt lat="46.619975" lon="10.626891"><ele>878.2</ele></trkpt>
<trkpt lat="46.620047" lon="10.626864"><ele>878.2</ele></trkpt>
<trkpt lat="46.620538" lon="10.626543"><ele>878.1</ele></trkpt>
<trkpt lat="46.620857" lon="10.626377"><ele>878.1</ele></trkpt>
<trkpt lat="46.621383" lon="10.626232"><ele>878.1</ele></trkpt>
<trkpt lat="46.621469" lon="10.626208"><ele>878.1</ele></trkpt>
<trkpt lat="46.621857" lon="10.626037"><ele>878.1</ele></trkpt>
<trkpt lat="46.622135" lon="10.625862"><ele>878.1</ele></trkpt>
<trkpt lat="46.622655" lon="10.625454"><ele>878.0</ele></trkpt>
<trkpt lat="46.623241" lon="10.624974"><ele>877.9</ele></trkpt>
<trkpt lat="46.623664" lon="10.624499"><ele>878.1</ele></trkpt>
<trkpt lat="46.624132" lon="10.624018"><ele>878.5</ele></trkpt>
<trkpt lat="46.624432" lon="10.623781"><ele>878.7</ele></trkpt>
<trkpt lat="46.624644" lon="10.623528"><ele>878.9</ele></trkpt>
<trkpt lat="46.62484" lon="10.62312"><ele>879.1</ele></trkpt>
<trkpt lat="46.625283" lon="10.621778"><ele>879.6</ele></trkpt>
<trkpt lat="46.625348" lon="10.621721"><ele>879.6</ele></trkpt>
<trkpt lat="46.626734" lon="10.621171"><ele>879.6</ele></trkpt>
<trkpt lat="46.626914" lon="10.62106"><ele>879.5</ele></trkpt>
<trkpt lat="46.627034" lon="10.620912"><ele>879.5</ele></trkpt>
<trkpt lat="46.627096" lon="10.620802"><ele>879.4</ele></trkpt>
<trkpt lat="46.627463" lon="10.619548"><ele>879.4</ele></trkpt>
<trkpt lat="46.627513" lon="10.619383"><ele>879.5</ele></trkpt>
<trkpt lat="46.627709" lon="10.618653"><ele>879.8</ele></trkpt>
<trkpt lat="46.627796" lon="10.618414"><ele>879.9</ele></trkpt>
<trkpt lat="46.628059" lon="10.617844"><ele>880.1</ele></trkpt>
<trkpt lat="46.628529" lon="10.616854"><ele>880.7</ele></trkpt>
<trkpt lat="46.628932" lon="10.615989"><ele>881.2</ele></trkpt>
<trkpt lat="46.629393" lon="10.615075"><ele>881.7</ele></trkpt>
<trkpt lat="46.629793" lon="10.614232"><ele>881.9</ele></trkpt>
<trkpt lat="46.63121" lon="10.613108"><ele>882.6</ele></trkpt>
<trkpt lat="46.631922" lon="10.612561"><ele>882.9</ele></trkpt>
<trkpt lat="46.63206" lon="10.61229"><ele>883.1</ele></trkpt>
<trkpt lat="46.632312" lon="10.612587"><ele>883.3</ele></trkpt>
<trkpt lat="46.632738" lon="10.613086"><ele>883.7</ele></trkpt>
<trkpt lat="46.632923" lon="10.613306"><ele>883.9</ele></trkpt>
<trkpt lat="46.63314" lon="10.613593"><ele>884.2</ele></trkpt>
<trkpt lat="46.63325" lon="10.613802"><ele>884.3</ele></trkpt>
<trkpt lat="46.633356" lon="10.614149"><ele>884.6</ele></trkpt>
<trkpt lat="46.633363" lon="10.614267"><ele>884.7</ele></trkpt>
<trkpt lat="46.633409" lon="10.614467"><ele>884.8</ele></trkpt>
<trkpt lat="46.633407" lon="10.61451"><ele>884.9</ele></trkpt>
<trkpt lat="46.633418" lon="10.614577"><ele>884.9</ele></trkpt>
<trkpt lat="46.633488" lon="10.614669"><ele>885.0</ele></trkpt>
<trkpt lat="46.633582" lon="10.614659"><ele>885.1</ele></trkpt>
<trkpt lat="46.633634" lon="10.614582"><ele>885.2</ele></trkpt>
<trkpt lat="46.633646" lon="10.614476"><ele>885.3</ele></trkpt>
<trkpt lat="46.633694" lon="10.614097"><ele>885.6</ele></trkpt>
<trkpt lat="46.633755" lon="10.613833"><ele>885.8</ele></trkpt>
<trkpt lat="46.633905" lon="10.613283"><ele>886.2</ele></trkpt>
<trkpt lat="46.633942" lon="10.613064"><ele>886.1</ele></trkpt>
<trkpt lat="46.634394" lon="10.611752"><ele>884.3</ele></trkpt>
<trkpt lat="46.634447" lon="10.611592"><ele>884.1</ele></trkpt>
<trkpt lat="46.634563" lon="10.611259"><ele>883.7</ele></trkpt>
<trkpt lat="46.634497" lon="10.611211"><ele>883.5</ele></trkpt>
<trkpt lat="46.634426" lon="10.611157"><ele>883.4</ele></trkpt>
<trkpt lat="46.634486" lon="10.610922"><ele>883.1</ele></trkpt>
<trkpt lat="46.634469" lon="10.610906"><ele>883.1</ele></trkpt>
<trkpt lat="46.63431" lon="10.61075"><ele>882.8</ele></trkpt>
<trkpt lat="46.634319" lon="10.610731"><ele>882.8</ele></trkpt>
<trkpt lat="46.634212" lon="10.610507"><ele>882.5</ele></trkpt>
<trkpt lat="46.634237" lon="10.610532"><ele>882.4</ele></trkpt>
<trkpt lat="46.63431" lon="10.610393"><ele>882.3</ele></trkpt>
<trkpt lat="46.634226" lon="10.6103"><ele>882.1</ele></trkpt>
<trkpt lat="46.633915" lon="10.609956"><ele>881.5</ele></trkpt>
<trkpt lat="46.633801" lon="10.609818"><ele>881.3</ele></trkpt>
<trkpt lat="46.633802" lon="10.609549"><ele>881.0</ele></trkpt>
<trkpt lat="46.633909" lon="10.609589"><ele>880.8</ele></trkpt>
<trkpt lat="46.633972" lon="10.60955"><ele>880.7</ele></trkpt>
<trkpt lat="46.634082" lon="10.60936"><ele>880.5</ele></trkpt>
<trkpt lat="46.634532" lon="10.608191"><ele>881.0</ele></trkpt>
<trkpt lat="46.634717" lon="10.607811"><ele>881.2</ele></trkpt>
<trkpt lat="46.63482" lon="10.607529"><ele>881.3</ele></trkpt>
<trkpt lat="46.63486" lon="10.607294"><ele>881.4</ele></trkpt>
<trkpt lat="46.634952" lon="10.607008"><ele>881.6</ele></trkpt>
<trkpt lat="46.635279" lon="10.606339"><ele>882.2</ele></trkpt>
<trkpt lat="46.635432" lon="10.605957"><ele>882.5</ele></trkpt>
<trkpt lat="46.635495" lon="10.605498"><ele>882.9</ele></trkpt>
<trkpt lat="46.636187" lon="10.602907"><ele>884.3</ele></trkpt>
<trkpt lat="46.63665" lon="10.601235"><ele>884.5</ele></trkpt>
<trkpt lat="46.636933" lon="10.600196"><ele>884.3</ele></trkpt>
<trkpt lat="46.636955" lon="10.600212"><ele>884.2</ele></trkpt>
<trkpt lat="46.637025" lon="10.600249"><ele>884.2</ele></trkpt>
<trkpt lat="46.637089" lon="10.600248"><ele>884.2</ele></trkpt>
<trkpt lat="46.638172" lon="10.598391"><ele>882.9</ele></trkpt>
<trkpt lat="46.638405" lon="10.598167"><ele>882.7</ele></trkpt>
<trkpt lat="46.638629" lon="10.597804"><ele>882.7</ele></trkpt>
<trkpt lat="46.640058" lon="10.593974"><ele>883.9</ele></trkpt>
<trkpt lat="46.641289" lon="10.590775"><ele>885.5</ele></trkpt>
<trkpt lat="46.641335" lon="10.590715"><ele>885.5</ele></trkpt>
<trkpt lat="46.643609" lon="10.584789"><ele>884.9</ele></trkpt>
<trkpt lat="46.645439" lon="10.580142"><ele>887.4</ele></trkpt>
<trkpt lat="46.645937" lon="10.579064"><ele>888.0</ele></trkpt>
<trkpt lat="46.64614" lon="10.578714"><ele>888.2</ele></trkpt>
<trkpt lat="46.646434" lon="10.578232"><ele>888.5</ele></trkpt>
<trkpt lat="46.646677" lon="10.577887"><ele>888.7</ele></trkpt>
<trkpt lat="46.647306" lon="10.577078"><ele>889.2</ele></trkpt>
<trkpt lat="46.647589" lon="10.576755"><ele>889.4</ele></trkpt>
<trkpt lat="46.647866" lon="10.576475"><ele>889.6</ele></trkpt>
<trkpt lat="46.651574" lon="10.573175"><ele>891.4</ele></trkpt>
<trkpt lat="46.652308" lon="10.572487"><ele>891.9</ele></trkpt>
<trkpt lat="46.655808" lon="10.569408"><ele>893.5</ele></trkpt>
<trkpt lat="46.656589" lon="10.568732"><ele>895.1</ele></trkpt>
<trkpt lat="46.657959" lon="10.567437"><ele>897.7</ele></trkpt>
<trkpt lat="46.660358" lon="10.5653"><ele>899.9</ele></trkpt>
<trkpt lat="46.660442" lon="10.565224"><ele>899.9</ele></trkpt>
<trkpt lat="46.663533" lon="10.562545"><ele>901.0</ele></trkpt>
<trkpt lat="46.665211" lon="10.561198"><ele>903.1</ele></trkpt>
<trkpt lat="46.665576" lon="10.560793"><ele>903.7</ele></trkpt>
<trkpt lat="46.666666" lon="10.558748"><ele>906.2</ele></trkpt>
<trkpt lat="46.666709" lon="10.558721"><ele>906.3</ele></trkpt>
<trkpt lat="46.666851" lon="10.558874"><ele>906.5</ele></trkpt>
<trkpt lat="46.667874" lon="10.556821"><ele>908.9</ele></trkpt>
<trkpt lat="46.668669" lon="10.555355"><ele>910.9</ele></trkpt>
<trkpt lat="46.669329" lon="10.554143"><ele>913.1</ele></trkpt>
<trkpt lat="46.669618" lon="10.553671"><ele>914.0</ele></trkpt>
<trkpt lat="46.669745" lon="10.553463"><ele>914.4</ele></trkpt>
<trkpt lat="46.669897" lon="10.553256"><ele>914.8</ele></trkpt>
<trkpt lat="46.670002" lon="10.553039"><ele>915.2</ele></trkpt>
<trkpt lat="46.670021" lon="10.552998"><ele>915.3</ele></trkpt>
<trkpt lat="46.670138" lon="10.552559"><ele>915.9</ele></trkpt>
<trkpt lat="46.670182" lon="10.552011"><ele>916.7</ele></trkpt>
<trkpt lat="46.670207" lon="10.551315"><ele>917.7</ele></trkpt>
<trkpt lat="46.670287" lon="10.550022"><ele>919.9</ele></trkpt>
<trkpt lat="46.670385" lon="10.548473"><ele>921.9</ele></trkpt>
<trkpt lat="46.670408" lon="10.547515"><ele>922.0</ele></trkpt>
<trkpt lat="46.670437" lon="10.546767"><ele>922.1</ele></trkpt>
<trkpt lat="46.670508" lon="10.546021"><ele>922.3</ele></trkpt>
<trkpt lat="46.670572" lon="10.545659"><ele>922.7</ele></trkpt>
<trkpt lat="46.670762" lon="10.544975"><ele>923.4</ele></trkpt>
<trkpt lat="46.670846" lon="10.54476"><ele>923.6</ele></trkpt>
<trkpt lat="46.671059" lon="10.544404"><ele>924.1</ele></trkpt>
<trkpt lat="46.671367" lon="10.543895"><ele>924.7</ele></trkpt>
<trkpt lat="46.671587" lon="10.543603"><ele>925.5</ele></trkpt>
<trkpt lat="46.672916" lon="10.542634"><ele>929.3</ele></trkpt>
<trkpt lat="46.673065" lon="10.54249"><ele>930.0</ele></trkpt>
<trkpt lat="46.67331" lon="10.541905"><ele>931.6</ele></trkpt>
<trkpt lat="46.673422" lon="10.541548"><ele>932.5</ele></trkpt>
<trkpt lat="46.673554" lon="10.54101"><ele>933.9</ele></trkpt>
<trkpt lat="46.673668" lon="10.540722"><ele>934.7</ele></trkpt>
<trkpt lat="46.673808" lon="10.540204"><ele>936.1</ele></trkpt>
</trkseg></trk>
</gpx>
