<?xml version="1.0" encoding="UTF-8"?>
<gpx version="1.1" creator="radtour" xmlns="http://www.topografix.com/GPX/1/1">
<trk><name>R4 Reutte - Vils - Oy-Mittelberg</name><trkseg>
<trkpt lat="47.483586" lon="10.719111"><ele>852.9</ele></trkpt>
<trkpt lat="47.483647" lon="10.719"><ele>852.9</ele></trkpt>
<trkpt lat="47.483668" lon="10.718961"><ele>852.9</ele></trkpt>
<trkpt lat="47.483831" lon="10.718452"><ele>852.9</ele></trkpt>
<trkpt lat="47.4842" lon="10.717533"><ele>852.9</ele></trkpt>
<trkpt lat="47.484291" lon="10.716858"><ele>852.6</ele></trkpt>
<trkpt lat="47.484338" lon="10.716453"><ele>852.2</ele></trkpt>
<trkpt lat="47.484425" lon="10.716067"><ele>851.8</ele></trkpt>
<trkpt lat="47.484434" lon="10.715872"><ele>851.6</ele></trkpt>
<trkpt lat="47.484325" lon="10.715209"><ele>850.9</ele></trkpt>
<trkpt lat="47.484306" lon="10.71501"><ele>850.7</ele></trkpt>
<trkpt lat="47.484292" lon="10.714719"><ele>850.4</ele></trkpt>
<trkpt lat="47.484167" lon="10.714331"><ele>849.9</ele></trkpt>
<trkpt lat="47.48411" lon="10.714039"><ele>849.6</ele></trkpt>
<trkpt lat="47.484127" lon="10.713878"><ele>849.5</ele></trkpt>
<trkpt lat="47.484136" lon="10.713815"><ele>849.4</ele></trkpt>
<trkpt lat="47.484387" lon="10.71197"><ele>847.4</ele></trkpt>
<trkpt lat="47.48443" lon="10.71188"><ele>847.4</ele></trkpt>
<trkpt lat="47.484514" lon="10.711825"><ele>847.3</ele></trkpt>
<trkpt lat="47.484926" lon="10.711771"><ele>847.1</ele></trkpt>
<trkpt lat="47.485278" lon="10.711687"><ele>846.9</ele></trkpt>
<trkpt lat="47.485672" lon="10.711538"><ele>846.7</ele></trkpt>
<trkpt lat="47.486431" lon="10.711267"><ele>846.2</ele></trkpt>
<trkpt lat="47.486377" lon="10.711223"><ele>846.1</ele></trkpt>
<trkpt lat="47.486451" lon="10.711204"><ele>846.0</ele></trkpt>
<trkpt lat="47.486834" lon="10.711056"><ele>845.7</ele></trkpt>
<trkpt lat="47.487372" lon="10.710669"><ele>845.1</ele></trkpt>
<trkpt lat="47.487467" lon="10.710627"><ele>845.0</ele></trkpt>
<trkpt lat="47.48836" lon="10.710548"><ele>844.4</ele></trkpt>
<trkpt lat="47.488664" lon="10.710599"><ele>844.2</ele></trkpt>
<trkpt lat="47.488665" lon="10.710671"><ele>844.2</ele></trkpt>
<trkpt lat="47.48867" lon="10.710743"><ele>844.2</ele></trkpt>
<trkpt lat="47.488903" lon="10.710861"><ele>844.0</ele></trkpt>
<trkpt lat="47.488893" lon="10.711239"><ele>843.9</ele></trkpt>
<trkpt lat="47.48896" lon="10.711141"><ele>843.8</ele></trkpt>
<trkpt lat="47.488975" lon="10.710825"><ele>843.7</ele></trkpt>
<trkpt lat="47.488961" lon="10.710596"><ele>843.7</ele></trkpt>
<trkpt lat="47.48875" lon="10.709082"><ele>843.3</ele></trkpt>
<trkpt lat="47.488679" lon="10.708547"><ele>843.2</ele></trkpt>
<trkpt lat="47.488573" lon="10.708567"><ele>843.1</ele></trkpt>
<trkpt lat="47.488354" lon="10.708611"><ele>843.0</ele></trkpt>
<trkpt lat="47.488304" lon="10.708698"><ele>843.0</ele></trkpt>
<trkpt lat="47.488289" lon="10.708788"><ele>842.9</ele></trkpt>
<trkpt lat="47.488516" lon="10.709066"><ele>842.7</ele></trkpt>
<trkpt lat="47.488638" lon="10.70913"><ele>842.6</ele></trkpt>
<trkpt lat="47.488904" lon="10.709201"><ele>842.4</ele></trkpt>
<trkpt lat="47.490394" lon="10.709373"><ele>841.5</ele></trkpt>
<trkpt lat="47.492434" lon="10.709505"><ele>840.4</ele></trkpt>
<trkpt lat="47.49272" lon="10.709471"><ele>840.3</ele></trkpt>
<trkpt lat="47.494165" lon="10.709487"><ele>839.8</ele></trkpt>
<trkpt lat="47.494579" lon="10.70948"><ele>839.6</ele></trkpt>
<trkpt lat="47.497286" lon="10.709615"><ele>838.6</ele></trkpt>
<trkpt lat="47.498176" lon="10.709728"><ele>838.1</ele></trkpt>
<trkpt lat="47.498602" lon="10.709862"><ele>837.9</ele></trkpt>
<trkpt lat="47.499644" lon="10.710129"><ele>838.0</ele></trkpt>
<trkpt lat="47.499833" lon="10.710158"><ele>838.0</ele></trkpt>
<trkpt lat="47.499905" lon="10.710141"><ele>838.1</ele></trkpt>
<trkpt lat="47.500043" lon="10.710028"><ele>838.1</ele></trkpt>
<trkpt lat="47.500181" lon="10.709829"><ele>838.1</ele></trkpt>
<trkpt lat="47.500167" lon="10.709546"><ele>838.1</ele></trkpt>
<trkpt lat="47.500302" lon="10.709157"><ele>838.3</ele></trkpt>
<trkpt lat="47.500281" lon="10.709077"><ele>838.3</ele></trkpt>
<trkpt lat="47.500212" lon="10.709067"><ele>838.4</ele></trkpt>
<trkpt lat="47.50013" lon="10.708868"><ele>838.5</ele></trkpt>
<trkpt lat="47.500096" lon="10.708786"><ele>838.5</ele></trkpt>
<trkpt lat="47.49991" lon="10.708127"><ele>838.8</ele></trkpt>
<trkpt lat="47.499835" lon="10.707998"><ele>838.9</ele></trkpt>
<trkpt lat="47.499771" lon="10.707861"><ele>838.9</ele></trkpt>
<trkpt lat="47.499726" lon="10.707774"><ele>839.0</ele></trkpt>
<trkpt lat="47.499561" lon="10.707508"><ele>839.1</ele></trkpt>
<trkpt lat="47.499508" lon="10.707439"><ele>839.2</ele></trkpt>
<trkpt lat="47.499414" lon="10.707317"><ele>839.2</ele></trkpt>
<trkpt lat="47.499346" lon="10.707209"><ele>839.2</ele></trkpt>
<trkpt lat="47.499271" lon="10.707037"><ele>839.3</ele></trkpt>
<trkpt lat="47.499262" lon="10.706952"><ele>839.3</ele></trkpt>
<trkpt lat="47.499389" lon="10.706885"><ele>839.3</ele></trkpt>
<trkpt lat="47.499453" lon="10.706901"><ele>839.3</ele></trkpt>
<trkpt lat="47.499601" lon="10.706889"><ele>839.3</ele></trkpt>
<trkpt lat="47.500309" lon="10.706525"><ele>839.5</ele></trkpt>
<trkpt lat="47.501043" lon="10.705953"><ele>840.3</ele></trkpt>
<trkpt lat="47.502052" lon="10.705065"><ele>842.2</ele></trkpt>
<trkpt lat="47.502197" lon="10.705015"><ele>842.5</ele></trkpt>
<trkpt lat="47.502271" lon="10.705022"><ele>842.6</ele></trkpt>
<trkpt lat="47.50243" lon="10.70512"><ele>843.0</ele></trkpt>
<trkpt lat="47.502587" lon="10.705295"><ele>843.5</ele></trkpt>
<trkpt lat="47.502676" lon="10.705475"><ele>843.9</ele></trkpt>
<trkpt lat="47.502854" lon="10.70564"><ele>844.4</ele></trkpt>
<trkpt lat="47.502968" lon="10.705707"><ele>844.6</ele></trkpt>
<trkpt lat="47.5035" lon="10.705985"><ele>846.0</ele></trkpt>
<trkpt lat="47.503821" lon="10.706155"><ele>846.7</ele></trkpt>
<trkpt lat="47.504668" lon="10.706867"><ele>844.2</ele></trkpt>
<trkpt lat="47.505424" lon="10.707379"><ele>842.2</ele></trkpt>
<trkpt lat="47.505507" lon="10.707409"><ele>842.0</ele></trkpt>
<trkpt lat="47.505522" lon="10.707414"><ele>842.0</ele></trkpt>
<trkpt lat="47.505606" lon="10.707498"><ele>841.9</ele></trkpt>
<trkpt lat="47.505665" lon="10.707639"><ele>841.7</ele></trkpt>
<trkpt lat="47.505777" lon="10.707771"><ele>841.5</ele></trkpt>
<trkpt lat="47.506384" lon="10.70819"><ele>840.5</ele></trkpt>
<trkpt lat="47.506703" lon="10.708634"><ele>839.8</ele></trkpt>
<trkpt lat="47.506804" lon="10.708947"><ele>839.5</ele></trkpt>
<trkpt lat="47.506859" lon="10.709479"><ele>839.7</ele></trkpt>
<trkpt lat="47.506775" lon="10.709735"><ele>839.9</ele></trkpt>
<trkpt lat="47.506764" lon="10.709864"><ele>839.9</ele></trkpt>
<trkpt lat="47.50681" lon="10.710027"><ele>840.0</ele></trkpt>
<trkpt lat="47.506872" lon="10.710086"><ele>840.1</ele></trkpt>
<trkpt lat="47.507335" lon="10.710129"><ele>840.4</ele></trkpt>
<trkpt lat="47.507469" lon="10.71024"><ele>840.5</ele></trkpt>
<trkpt lat="47.507569" lon="10.710563"><ele>840.6</ele></trkpt>
<trkpt lat="47.50765" lon="10.71061"><ele>840.7</ele></trkpt>
<trkpt lat="47.508164" lon="10.710489"><ele>842.6</ele></trkpt>
<trkpt lat="47.50872" lon="10.710095"><ele>844.8</ele></trkpt>
<trkpt lat="47.50941" lon="10.709322"><ele>847.1</ele></trkpt>
<trkpt lat="47.510117" lon="10.708378"><ele>846.8</ele></trkpt>
<trkpt lat="47.51028" lon="10.708069"><ele>846.7</ele></trkpt>
<trkpt lat="47.510338" lon="10.70782"><ele>846.6</ele></trkpt>
<trkpt lat="47.510405" lon="10.707459"><ele>846.4</ele></trkpt>
<trkpt lat="47.510436" lon="10.707391"><ele>846.3</ele></trkpt>
<trkpt lat="47.510593" lon="10.707219"><ele>846.0</ele></trkpt>
<trkpt lat="47.511072" lon="10.707016"><ele>845.1</ele></trkpt>
<trkpt lat="47.511233" lon="10.706861"><ele>844.8</ele></trkpt>
<trkpt lat="47.511347" lon="10.706745"><ele>844.5</ele></trkpt>
<trkpt lat="47.511544" lon="10.70662"><ele>844.1</ele></trkpt>
<trkpt lat="47.511821" lon="10.706257"><ele>843.5</ele></trkpt>
<trkpt lat="47.511915" lon="10.706157"><ele>843.5</ele></trkpt>
<trkpt lat="47.513848" lon="10.704101"><ele>851.3</ele></trkpt>
<trkpt lat="47.514052" lon="10.70374"><ele>852.4</ele></trkpt>
<trkpt lat="47.514477" lon="10.702791"><ele>855.3</ele></trkpt>
<trkpt lat="47.514616" lon="10.702138"><ele>853.9</ele></trkpt>
<trkpt lat="47.514677" lon="10.701282"><ele>851.3</ele></trkpt>
<trkpt lat="47.514725" lon="10.700018"><ele>847.4</ele></trkpt>
<trkpt lat="47.514639" lon="10.698977"><ele>844.7</ele></trkpt>
<trkpt lat="47.514535" lon="10.697642"><ele>841.2</ele></trkpt>
<trkpt lat="47.51431" lon="10.695133"><ele>841.1</ele></trkpt>
<trkpt lat="47.514324" lon="10.694379"><ele>841.7</ele></trkpt>
<trkpt lat="47.514364" lon="10.694143"><ele>842.0</ele></trkpt>
<trkpt lat="47.51445" lon="10.693931"><ele>842.4</ele></trkpt>
<trkpt lat="47.514734" lon="10.693544"><ele>843.2</ele></trkpt>
<trkpt lat="47.516314" lon="10.691629"><ele>847.0</ele></trkpt>
<trkpt lat="47.516785" lon="10.690958"><ele>847.8</ele></trkpt>
<trkpt lat="47.516842" lon="10.690878"><ele>847.7</ele></trkpt>
<trkpt lat="47.517316" lon="10.690186"><ele>846.6</ele></trkpt>
<trkpt lat="47.517556" lon="10.689794"><ele>846.1</ele></trkpt>
<trkpt lat="47.51777" lon="10.689365"><ele>845.5</ele></trkpt>
<trkpt lat="47.518131" lon="10.6887"><ele>844.7</ele></trkpt>
<trkpt lat="47.519796" lon="10.686053"><ele>842.6</ele></trkpt>
<trkpt lat="47.520192" lon="10.685547"><ele>842.5</ele></trkpt>
<trkpt lat="47.520372" lon="10.685281"><ele>842.4</ele></trkpt>
<trkpt lat="47.521173" lon="10.683631"><ele>843.9</ele></trkpt>
<trkpt lat="47.521532" lon="10.683058"><ele>844.5</ele></trkpt>
<trkpt lat="47.522559" lon="10.681585"><ele>844.0</ele></trkpt>
<trkpt lat="47.523055" lon="10.680876"><ele>843.2</ele></trkpt>
<trkpt lat="47.523457" lon="10.680294"><ele>842.0</ele></trkpt>
<trkpt lat="47.523488" lon="10.680343"><ele>841.9</ele></trkpt>
<trkpt lat="47.523546" lon="10.680258"><ele>841.7</ele></trkpt>
<trkpt lat="47.5237" lon="10.68002"><ele>841.3</ele></trkpt>
<trkpt lat="47.523895" lon="10.680332"><ele>840.7</ele></trkpt>
<trkpt lat="47.524146" lon="10.680545"><ele>840.0</ele></trkpt>
<trkpt lat="47.524307" lon="10.680656"><ele>839.5</ele></trkpt>
<trkpt lat="47.524576" lon="10.680677"><ele>838.6</ele></trkpt>
<trkpt lat="47.525016" lon="10.680904"><ele>837.1</ele></trkpt>
<trkpt lat="47.525253" lon="10.68091"><ele>836.3</ele></trkpt>
<trkpt lat="47.525455" lon="10.680992"><ele>835.7</ele></trkpt>
<trkpt lat="47.525666" lon="10.681144"><ele>834.9</ele></trkpt>
<trkpt lat="47.526004" lon="10.681261"><ele>833.9</ele></trkpt>
<trkpt lat="47.526424" lon="10.68134"><ele>832.9</ele></trkpt>
<trkpt lat="47.527057" lon="10.681396"><ele>831.3</ele></trkpt>
<trkpt lat="47.527485" lon="10.681396"><ele>830.3</ele></trkpt>
<trkpt lat="47.527829" lon="10.68138"><ele>829.4</ele></trkpt>
<trkpt lat="47.528126" lon="10.681548"><ele>828.5</ele></trkpt>
<trkpt lat="47.528283" lon="10.681409"><ele>828.0</ele></trkpt>
<trkpt lat="47.528486" lon="10.680772"><ele>826.7</ele></trkpt>
<trkpt lat="47.528531" lon="10.680637"><ele>826.4</ele></trkpt>
<trkpt lat="47.528583" lon="10.68052"><ele>826.1</ele></trkpt>
<trkpt lat="47.528855" lon="10.680218"><ele>825.2</ele></trkpt>
<trkpt lat="47.529056" lon="10.679645"><ele>824.5</ele></trkpt>
<trkpt lat="47.529376" lon="10.678675"><ele>823.7</ele></trkpt>
<trkpt lat="47.529685" lon="10.677627"><ele>822.8</ele></trkpt>
<trkpt lat="47.529801" lon="10.676939"><ele>822.7</ele></trkpt>
<trkpt lat="47.530111" lon="10.676114"><ele>822.6</ele></trkpt>
<trkpt lat="47.530416" lon="10.675424"><ele>822.6</ele></trkpt>
<trkpt lat="47.530572" lon="10.674933"><ele>822.4</ele></trkpt>
<trkpt lat="47.53063" lon="10.67479"><ele>822.3</ele></trkpt>
<trkpt lat="47.530926" lon="10.674453"><ele>822.1</ele></trkpt>
<trkpt lat="47.531089" lon="10.674203"><ele>821.9</ele></trkpt>
<trkpt lat="47.531539" lon="10.673479"><ele>821.5</ele></trkpt>
<trkpt lat="47.531967" lon="10.67279"><ele>821.0</ele></trkpt>
<trkpt lat="47.532018" lon="10.672709"><ele>820.9</ele></trkpt>
<trkpt lat="47.532358" lon="10.672471"><ele>820.6</ele></trkpt>
<trkpt lat="47.532809" lon="10.672173"><ele>820.2</ele></trkpt>
<trkpt lat="47.533786" lon="10.671534"><ele>819.8</ele></trkpt>
<trkpt lat="47.533996" lon="10.671488"><ele>819.8</ele></trkpt>
<trkpt lat="47.53403" lon="10.671484"><ele>819.8</ele></trkpt>
<trkpt lat="47.534139" lon="10.671478"><ele>819.8</ele></trkpt>
<trkpt lat="47.534633" lon="10.67152"><ele>819.7</ele></trkpt>
<trkpt lat="47.534742" lon="10.671526"><ele>819.7</ele></trkpt>
<trkpt lat="47.53499" lon="10.671532"><ele>819.7</ele></trkpt>
<trkpt lat="47.535285" lon="10.671505"><ele>819.7</ele></trkpt>
<trkpt lat="47.535595" lon="10.671473"><ele>819.8</ele></trkpt>
<trkpt lat="47.535706" lon="10.671526"><ele>819.8</ele></trkpt>
<trkpt lat="47.535892" lon="10.671747"><ele>819.8</ele></trkpt>
<trkpt lat="47.536002" lon="10.671781"><ele>819.8</ele></trkpt>
<trkpt lat="47.536057" lon="10.671752"><ele>819.8</ele></trkpt>
<trkpt lat="47.536131" lon="10.67165"><ele>819.8</ele></trkpt>
<trkpt lat="47.53616" lon="10.671511"><ele>819.8</ele></trkpt>
<trkpt lat="47.536064" lon="10.670338"><ele>820.2</ele></trkpt>
<trkpt lat="47.53601" lon="10.670074"><ele>820.3</ele></trkpt>
<trkpt lat="47.535954" lon="10.669895"><ele>820.4</ele></trkpt>
<trkpt lat="47.535941" lon="10.669846"><ele>820.4</ele></trkpt>
<trkpt lat="47.535861" lon="10.669473"><ele>820.6</ele></trkpt>
<trkpt lat="47.535853" lon="10.669433"><ele>820.6</ele></trkpt>
<trkpt lat="47.535711" lon="10.668752"><ele>820.9</ele></trkpt>
<trkpt lat="47.535512" lon="10.668537"><ele>821.0</ele></trkpt>
<trkpt lat="47.535434" lon="10.668408"><ele>821.1</ele></trkpt>
<trkpt lat="47.535399" lon="10.667776"><ele>821.4</ele></trkpt>
<trkpt lat="47.535542" lon="10.66762"><ele>821.5</ele></trkpt>
<trkpt lat="47.535512" lon="10.667532"><ele>821.6</ele></trkpt>
<trkpt lat="47.535493" lon="10.667441"><ele>821.6</ele></trkpt>
<trkpt lat="47.535186" lon="10.665731"><ele>822.7</ele></trkpt>
<trkpt lat="47.535098" lon="10.664723"><ele>823.9</ele></trkpt>
<trkpt lat="47.534953" lon="10.663608"><ele>825.1</ele></trkpt>
<trkpt lat="47.534942" lon="10.663384"><ele>825.5</ele></trkpt>
<trkpt lat="47.534996" lon="10.663207"><ele>825.8</ele></trkpt>
<trkpt lat="47.5353" lon="10.662758"><ele>826.9</ele></trkpt>
<trkpt lat="47.535316" lon="10.662693"><ele>827.0</ele></trkpt>
<trkpt lat="47.535317" lon="10.662525"><ele>827.3</ele></trkpt>
<trkpt lat="47.535247" lon="10.661827"><ele>828.5</ele></trkpt>
<trkpt lat="47.535251" lon="10.661459"><ele>829.1</ele></trkpt>
<trkpt lat="47.535338" lon="10.66093"><ele>830.1</ele></trkpt>
<trkpt lat="47.535527" lon="10.660301"><ele>831.6</ele></trkpt>
<trkpt lat="47.535622" lon="10.65968"><ele>832.9</ele></trkpt>
<trkpt lat="47.535749" lon="10.659478"><ele>833.5</ele></trkpt>
<trkpt lat="47.535861" lon="10.659219"><ele>834.1</ele></trkpt>
<trkpt lat="47.535975" lon="10.658767"><ele>835.1</ele></trkpt>
<trkpt lat="47.536102" lon="10.658389"><ele>836.2</ele></trkpt>
<trkpt lat="47.536302" lon="10.658058"><ele>837.3</ele></trkpt>
<trkpt lat="47.536394" lon="10.657735"><ele>838.2</ele></trkpt>
<trkpt lat="47.536649" lon="10.657272"><ele>839.7</ele></trkpt>
<trkpt lat="47.536988" lon="10.656792"><ele>841.5</ele></trkpt>
<trkpt lat="47.538054" lon="10.655421"><ele>846.5</ele></trkpt>
<trkpt lat="47.538458" lon="10.654558"><ele>848.9</ele></trkpt>
<trkpt lat="47.538939" lon="10.653637"><ele>851.3</ele></trkpt>
<trkpt lat="47.53932" lon="10.653027"><ele>853.1</ele></trkpt>
<trkpt lat="47.539622" lon="10.652379"><ele>854.2</ele></trkpt>
<trkpt lat="47.539988" lon="10.651734"><ele>854.9</ele></trkpt>
<trkpt lat="47.54077" lon="10.650242"><ele>856.0</ele></trkpt>
<trkpt lat="47.541424" lon="10.648909"><ele>856.3</ele></trkpt>
<trkpt lat="47.541513" lon="10.648559"><ele>856.3</ele></trkpt>
<trkpt lat="47.541638" lon="10.647452"><ele>855.2</ele></trkpt>
<trkpt lat="47.541712" lon="10.64714"><ele>854.8</ele></trkpt>
<trkpt lat="47.541904" lon="10.64653"><ele>854.0</ele></trkpt>
<trkpt lat="47.542606" lon="10.644663"><ele>849.5</ele></trkpt>
<trkpt lat="47.54282" lon="10.644039"><ele>847.8</ele></trkpt>
<trkpt lat="47.543083" lon="10.643139"><ele>845.2</ele></trkpt>
<trkpt lat="47.543296" lon="10.642257"><ele>842.8</ele></trkpt>
<trkpt lat="47.543354" lon="10.64189"><ele>841.8</ele></trkpt>
<trkpt lat="47.543412" lon="10.641249"><ele>840.1</ele></trkpt>
<trkpt lat="47.54341" lon="10.640881"><ele>839.3</ele></trkpt>
<trkpt lat="47.543475" lon="10.63959"><ele>839.0</ele></trkpt>
<trkpt lat="47.543543" lon="10.638982"><ele>838.9</ele></trkpt>
<trkpt lat="47.543511" lon="10.638737"><ele>838.9</ele></trkpt>
<trkpt lat="47.543451" lon="10.638622"><ele>838.9</ele></trkpt>
<trkpt lat="47.543221" lon="10.638289"><ele>839.3</ele></trkpt>
<trkpt lat="47.543135" lon="10.638116"><ele>839.9</ele></trkpt>
<trkpt lat="47.542999" lon="10.637578"><ele>841.5</ele></trkpt>
<trkpt lat="47.542873" lon="10.636822"><ele>843.8</ele></trkpt>
<trkpt lat="47.543043" lon="10.636031"><ele>846.1</ele></trkpt>
<trkpt lat="47.54315" lon="10.635685"><ele>845.7</ele></trkpt>
<trkpt lat="47.543487" lon="10.635066"><ele>844.0</ele></trkpt>
<trkpt lat="47.543855" lon="10.634267"><ele>841.9</ele></trkpt>
<trkpt lat="47.54404" lon="10.634077"><ele>841.2</ele></trkpt>
<trkpt lat="47.544993" lon="10.633326"><ele>840.6</ele></trkpt>
<trkpt lat="47.545287" lon="10.632945"><ele>840.6</ele></trkpt>
<trkpt lat="47.54563" lon="10.632928"><ele>840.6</ele></trkpt>
<trkpt lat="47.545685" lon="10.632604"><ele>840.7</ele></trkpt>
<trkpt lat="47.546198" lon="10.631931"><ele>841.5</ele></trkpt>
<trkpt lat="47.546612" lon="10.631487"><ele>842.0</ele></trkpt>
<trkpt lat="47.546953" lon="10.631209"><ele>842.5</ele></trkpt>
<trkpt lat="47.547067" lon="10.631003"><ele>842.7</ele></trkpt>
<trkpt lat="47.547081" lon="10.630977"><ele>842.6</ele></trkpt>
<trkpt lat="47.547209" lon="10.630812"><ele>842.5</ele></trkpt>
<trkpt lat="47.547628" lon="10.630156"><ele>842.0</ele></trkpt>
<trkpt lat="47.547825" lon="10.629819"><ele>841.7</ele></trkpt>
<trkpt lat="47.547886" lon="10.629714"><ele>841.6</ele></trkpt>
<trkpt lat="47.547995" lon="10.629526"><ele>841.5</ele></trkpt>
<trkpt lat="47.548125" lon="10.629302"><ele>841.3</ele></trkpt>
<trkpt lat="47.548291" lon="10.629138"><ele>841.1</ele></trkpt>
<trkpt lat="47.54845" lon="10.62889"><ele>840.7</ele></trkpt>
<trkpt lat="47.548485" lon="10.62879"><ele>840.5</ele></trkpt>
<trkpt lat="47.548617" lon="10.628345"><ele>839.9</ele></trkpt>
<trkpt lat="47.548782" lon="10.627723"><ele>839.0</ele></trkpt>
<trkpt lat="47.5489" lon="10.627093"><ele>838.1</ele></trkpt>
<trkpt lat="47.548975" lon="10.626846"><ele>837.7</ele></trkpt>
<trkpt lat="47.54904" lon="10.626679"><ele>837.5</ele></trkpt>
<trkpt lat="47.549455" lon="10.626124"><ele>835.9</ele></trkpt>
<trkpt lat="47.549658" lon="10.625858"><ele>835.1</ele></trkpt>
<trkpt lat="47.549988" lon="10.625817"><ele>834.2</ele></trkpt>
<trkpt lat="47.55043" lon="10.625868"><ele>832.9</ele></trkpt>
<trkpt lat="47.55044" lon="10.625809"><ele>832.8</ele></trkpt>
<trkpt lat="47.550458" lon="10.62571"><ele>832.6</ele></trkpt>
<trkpt lat="47.55097" lon="10.623192"><ele>832.2</ele></trkpt>
<trkpt lat="47.55118" lon="10.622132"><ele>832.8</ele></trkpt>
<trkpt lat="47.551395" lon="10.621039"><ele>833.6</ele></trkpt>
<trkpt lat="47.551647" lon="10.619777"><ele>834.3</ele></trkpt>
<trkpt lat="47.552159" lon="10.617216"><ele>835.2</ele></trkpt>
<trkpt lat="47.55225" lon="10.616849"><ele>835.3</ele></trkpt>
<trkpt lat="47.552275" lon="10.616801"><ele>835.3</ele></trkpt>
<trkpt lat="47.552319" lon="10.616572"><ele>835.3</ele></trkpt>
<trkpt lat="47.552315" lon="10.61649"><ele>835.3</ele></trkpt>
<trkpt lat="47.552368" lon="10.616204"><ele>835.3</ele></trkpt>
<trkpt lat="47.552514" lon="10.615486"><ele>835.4</ele></trkpt>
<trkpt lat="47.553784" lon="10.609219"><ele>830.7</ele></trkpt>
<trkpt lat="47.554019" lon="10.608278"><ele>830.2</ele></trkpt>
<trkpt lat="47.554425" lon="10.606988"><ele>829.7</ele></trkpt>
<trkpt lat="47.555118" lon="10.605142"><ele>829.5</ele></trkpt>
<trkpt lat="47.556778" lon="10.600697"><ele>829.8</ele></trkpt>
<trkpt lat="47.556848" lon="10.600572"><ele>829.8</ele></trkpt>
<trkpt lat="47.557689" lon="10.597624"><ele>830.3</ele></trkpt>
<trkpt lat="47.557794" lon="10.59753"><ele>830.4</ele></trkpt>
<trkpt lat="47.558107" lon="10.596462"><ele>830.8</ele></trkpt>
<trkpt lat="47.558353" lon="10.595739"><ele>831.2</ele></trkpt>
<trkpt lat="47.558474" lon="10.595386"><ele>831.6</ele></trkpt>
<trkpt lat="47.5586" lon="10.595087"><ele>831.8</ele></trkpt>
<trkpt lat="47.558708" lon="10.594838"><ele>832.1</ele></trkpt>
<trkpt lat="47.558855" lon="10.594563"><ele>832.3</ele></trkpt>
<trkpt lat="47.558925" lon="10.594296"><ele>832.6</ele></trkpt>
<trkpt lat="47.55897" lon="10.594162"><ele>832.7</ele></trkpt>
<trkpt lat="47.559034" lon="10.593997"><ele>832.8</ele></trkpt>
<trkpt lat="47.559148" lon="10.5937"><ele>833.1</ele></trkpt>
<trkpt lat="47.559329" lon="10.593224"><ele>833.9</ele></trkpt>
<trkpt lat="47.559363" lon="10.593137"><ele>834.1</ele></trkpt>
<trkpt lat="47.559678" lon="10.592334"><ele>835.6</ele></trkpt>
<trkpt lat="47.560106" lon="10.591226"><ele>837.5</ele></trkpt>
<trkpt lat="47.56033" lon="10.590551"><ele>838.2</ele></trkpt>
<trkpt lat="47.560336" lon="10.590533"><ele>838.2</ele></trkpt>
<trkpt lat="47.560403" lon="10.5903"><ele>838.5</ele></trkpt>
<trkpt lat="47.560434" lon="10.590201"><ele>838.6</ele></trkpt>
<trkpt lat="47.560935" lon="10.588643"><ele>839.9</ele></trkpt>
<trkpt lat="47.561082" lon="10.58819"><ele>840.0</ele></trkpt>
<trkpt lat="47.561368" lon="10.587344"><ele>840.1</ele></trkpt>
<trkpt lat="47.561313" lon="10.58723"><ele>840.1</ele></trkpt>
<trkpt lat="47.56135" lon="10.587057"><ele>840.1</ele></trkpt>
<trkpt lat="47.561772" lon="10.586068"><ele>839.9</ele></trkpt>
<trkpt lat="47.563236" lon="10.581869"><ele>837.9</ele></trkpt>
<trkpt lat="47.56344" lon="10.581343"><ele>838.1</ele></trkpt>
<trkpt lat="47.563696" lon="10.580829"><ele>838.3</ele></trkpt>
<trkpt lat="47.564092" lon="10.58012"><ele>838.5</ele></trkpt>
<trkpt lat="47.564221" lon="10.579873"><ele>838.6</ele></trkpt>
<trkpt lat="47.564407" lon="10.57949"><ele>838.8</ele></trkpt>
<trkpt lat="47.564482" lon="10.579553"><ele>838.9</ele></trkpt>
<trkpt lat="47.564523" lon="10.579589"><ele>838.9</ele></trkpt>
<trkpt lat="47.56462" lon="10.579688"><ele>839.0</ele></trkpt>
<trkpt lat="47.564729" lon="10.579656"><ele>839.0</ele></trkpt>
<trkpt lat="47.565149" lon="10.579"><ele>839.4</ele></trkpt>
<trkpt lat="47.565295" lon="10.578866"><ele>839.5</ele></trkpt>
<trkpt lat="47.565333" lon="10.578896"><ele>839.6</ele></trkpt>
<trkpt lat="47.565494" lon="10.579024"><ele>839.7</ele></trkpt>
<trkpt lat="47.565558" lon="10.579075"><ele>839.7</ele></trkpt>
<trkpt lat="47.565573" lon="10.578966"><ele>839.8</ele></trkpt>
<trkpt lat="47.565679" lon="10.578752"><ele>839.9</ele></trkpt>
<trkpt lat="47.565913" lon="10.578078"><ele>840.2</ele></trkpt>
<trkpt lat="47.566435" lon="10.576739"><ele>840.8</ele></trkpt>
<trkpt lat="47.566801" lon="10.575727"><ele>841.5</ele></trkpt>
<trkpt lat="47.567084" lon="10.57493"><ele>842.1</ele></trkpt>
<trkpt lat="47.567131" lon="10.574716"><ele>842.2</ele></trkpt>
<trkpt lat="47.567114" lon="10.574577"><ele>842.3</ele></trkpt>
<trkpt lat="47.567078" lon="10.574405"><ele>842.4</ele></trkpt>
<trkpt lat="47.567109" lon="10.574268"><ele>842.5</ele></trkpt>
<trkpt lat="47.567192" lon="10.574064"><ele>842.6</ele></trkpt>
<trkpt lat="47.56746" lon="10.573799"><ele>842.7</ele></trkpt>
<trkpt lat="47.567506" lon="10.573672"><ele>842.8</ele></trkpt>
<trkpt lat="47.567545" lon="10.573401"><ele>842.8</ele></trkpt>
<trkpt lat="47.567587" lon="10.572683"><ele>843.0</ele></trkpt>
<trkpt lat="47.567653" lon="10.572568"><ele>843.1</ele></trkpt>
<trkpt lat="47.567685" lon="10.572545"><ele>843.1</ele></trkpt>
<trkpt lat="47.567818" lon="10.572505"><ele>843.1</ele></trkpt>
<trkpt lat="47.567966" lon="10.572404"><ele>843.2</ele></trkpt>
<trkpt lat="47.568048" lon="10.572079"><ele>843.3</ele></trkpt>
<trkpt lat="47.568006" lon="10.57196"><ele>843.3</ele></trkpt>
<trkpt lat="47.567994" lon="10.571834"><ele>843.3</ele></trkpt>
<trkpt lat="47.568143" lon="10.571187"><ele>843.4</ele></trkpt>
<trkpt lat="47.568205" lon="10.571117"><ele>843.4</ele></trkpt>
<trkpt lat="47.568227" lon="10.57037"><ele>843.6</ele></trkpt>
<trkpt lat="47.568519" lon="10.570444"><ele>843.6</ele></trkpt>
<trkpt lat="47.568614" lon="10.570405"><ele>843.6</ele></trkpt>
<trkpt lat="47.569025" lon="10.570006"><ele>844.5</ele></trkpt>
<trkpt lat="47.569848" lon="10.569666"><ele>846.3</ele></trkpt>
<trkpt lat="47.570225" lon="10.569652"><ele>847.2</ele></trkpt>
<trkpt lat="47.570264" lon="10.56976"><ele>847.3</ele></trkpt>
<trkpt lat="47.570374" lon="10.570038"><ele>847.8</ele></trkpt>
<trkpt lat="47.570391" lon="10.570134"><ele>848.0</ele></trkpt>
<trkpt lat="47.570419" lon="10.570214"><ele>848.1</ele></trkpt>
<trkpt lat="47.570457" lon="10.570305"><ele>848.3</ele></trkpt>
<trkpt lat="47.570673" lon="10.570376"><ele>848.9</ele></trkpt>
<trkpt lat="47.571029" lon="10.570333"><ele>849.7</ele></trkpt>
<trkpt lat="47.57136" lon="10.570545"><ele>850.6</ele></trkpt>
<trkpt lat="47.572342" lon="10.570788"><ele>851.9</ele></trkpt>
<trkpt lat="47.572551" lon="10.570807"><ele>851.8</ele></trkpt>
<trkpt lat="47.572843" lon="10.570799"><ele>851.8</ele></trkpt>
<trkpt lat="47.573213" lon="10.57056"><ele>851.7</ele></trkpt>
<trkpt lat="47.574142" lon="10.569743"><ele>851.9</ele></trkpt>
<trkpt lat="47.574802" lon="10.569481"><ele>852.3</ele></trkpt>
<trkpt lat="47.57517" lon="10.569472"><ele>852.6</ele></trkpt>
<trkpt lat="47.575623" lon="10.569457"><ele>852.7</ele></trkpt>
<trkpt lat="47.57581" lon="10.569319"><ele>852.7</ele></trkpt>
<trkpt lat="47.575889" lon="10.569135"><ele>852.7</ele></trkpt>
<trkpt lat="47.576064" lon="10.569269"><ele>852.7</ele></trkpt>
<trkpt lat="47.576325" lon="10.569338"><ele>852.8</ele></trkpt>
<trkpt lat="47.576575" lon="10.569308"><ele>852.8</ele></trkpt>
<trkpt lat="47.576865" lon="10.569127"><ele>852.8</ele></trkpt>
<trkpt lat="47.577174" lon="10.569072"><ele>852.8</ele></trkpt>
<trkpt lat="47.577419" lon="10.569018"><ele>852.8</ele></trkpt>
<trkpt lat="47.578178" lon="10.569008"><ele>852.9</ele></trkpt>
<trkpt lat="47.578623" lon="10.569075"><ele>852.9</ele></trkpt>
<trkpt lat="47.578713" lon="10.569044"><ele>852.9</ele></trkpt>
<trkpt lat="47.578865" lon="10.569055"><ele>852.9</ele></trkpt>
<trkpt lat="47.579387" lon="10.568619"><ele>853.3</ele></trkpt>
<trkpt lat="47.579569" lon="10.56852"><ele>853.4</ele></trkpt>
<trkpt lat="47.579844" lon="10.568521"><ele>853.5</ele></trkpt>
<trkpt lat="47.579956" lon="10.568505"><ele>853.6</ele></trkpt>
<trkpt lat="47.581731" lon="10.568387"><ele>854.1</ele></trkpt>
<trkpt lat="47.582121" lon="10.568323"><ele>854.2</ele></trkpt>
<trkpt lat="47.582206" lon="10.568359"><ele>854.2</ele></trkpt>
<trkpt lat="47.582296" lon="10.568398"><ele>854.2</ele></trkpt>
<trkpt lat="47.58246" lon="10.568407"><ele>854.1</ele></trkpt>
<trkpt lat="47.582639" lon="10.568367"><ele>854.1</ele></trkpt>
<trkpt lat="47.582969" lon="10.568152"><ele>853.9</ele></trkpt>
<trkpt lat="47.583024" lon="10.568164"><ele>853.9</ele></trkpt>
<trkpt lat="47.583222" lon="10.567667"><ele>853.8</ele></trkpt>
<trkpt lat="47.583264" lon="10.567555"><ele>853.7</ele></trkpt>
<trkpt lat="47.583237" lon="10.567455"><ele>853.7</ele></trkpt>
<trkpt lat="47.583221" lon="10.567383"><ele>853.7</ele></trkpt>
<trkpt lat="47.583209" lon="10.567274"><ele>853.7</ele></trkpt>
<trkpt lat="47.583167" lon="10.567189"><ele>853.6</ele></trkpt>
<trkpt lat="47.583159" lon="10.567002"><ele>853.6</ele></trkpt>
<trkpt lat="47.5832" lon="10.566528"><ele>853.5</ele></trkpt>
<trkpt lat="47.583228" lon="10.566442"><ele>853.5</ele></trkpt>
<trkpt lat="47.583335" lon="10.566318"><ele>853.5</ele></trkpt>
<trkpt lat="47.583377" lon="10.56621"><ele>853.5</ele></trkpt>
<trkpt lat="47.583435" lon="10.566305"><ele>853.5</ele></trkpt>
<trkpt lat="47.583622" lon="10.566437"><ele>853.6</ele></trkpt>
<trkpt lat="47.584135" lon="10.566604"><ele>853.6</ele></trkpt>
<trkpt lat="47.584363" lon="10.56629"><ele>853.6</ele></trkpt>
<trkpt lat="47.585125" lon="10.566135"><ele>853.7</ele></trkpt>
<trkpt lat="47.586253" lon="10.565601"><ele>853.8</ele></trkpt>
<trkpt lat="47.586552" lon="10.565454"><ele>853.8</ele></trkpt>
<trkpt lat="47.587472" lon="10.564872"><ele>853.7</ele></trkpt>
<trkpt lat="47.587948" lon="10.564466"><ele>853.7</ele></trkpt>
<trkpt lat="47.588328" lon="10.564113"><ele>853.8</ele></trkpt>
<trkpt lat="47.588887" lon="10.563527"><ele>853.9</ele></trkpt>
<trkpt lat="47.589049" lon="10.563431"><ele>853.9</ele></trkpt>
<trkpt lat="47.589259" lon="10.563407"><ele>854.0</ele></trkpt>
<trkpt lat="47.589612" lon="10.563396"><ele>854.1</ele></trkpt>
<trkpt lat="47.590449" lon="10.56338"><ele>854.4</ele></trkpt>
<trkpt lat="47.592692" lon="10.564005"><ele>855.4</ele></trkpt>
<trkpt lat="47.592773" lon="10.563952"><ele>855.5</ele></trkpt>
<trkpt lat="47.593415" lon="10.563196"><ele>855.9</ele></trkpt>
<trkpt lat="47.593627" lon="10.563177"><ele>856.1</ele></trkpt>
<trkpt lat="47.594026" lon="10.563268"><ele>856.3</ele></trkpt>
<trkpt lat="47.595996" lon="10.563669"><ele>857.8</ele></trkpt>
<trkpt lat="47.596099" lon="10.563638"><ele>857.9</ele></trkpt>
<trkpt lat="47.596178" lon="10.563526"><ele>858.0</ele></trkpt>
<trkpt lat="47.596226" lon="10.563394"><ele>858.1</ele></trkpt>
<trkpt lat="47.596259" lon="10.563385"><ele>858.1</ele></trkpt>
<trkpt lat="47.596321" lon="10.563855"><ele>858.3</ele></trkpt>
<trkpt lat="47.596407" lon="10.563842"><ele>858.3</ele></trkpt>
<trkpt lat="47.596405" lon="10.564267"><ele>858.4</ele></trkpt>
<trkpt lat="47.596502" lon="10.56435"><ele>858.5</ele></trkpt>
<trkpt lat="47.596752" lon="10.564563"><ele>858.6</ele></trkpt>
<trkpt lat="47.597186" lon="10.564282"><ele>858.8</ele></trkpt>
<trkpt lat="47.597306" lon="10.564155"><ele>858.8</ele></trkpt>
<trkpt lat="47.597504" lon="10.563822"><ele>858.9</ele></trkpt>
<trkpt lat="47.597666" lon="10.563472"><ele>858.9</ele></trkpt>
<trkpt lat="47.597784" lon="10.563289"><ele>858.9</ele></trkpt>
<trkpt lat="47.597924" lon="10.563155"><ele>858.9</ele></trkpt>
<trkpt lat="47.598043" lon="10.5631"><ele>859.0</ele></trkpt>
<trkpt lat="47.598422" lon="10.563017"><ele>859.0</ele></trkpt>
<trkpt lat="47.598497" lon="10.563011"><ele>859.0</ele></trkpt>
<trkpt lat="47.598572" lon="10.563056"><ele>859.0</ele></trkpt>
<trkpt lat="47.598654" lon="10.563181"><ele>859.0</ele></trkpt>
<trkpt lat="47.598829" lon="10.563648"><ele>859.1</ele></trkpt>
<trkpt lat="47.598904" lon="10.563787"><ele>859.4</ele></trkpt>
<trkpt lat="47.598984" lon="10.563866"><ele>859.5</ele></trkpt>
<trkpt lat="47.5991" lon="10.56392"><ele>859.7</ele></trkpt>
<trkpt lat="47.59933" lon="10.563921"><ele>860.1</ele></trkpt>
<trkpt lat="47.599411" lon="10.563951"><ele>860.3</ele></trkpt>
<trkpt lat="47.599649" lon="10.564157"><ele>860.7</ele></trkpt>
<trkpt lat="47.59989" lon="10.564121"><ele>861.2</ele></trkpt>
<trkpt lat="47.600163" lon="10.564184"><ele>861.6</ele></trkpt>
<trkpt lat="47.600608" lon="10.564164"><ele>862.4</ele></trkpt>
<trkpt lat="47.600891" lon="10.564093"><ele>862.9</ele></trkpt>
<trkpt lat="47.600995" lon="10.564108"><ele>863.1</ele></trkpt>
<trkpt lat="47.60118" lon="10.564499"><ele>863.6</ele></trkpt>
<trkpt lat="47.601353" lon="10.564751"><ele>864.0</ele></trkpt>
<trkpt lat="47.601445" lon="10.564814"><ele>864.2</ele></trkpt>
<trkpt lat="47.601757" lon="10.564853"><ele>864.7</ele></trkpt>
<trkpt lat="47.601968" lon="10.56484"><ele>865.0</ele></trkpt>
<trkpt lat="47.602429" lon="10.564617"><ele>865.4</ele></trkpt>
<trkpt lat="47.602573" lon="10.564669"><ele>865.5</ele></trkpt>
<trkpt lat="47.602726" lon="10.564451"><ele>865.6</ele></trkpt>
<trkpt lat="47.60313" lon="10.563601"><ele>866.0</ele></trkpt>
<trkpt lat="47.603263" lon="10.563265"><ele>866.2</ele></trkpt>
<trkpt lat="47.603381" lon="10.563124"><ele>866.8</ele></trkpt>
<trkpt lat="47.603451" lon="10.563098"><ele>867.2</ele></trkpt>
<trkpt lat="47.603536" lon="10.563115"><ele>867.7</ele></trkpt>
<trkpt lat="47.603796" lon="10.563311"><ele>869.1</ele></trkpt>
<trkpt lat="47.603933" lon="10.563379"><ele>869.9</ele></trkpt>
<trkpt lat="47.604077" lon="10.563378"><ele>870.6</ele></trkpt>
<trkpt lat="47.604799" lon="10.563079"><ele>874.4</ele></trkpt>
<trkpt lat="47.604937" lon="10.56297"><ele>875.2</ele></trkpt>
<trkpt lat="47.605041" lon="10.562835"><ele>875.8</ele></trkpt>
<trkpt lat="47.605062" lon="10.562789"><ele>876.0</ele></trkpt>
<trkpt lat="47.605552" lon="10.561835"><ele>879.4</ele></trkpt>
<trkpt lat="47.605625" lon="10.561694"><ele>879.9</ele></trkpt>
<trkpt lat="47.605761" lon="10.561434"><ele>880.8</ele></trkpt>
<trkpt lat="47.605824" lon="10.560888"><ele>882.4</ele></trkpt>
<trkpt lat="47.605729" lon="10.560443"><ele>882.6</ele></trkpt>
<trkpt lat="47.605716" lon="10.560303"><ele>882.5</ele></trkpt>
<trkpt lat="47.605706" lon="10.5602"><ele>882.4</ele></trkpt>
<trkpt lat="47.60573" lon="10.559921"><ele>882.1</ele></trkpt>
<trkpt lat="47.60578" lon="10.559719"><ele>881.9</ele></trkpt>
<trkpt lat="47.60582" lon="10.559663"><ele>881.8</ele></trkpt>
<trkpt lat="47.60593" lon="10.55947"><ele>881.5</ele></trkpt>
<trkpt lat="47.605965" lon="10.559287"><ele>881.3</ele></trkpt>
<trkpt lat="47.605976" lon="10.558987"><ele>881.0</ele></trkpt>
<trkpt lat="47.606266" lon="10.558559"><ele>880.4</ele></trkpt>
<trkpt lat="47.606301" lon="10.558294"><ele>880.1</ele></trkpt>
<trkpt lat="47.606231" lon="10.55775"><ele>879.1</ele></trkpt>
<trkpt lat="47.606202" lon="10.557541"><ele>878.7</ele></trkpt>
<trkpt lat="47.606014" lon="10.556783"><ele>877.2</ele></trkpt>
<trkpt lat="47.606049" lon="10.556342"><ele>876.4</ele></trkpt>
<trkpt lat="47.606192" lon="10.555382"><ele>875.2</ele></trkpt>
<trkpt lat="47.60625" lon="10.555146"><ele>875.1</ele></trkpt>
<trkpt lat="47.606323" lon="10.554945"><ele>875.0</ele></trkpt>
<trkpt lat="47.606799" lon="10.554309"><ele>874.6</ele></trkpt>
<trkpt lat="47.606883" lon="10.553873"><ele>874.4</ele></trkpt>
<trkpt lat="47.606933" lon="10.55308"><ele>873.6</ele></trkpt>
<trkpt lat="47.60683" lon="10.552552"><ele>872.7</ele></trkpt>
<trkpt lat="47.606825" lon="10.552048"><ele>871.9</ele></trkpt>
<trkpt lat="47.607005" lon="10.550802"><ele>869.9</ele></trkpt>
<trkpt lat="47.607005" lon="10.550282"><ele>869.0</ele></trkpt>
<trkpt lat="47.606874" lon="10.549923"><ele>868.2</ele></trkpt>
<trkpt lat="47.606851" lon="10.549722"><ele>867.9</ele></trkpt>
<trkpt lat="47.60691" lon="10.549515"><ele>867.5</ele></trkpt>
<trkpt lat="47.60734" lon="10.549208"><ele>866.2</ele></trkpt>
<trkpt lat="47.607443" lon="10.549062"><ele>865.8</ele></trkpt>
<trkpt lat="47.607516" lon="10.548905"><ele>865.5</ele></trkpt>
<trkpt lat="47.607586" lon="10.548649"><ele>865.2</ele></trkpt>
<trkpt lat="47.607626" lon="10.5484"><ele>865.0</ele></trkpt>
<trkpt lat="47.607657" lon="10.547893"><ele>864.7</ele></trkpt>
<trkpt lat="47.607778" lon="10.547437"><ele>864.4</ele></trkpt>
<trkpt lat="47.607788" lon="10.54733"><ele>864.3</ele></trkpt>
<trkpt lat="47.607713" lon="10.547078"><ele>864.2</ele></trkpt>
<trkpt lat="47.607395" lon="10.546874"><ele>863.9</ele></trkpt>
<trkpt lat="47.607307" lon="10.546705"><ele>863.7</ele></trkpt>
<trkpt lat="47.60733" lon="10.544926"><ele>864.9</ele></trkpt>
<trkpt lat="47.6073" lon="10.54466"><ele>865.1</ele></trkpt>
<trkpt lat="47.607118" lon="10.54399"><ele>865.7</ele></trkpt>
<trkpt lat="47.607099" lon="10.543808"><ele>865.9</ele></trkpt>
<trkpt lat="47.607178" lon="10.543414"><ele>866.5</ele></trkpt>
<trkpt lat="47.607293" lon="10.543106"><ele>867.1</ele></trkpt>
<trkpt lat="47.607422" lon="10.542596"><ele>867.9</ele></trkpt>
<trkpt lat="47.607733" lon="10.541401"><ele>869.9</ele></trkpt>
<trkpt lat="47.607788" lon="10.5406"><ele>871.5</ele></trkpt>
<trkpt lat="47.60794" lon="10.539663"><ele>873.5</ele></trkpt>
<trkpt lat="47.607784" lon="10.537696"><ele>879.2</ele></trkpt>
<trkpt lat="47.607608" lon="10.536374"><ele>884.0</ele></trkpt>
<trkpt lat="47.607484" lon="10.535561"><ele>886.7</ele></trkpt>
<trkpt lat="47.607446" lon="10.535306"><ele>887.5</ele></trkpt>
<trkpt lat="47.607397" lon="10.535052"><ele>888.3</ele></trkpt>
<trkpt lat="47.60733" lon="10.534805"><ele>889.1</ele></trkpt>
<trkpt lat="47.60722" lon="10.534481"><ele>890.2</ele></trkpt>
<trkpt lat="47.607014" lon="10.534011"><ele>891.9</ele></trkpt>
<trkpt lat="47.607246" lon="10.533722"><ele>892.8</ele></trkpt>
<trkpt lat="47.607413" lon="10.533444"><ele>892.5</ele></trkpt>
<trkpt lat="47.607533" lon="10.533089"><ele>892.2</ele></trkpt>
<trkpt lat="47.6077" lon="10.532655"><ele>891.9</ele></trkpt>
<trkpt lat="47.607796" lon="10.532389"><ele>891.6</ele></trkpt>
<trkpt lat="47.607922" lon="10.532094"><ele>891.4</ele></trkpt>
<trkpt lat="47.608212" lon="10.531577"><ele>890.8</ele></trkpt>
<trkpt lat="47.608449" lon="10.531152"><ele>889.8</ele></trkpt>
<trkpt lat="47.60945" lon="10.529411"><ele>885.7</ele></trkpt>
<trkpt lat="47.609525" lon="10.529328"><ele>885.6</ele></trkpt>
<trkpt lat="47.60969" lon="10.528629"><ele>885.0</ele></trkpt>
<trkpt lat="47.609898" lon="10.527825"><ele>884.3</ele></trkpt>
<trkpt lat="47.610163" lon="10.527012"><ele>883.8</ele></trkpt>
<trkpt lat="47.610381" lon="10.526604"><ele>884.0</ele></trkpt>
<trkpt lat="47.610416" lon="10.526477"><ele>884.0</ele></trkpt>
<trkpt lat="47.611004" lon="10.525266"><ele>884.6</ele></trkpt>
<trkpt lat="47.613171" lon="10.521199"><ele>888.1</ele></trkpt>
<trkpt lat="47.613553" lon="10.520476"><ele>888.4</ele></trkpt>
<trkpt lat="47.614124" lon="10.519296"><ele>888.4</ele></trkpt>
<trkpt lat="47.614422" lon="10.518648"><ele>888.4</ele></trkpt>
<trkpt lat="47.614427" lon="10.518553"><ele>888.3</ele></trkpt>
<trkpt lat="47.614375" lon="10.51839"><ele>888.1</ele></trkpt>
<trkpt lat="47.614319" lon="10.518214"><ele>887.8</ele></trkpt>
<trkpt lat="47.614305" lon="10.517845"><ele>887.4</ele></trkpt>
<trkpt lat="47.614407" lon="10.517517"><ele>887.0</ele></trkpt>
<trkpt lat="47.614544" lon="10.517328"><ele>886.6</ele></trkpt>
<trkpt lat="47.614645" lon="10.51725"><ele>886.4</ele></trkpt>
<trkpt lat="47.614823" lon="10.5172"><ele>886.1</ele></trkpt>
<trkpt lat="47.615022" lon="10.517233"><ele>885.7</ele></trkpt>
<trkpt lat="47.615114" lon="10.517173"><ele>885.5</ele></trkpt>
<trkpt lat="47.615433" lon="10.516532"><ele>884.0</ele></trkpt>
<trkpt lat="47.615695" lon="10.516123"><ele>882.7</ele></trkpt>
<trkpt lat="47.616804" lon="10.514693"><ele>878.3</ele></trkpt>
<trkpt lat="47.616988" lon="10.514411"><ele>877.8</ele></trkpt>
<trkpt lat="47.617111" lon="10.514147"><ele>877.4</ele></trkpt>
<trkpt lat="47.617176" lon="10.513932"><ele>877.1</ele></trkpt>
<trkpt lat="47.61722" lon="10.513711"><ele>876.8</ele></trkpt>
<trkpt lat="47.617224" lon="10.513542"><ele>876.6</ele></trkpt>
<trkpt lat="47.61719" lon="10.513291"><ele>876.3</ele></trkpt>
<trkpt lat="47.61741" lon="10.513354"><ele>875.8</ele></trkpt>
<trkpt lat="47.617475" lon="10.513299"><ele>875.7</ele></trkpt>
<trkpt lat="47.617806" lon="10.513213"><ele>875.8</ele></trkpt>
<trkpt lat="47.61802" lon="10.513082"><ele>876.0</ele></trkpt>
<trkpt lat="47.618157" lon="10.512922"><ele>876.1</ele></trkpt>
<trkpt lat="47.618281" lon="10.51269"><ele>876.2</ele></trkpt>
<trkpt lat="47.618418" lon="10.512296"><ele>876.4</ele></trkpt>
<trkpt lat="47.618501" lon="10.511879"><ele>876.5</ele></trkpt>
<trkpt lat="47.61859" lon="10.510972"><ele>877.1</ele></trkpt>
<trkpt lat="47.61868" lon="10.510306"><ele>877.7</ele></trkpt>
<trkpt lat="47.618765" lon="10.509786"><ele>878.1</ele></trkpt>
<trkpt lat="47.618873" lon="10.50936"><ele>878.5</ele></trkpt>
<trkpt lat="47.618941" lon="10.509171"><ele>878.7</ele></trkpt>
<trkpt lat="47.619274" lon="10.508388"><ele>878.1</ele></trkpt>
<trkpt lat="47.619535" lon="10.507799"><ele>877.3</ele></trkpt>
<trkpt lat="47.619646" lon="10.507759"><ele>877.0</ele></trkpt>
<trkpt lat="47.619668" lon="10.507711"><ele>877.0</ele></trkpt>
<trkpt lat="47.619711" lon="10.507617"><ele>876.8</ele></trkpt>
<trkpt lat="47.619771" lon="10.507633"><ele>876.7</ele></trkpt>
<trkpt lat="47.619916" lon="10.507673"><ele>876.4</ele></trkpt>
<trkpt lat="47.62059" lon="10.507743"><ele>874.7</ele></trkpt>
<trkpt lat="47.621225" lon="10.507632"><ele>872.2</ele></trkpt>
<trkpt lat="47.62169" lon="10.507447"><ele>870.3</ele></trkpt>
<trkpt lat="47.622417" lon="10.507362"><ele>867.8</ele></trkpt>
<trkpt lat="47.622852" lon="10.507168"><ele>866.5</ele></trkpt>
<trkpt lat="47.623054" lon="10.506772"><ele>865.5</ele></trkpt>
<trkpt lat="47.623238" lon="10.506235"><ele>864.4</ele></trkpt>
<trkpt lat="47.623221" lon="10.506141"><ele>864.2</ele></trkpt>
<trkpt lat="47.623168" lon="10.505588"><ele>863.3</ele></trkpt>
<trkpt lat="47.623164" lon="10.50512"><ele>862.8</ele></trkpt>
<trkpt lat="47.623143" lon="10.505082"><ele>862.8</ele></trkpt>
<trkpt lat="47.623107" lon="10.505054"><ele>862.7</ele></trkpt>
<trkpt lat="47.623081" lon="10.505037"><ele>862.7</ele></trkpt>
<trkpt lat="47.623042" lon="10.505008"><ele>862.6</ele></trkpt>
<trkpt lat="47.623131" lon="10.504498"><ele>862.1</ele></trkpt>
<trkpt lat="47.623209" lon="10.504078"><ele>861.6</ele></trkpt>
<trkpt lat="47.623315" lon="10.503165"><ele>860.8</ele></trkpt>
<trkpt lat="47.623341" lon="10.502938"><ele>860.9</ele></trkpt>
<trkpt lat="47.623358" lon="10.502788"><ele>860.9</ele></trkpt>
<trkpt lat="47.623368" lon="10.502581"><ele>861.0</ele></trkpt>
<trkpt lat="47.623445" lon="10.501631"><ele>861.5</ele></trkpt>
<trkpt lat="47.623462" lon="10.501321"><ele>861.6</ele></trkpt>
<trkpt lat="47.623661" lon="10.501196"><ele>861.8</ele></trkpt>
<trkpt lat="47.623853" lon="10.501011"><ele>861.9</ele></trkpt>
<trkpt lat="47.623527" lon="10.500482"><ele>863.5</ele></trkpt>
<trkpt lat="47.623671" lon="10.500238"><ele>864.4</ele></trkpt>
<trkpt lat="47.623502" lon="10.499917"><ele>865.4</ele></trkpt>
<trkpt lat="47.623282" lon="10.499694"><ele>866.4</ele></trkpt>
<trkpt lat="47.623217" lon="10.499635"><ele>866.7</ele></trkpt>
<trkpt lat="47.622859" lon="10.499296"><ele>868.3</ele></trkpt>
<trkpt lat="47.622793" lon="10.499234"><ele>868.6</ele></trkpt>
<trkpt lat="47.622757" lon="10.4992"><ele>868.7</ele></trkpt>
<trkpt lat="47.622458" lon="10.498926"><ele>870.1</ele></trkpt>
<trkpt lat="47.622247" lon="10.498812"><ele>871.0</ele></trkpt>
<trkpt lat="47.622292" lon="10.498669"><ele>871.4</ele></trkpt>
<trkpt lat="47.622309" lon="10.498611"><ele>871.5</ele></trkpt>
<trkpt lat="47.622361" lon="10.498444"><ele>872.0</ele></trkpt>
<trkpt lat="47.622395" lon="10.498343"><ele>872.3</ele></trkpt>
<trkpt lat="47.622563" lon="10.498088"><ele>873.2</ele></trkpt>
<trkpt lat="47.622827" lon="10.497799"><ele>874.5</ele></trkpt>
<trkpt lat="47.622879" lon="10.497737"><ele>874.8</ele></trkpt>
<trkpt lat="47.623032" lon="10.497586"><ele>875.5</ele></trkpt>
<trkpt lat="47.623141" lon="10.497477"><ele>876.3</ele></trkpt>
<trkpt lat="47.623117" lon="10.497087"><ele>878.5</ele></trkpt>
<trkpt lat="47.623032" lon="10.496669"><ele>880.9</ele></trkpt>
<trkpt lat="47.622911" lon="10.496242"><ele>883.5</ele></trkpt>
<trkpt lat="47.622735" lon="10.49578"><ele>886.5</ele></trkpt>
<trkpt lat="47.622665" lon="10.495423"><ele>888.5</ele></trkpt>
<trkpt lat="47.622658" lon="10.495252"><ele>889.5</ele></trkpt>
<trkpt lat="47.622673" lon="10.495079"><ele>890.5</ele></trkpt>
<trkpt lat="47.622778" lon="10.494641"><ele>892.2</ele></trkpt>
<trkpt lat="47.622887" lon="10.494177"><ele>894.1</ele></trkpt>
<trkpt lat="47.622856" lon="10.493883"><ele>895.2</ele></trkpt>
<trkpt lat="47.622764" lon="10.49351"><ele>896.7</ele></trkpt>
<trkpt lat="47.622638" lon="10.493505"><ele>897.4</ele></trkpt>
<trkpt lat="47.622639" lon="10.493442"><ele>897.6</ele></trkpt>
<trkpt lat="47.622639" lon="10.493341"><ele>898.0</ele></trkpt>
<trkpt lat="47.622891" lon="10.493331"><ele>899.4</ele></trkpt>
<trkpt lat="47.622975" lon="10.49328"><ele>899.9</ele></trkpt>
<trkpt lat="47.623013" lon="10.493211"><ele>900.2</ele></trkpt>
<trkpt lat="47.623142" lon="10.49245"><ele>900.4</ele></trkpt>
<trkpt lat="47.623306" lon="10.491929"><ele>900.3</ele></trkpt>
<trkpt lat="47.623399" lon="10.491707"><ele>900.3</ele></trkpt>
<trkpt lat="47.623986" lon="10.490734"><ele>900.0</ele></trkpt>
<trkpt lat="47.624187" lon="10.490286"><ele>899.6</ele></trkpt>
<trkpt lat="47.624394" lon="10.489819"><ele>899.2</ele></trkpt>
<trkpt lat="47.624684" lon="10.489272"><ele>898.8</ele></trkpt>
<trkpt lat="47.624998" lon="10.488832"><ele>898.3</ele></trkpt>
<trkpt lat="47.625789" lon="10.487919"><ele>897.1</ele></trkpt>
<trkpt lat="47.626833" lon="10.486534"><ele>896.3</ele></trkpt>
<trkpt lat="47.627228" lon="10.485777"><ele>896.5</ele></trkpt>
<trkpt lat="47.627297" lon="10.485718"><ele>896.5</ele></trkpt>
<trkpt lat="47.627635" lon="10.485056"><ele>896.6</ele></trkpt>
<trkpt lat="47.627846" lon="10.48452"><ele>896.6</ele></trkpt>
<trkpt lat="47.627983" lon="10.483955"><ele>896.7</ele></trkpt>
<trkpt lat="47.628027" lon="10.483718"><ele>896.7</ele></trkpt>
<trkpt lat="47.628111" lon="10.483287"><ele>896.7</ele></trkpt>
<trkpt lat="47.628198" lon="10.482726"><ele>896.8</ele></trkpt>
<trkpt lat="47.628325" lon="10.482022"><ele>896.1</ele></trkpt>
<trkpt lat="47.628378" lon="10.481694"><ele>895.8</ele></trkpt>
<trkpt lat="47.628388" lon="10.481557"><ele>895.6</ele></trkpt>
<trkpt lat="47.628394" lon="10.481468"><ele>895.6</ele></trkpt>
<trkpt lat="47.62834" lon="10.481208"><ele>895.3</ele></trkpt>
<trkpt lat="47.628195" lon="10.480835"><ele>894.8</ele></trkpt>
<trkpt lat="47.628166" lon="10.480613"><ele>894.6</ele></trkpt>
<trkpt lat="47.628173" lon="10.48041"><ele>894.4</ele></trkpt>
<trkpt lat="47.62826" lon="10.479847"><ele>893.0</ele></trkpt>
<trkpt lat="47.628593" lon="10.478238"><ele>885.8</ele></trkpt>
<trkpt lat="47.628628" lon="10.477709"><ele>883.6</ele></trkpt>
<trkpt lat="47.62849" lon="10.477127"><ele>880.3</ele></trkpt>
<trkpt lat="47.628443" lon="10.476995"><ele>879.4</ele></trkpt>
<trkpt lat="47.628422" lon="10.476846"><ele>878.4</ele></trkpt>
<trkpt lat="47.628434" lon="10.476606"><ele>877.0</ele></trkpt>
<trkpt lat="47.628502" lon="10.476372"><ele>875.5</ele></trkpt>
<trkpt lat="47.628556" lon="10.476053"><ele>873.5</ele></trkpt>
<trkpt lat="47.628494" lon="10.475838"><ele>872.1</ele></trkpt>
<trkpt lat="47.628318" lon="10.475571"><ele>869.9</ele></trkpt>
<trkpt lat="47.628086" lon="10.475338"><ele>867.4</ele></trkpt>
<trkpt lat="47.627984" lon="10.475189"><ele>866.4</ele></trkpt>
<trkpt lat="47.627889" lon="10.474963"><ele>865.9</ele></trkpt>
<trkpt lat="47.627872" lon="10.474809"><ele>865.6</ele></trkpt>
<trkpt lat="47.627887" lon="10.474364"><ele>864.7</ele></trkpt>
<trkpt lat="47.627869" lon="10.474115"><ele>864.1</ele></trkpt>
<trkpt lat="47.627664" lon="10.47334"><ele>862.4</ele></trkpt>
<trkpt lat="47.627641" lon="10.473283"><ele>862.3</ele></trkpt>
<trkpt lat="47.627445" lon="10.473037"><ele>861.5</ele></trkpt>
<trkpt lat="47.627337" lon="10.472829"><ele>861.3</ele></trkpt>
<trkpt lat="47.627331" lon="10.472742"><ele>861.5</ele></trkpt>
<trkpt lat="47.627363" lon="10.472553"><ele>861.9</ele></trkpt>
<trkpt lat="47.627421" lon="10.472466"><ele>862.1</ele></trkpt>
<trkpt lat="47.627529" lon="10.472407"><ele>862.4</ele></trkpt>
<trkpt lat="47.627668" lon="10.472421"><ele>862.9</ele></trkpt>
<trkpt lat="47.627767" lon="10.472488"><ele>863.2</ele></trkpt>
<trkpt lat="47.627789" lon="10.472517"><ele>863.3</ele></trkpt>
<trkpt lat="47.627931" lon="10.472698"><ele>863.8</ele></trkpt>
<trkpt lat="47.628081" lon="10.472808"><ele>864.3</ele></trkpt>
<trkpt lat="47.628684" lon="10.472848"><ele>866.2</ele></trkpt>
<trkpt lat="47.628948" lon="10.472996"><ele>867.4</ele></trkpt>
<trkpt lat="47.629125" lon="10.473002"><ele>868.3</ele></trkpt>
<trkpt lat="47.629251" lon="10.472922"><ele>869.0</ele></trkpt>
<trkpt lat="47.629549" lon="10.47253"><ele>871.1</ele></trkpt>
<trkpt lat="47.629603" lon="10.472338"><ele>871.9</ele></trkpt>
<trkpt lat="47.629172" lon="10.472252"><ele>874.2</ele></trkpt>
<trkpt lat="47.629032" lon="10.472162"><ele>875.0</ele></trkpt>
<trkpt lat="47.628325" lon="10.470488"><ele>879.1</ele></trkpt>
<trkpt lat="47.628092" lon="10.469982"><ele>880.2</ele></trkpt>
<trkpt lat="47.628014" lon="10.469754"><ele>880.6</ele></trkpt>
<trkpt lat="47.627977" lon="10.469519"><ele>880.9</ele></trkpt>
<trkpt lat="47.627982" lon="10.469249"><ele>881.1</ele></trkpt>
<trkpt lat="47.628204" lon="10.467811"><ele>881.9</ele></trkpt>
<trkpt lat="47.628376" lon="10.466987"><ele>882.5</ele></trkpt>
<trkpt lat="47.628404" lon="10.466669"><ele>883.2</ele></trkpt>
<trkpt lat="47.628414" lon="10.465879"><ele>884.8</ele></trkpt>
<trkpt lat="47.627917" lon="10.465423"><ele>886.6</ele></trkpt>
<trkpt lat="47.627642" lon="10.465023"><ele>887.8</ele></trkpt>
<trkpt lat="47.627506" lon="10.464695"><ele>888.4</ele></trkpt>
<trkpt lat="47.627379" lon="10.46432"><ele>888.9</ele></trkpt>
<trkpt lat="47.627259" lon="10.463698"><ele>889.8</ele></trkpt>
<trkpt lat="47.627246" lon="10.46326"><ele>890.3</ele></trkpt>
<trkpt lat="47.627287" lon="10.462666"><ele>891.1</ele></trkpt>
<trkpt lat="47.627378" lon="10.462094"><ele>891.3</ele></trkpt>
<trkpt lat="47.627421" lon="10.461953"><ele>891.3</ele></trkpt>
<trkpt lat="47.627705" lon="10.461399"><ele>891.1</ele></trkpt>
<trkpt lat="47.627832" lon="10.461207"><ele>891.0</ele></trkpt>
<trkpt lat="47.628127" lon="10.460865"><ele>890.8</ele></trkpt>
<trkpt lat="47.628474" lon="10.460302"><ele>890.6</ele></trkpt>
<trkpt lat="47.628579" lon="10.460161"><ele>890.6</ele></trkpt>
<trkpt lat="47.62869" lon="10.460069"><ele>890.6</ele></trkpt>
<trkpt lat="47.628873" lon="10.459979"><ele>890.6</ele></trkpt>
<trkpt lat="47.62919" lon="10.459718"><ele>890.5</ele></trkpt>
<trkpt lat="47.629258" lon="10.459661"><ele>890.5</ele></trkpt>
<trkpt lat="47.629855" lon="10.459124"><ele>890.5</ele></trkpt>
<trkpt lat="47.630432" lon="10.458668"><ele>889.9</ele></trkpt>
<trkpt lat="47.630659" lon="10.458538"><ele>889.6</ele></trkpt>
<trkpt lat="47.630748" lon="10.458513"><ele>889.5</ele></trkpt>
<trkpt lat="47.630985" lon="10.45844"><ele>889.3</ele></trkpt>
<trkpt lat="47.631178" lon="10.458446"><ele>889.0</ele></trkpt>
<trkpt lat="47.631339" lon="10.458486"><ele>888.9</ele></trkpt>
<trkpt lat="47.631673" lon="10.458654"><ele>888.5</ele></trkpt>
<trkpt lat="47.631681" lon="10.458798"><ele>888.6</ele></trkpt>
<trkpt lat="47.631753" lon="10.458916"><ele>888.7</ele></trkpt>
<trkpt lat="47.631843" lon="10.458961"><ele>888.8</ele></trkpt>
<trkpt lat="47.632264" lon="10.459041"><ele>889.3</ele></trkpt>
<trkpt lat="47.632413" lon="10.459003"><ele>889.4</ele></trkpt>
<trkpt lat="47.632696" lon="10.458836"><ele>889.7</ele></trkpt>
<trkpt lat="47.632802" lon="10.458805"><ele>889.9</ele></trkpt>
<trkpt lat="47.632991" lon="10.458823"><ele>890.1</ele></trkpt>
<trkpt lat="47.633051" lon="10.458707"><ele>890.2</ele></trkpt>
<trkpt lat="47.633121" lon="10.458577"><ele>890.3</ele></trkpt>
<trkpt lat="47.63316" lon="10.458504"><ele>890.3</ele></trkpt>
<trkpt lat="47.63324" lon="10.458444"><ele>890.5</ele></trkpt>
<trkpt lat="47.633332" lon="10.458522"><ele>890.7</ele></trkpt>
<trkpt lat="47.633448" lon="10.458534"><ele>890.9</ele></trkpt>
<trkpt lat="47.633619" lon="10.458605"><ele>891.2</ele></trkpt>
<trkpt lat="47.633889" lon="10.458736"><ele>891.7</ele></trkpt>
<trkpt lat="47.634507" lon="10.458872"><ele>892.9</ele></trkpt>
<trkpt lat="47.634906" lon="10.458787"><ele>893.6</ele></trkpt>
<trkpt lat="47.635024" lon="10.458762"><ele>894.1</ele></trkpt>
<trkpt lat="47.635432" lon="10.458588"><ele>896.1</ele></trkpt>
<trkpt lat="47.635832" lon="10.458471"><ele>897.9</ele></trkpt>
<trkpt lat="47.636083" lon="10.458375"><ele>899.1</ele></trkpt>
<trkpt lat="47.636542" lon="10.458258"><ele>901.3</ele></trkpt>
<trkpt lat="47.636777" lon="10.45815"><ele>902.5</ele></trkpt>
<trkpt lat="47.637397" lon="10.457885"><ele>906.3</ele></trkpt>
<trkpt lat="47.637822" lon="10.457698"><ele>908.9</ele></trkpt>
<trkpt lat="47.638431" lon="10.457601"><ele>912.4</ele></trkpt>
<trkpt lat="47.638781" lon="10.45732"><ele>914.8</ele></trkpt>
<trkpt lat="47.639131" lon="10.456587"><ele>918.4</ele></trkpt>
<trkpt lat="47.639264" lon="10.456373"><ele>919.6</ele></trkpt>
<trkpt lat="47.639466" lon="10.456199"><ele>921.0</ele></trkpt>
<trkpt lat="47.639919" lon="10.455568"><ele>924.8</ele></trkpt>
<trkpt lat="47.640058" lon="10.455447"><ele>925.8</ele></trkpt>
<trkpt lat="47.64023" lon="10.455304"><ele>927.0</ele></trkpt>
<trkpt lat="47.640471" lon="10.454885"><ele>929.3</ele></trkpt>
<trkpt lat="47.640702" lon="10.454576"><ele>931.2</ele></trkpt>
<trkpt lat="47.640903" lon="10.454319"><ele>932.9</ele></trkpt>
<trkpt lat="47.640983" lon="10.454328"><ele>933.4</ele></trkpt>
<trkpt lat="47.641139" lon="10.454531"><ele>934.5</ele></trkpt>
<trkpt lat="47.64124" lon="10.454581"><ele>934.7</ele></trkpt>
<trkpt lat="47.641313" lon="10.454497"><ele>935.0</ele></trkpt>
<trkpt lat="47.641986" lon="10.454507"><ele>936.7</ele></trkpt>
<trkpt lat="47.642469" lon="10.454522"><ele>938.0</ele></trkpt>
<trkpt lat="47.642688" lon="10.454557"><ele>938.6</ele></trkpt>
<trkpt lat="47.643021" lon="10.454611"><ele>938.9</ele></trkpt>
<trkpt lat="47.643315" lon="10.454664"><ele>938.8</ele></trkpt>
<trkpt lat="47.64348" lon="10.454688"><ele>938.8</ele></trkpt>
<trkpt lat="47.644314" lon="10.454301"><ele>938.4</ele></trkpt>
<trkpt lat="47.644469" lon="10.4542"><ele>938.4</ele></trkpt>
<trkpt lat="47.644846" lon="10.453959"><ele>938.0</ele></trkpt>
<trkpt lat="47.644925" lon="10.4539"><ele>937.9</ele></trkpt>
<trkpt lat="47.645397" lon="10.453498"><ele>937.4</ele></trkpt>
<trkpt lat="47.645437" lon="10.453468"><ele>937.3</ele></trkpt>
<trkpt lat="47.645483" lon="10.453434"><ele>937.3</ele></trkpt>
<trkpt lat="47.645715" lon="10.453272"><ele>937.0</ele></trkpt>
<trkpt lat="47.645846" lon="10.453136"><ele>936.9</ele></trkpt>
<trkpt lat="47.645934" lon="10.4528"><ele>936.6</ele></trkpt>
<trkpt lat="47.646004" lon="10.452592"><ele>936.5</ele></trkpt>
<trkpt lat="47.646139" lon="10.452534"><ele>936.4</ele></trkpt>
<trkpt lat="47.646284" lon="10.452425"><ele>936.3</ele></trkpt>
<trkpt lat="47.646597" lon="10.452136"><ele>936.1</ele></trkpt>
<trkpt lat="47.646732" lon="10.451817"><ele>936.0</ele></trkpt>
<trkpt lat="47.646896" lon="10.45154"><ele>935.8</ele></trkpt>
<trkpt lat="47.647144" lon="10.45127"><ele>935.7</ele></trkpt>
<trkpt lat="47.647411" lon="10.450886"><ele>935.7</ele></trkpt>
<trkpt lat="47.647972" lon="10.450383"><ele>936.7</ele></trkpt>
<trkpt lat="47.648178" lon="10.450137"><ele>937.1</ele></trkpt>
<trkpt lat="47.648342" lon="10.449838"><ele>937.5</ele></trkpt>
<trkpt lat="47.648588" lon="10.449176"><ele>938.3</ele></trkpt>
<trkpt lat="47.648835" lon="10.448725"><ele>936.6</ele></trkpt>
<trkpt lat="47.648955" lon="10.448524"><ele>935.7</ele></trkpt>
<trkpt lat="47.649046" lon="10.4483"><ele>934.9</ele></trkpt>
<trkpt lat="47.649086" lon="10.44814"><ele>934.3</ele></trkpt>
<trkpt lat="47.649096" lon="10.447892"><ele>933.5</ele></trkpt>
<trkpt lat="47.649406" lon="10.447978"><ele>932.0</ele></trkpt>
<trkpt lat="47.650195" lon="10.448053"><ele>929.7</ele></trkpt>
<trkpt lat="47.650551" lon="10.448175"><ele>929.7</ele></trkpt>
<trkpt lat="47.651142" lon="10.448476"><ele>929.7</ele></trkpt>
<trkpt lat="47.65128" lon="10.44846"><ele>929.7</ele></trkpt>
</trkseg></trk>
</gpx>
