<?xml version="1.0" encoding="UTF-8"?>
<gpx version="1.1" creator="radtour" xmlns="http://www.topografix.com/GPX/1/1">
<trk><name>Umfahrung Finstermuenz ueber die Norbertshoehe</name><trkseg>
<trkpt lat="46.89176" lon="10.50257"><ele>1367</ele></trkpt>
<trkpt lat="46.89173" lon="10.50256"><ele>1366</ele></trkpt>
<trkpt lat="46.89167" lon="10.50258"><ele>1366</ele></trkpt>
<trkpt lat="46.89157" lon="10.50265"><ele>1366</ele></trkpt>
<trkpt lat="46.89154" lon="10.50267"><ele>1366</ele></trkpt>
<trkpt lat="46.89149" lon="10.50262"><ele>1365</ele></trkpt>
<trkpt lat="46.89145" lon="10.50263"><ele>1365</ele></trkpt>
<trkpt lat="46.89139" lon="10.50244"><ele>1364</ele></trkpt>
<trkpt lat="46.89128" lon="10.50245"><ele>1363</ele></trkpt>
<trkpt lat="46.89117" lon="10.50242"><ele>1363</ele></trkpt>
<trkpt lat="46.89129" lon="10.50208"><ele>1361</ele></trkpt>
<trkpt lat="46.89141" lon="10.50186"><ele>1360</ele></trkpt>
<trkpt lat="46.89153" lon="10.50173"><ele>1359</ele></trkpt>
<trkpt lat="46.89164" lon="10.5016"><ele>1359</ele></trkpt>
<trkpt lat="46.89165" lon="10.50148"><ele>1359</ele></trkpt>
<trkpt lat="46.89156" lon="10.50141"><ele>1358</ele></trkpt>
<trkpt lat="46.89138" lon="10.50137"><ele>1356</ele></trkpt>
<trkpt lat="46.89106" lon="10.50129"><ele>1354</ele></trkpt>
<trkpt lat="46.89085" lon="10.50125"><ele>1353</ele></trkpt>
<trkpt lat="46.89069" lon="10.50135"><ele>1353</ele></trkpt>
<trkpt lat="46.89054" lon="10.50144"><ele>1353</ele></trkpt>
<trkpt lat="46.89024" lon="10.5016"><ele>1353</ele></trkpt>
<trkpt lat="46.88988" lon="10.50175"><ele>1352</ele></trkpt>
<trkpt lat="46.88966" lon="10.50187"><ele>1351</ele></trkpt>
<trkpt lat="46.88913" lon="10.50214"><ele>1347</ele></trkpt>
<trkpt lat="46.88892" lon="10.50222"><ele>1345</ele></trkpt>
<trkpt lat="46.88892" lon="10.50224"><ele>1345</ele></trkpt>
<trkpt lat="46.88885" lon="10.50223"><ele>1345</ele></trkpt>
<trkpt lat="46.88871" lon="10.50219"><ele>1344</ele></trkpt>
<trkpt lat="46.88864" lon="10.50212"><ele>1344</ele></trkpt>
<trkpt lat="46.88836" lon="10.50169"><ele>1341</ele></trkpt>
<trkpt lat="46.8882" lon="10.50144"><ele>1340</ele></trkpt>
<trkpt lat="46.88821" lon="10.5014"><ele>1340</ele></trkpt>
<trkpt lat="46.88821" lon="10.50133"><ele>1340</ele></trkpt>
<trkpt lat="46.88812" lon="10.5009"><ele>1338</ele></trkpt>
<trkpt lat="46.88808" lon="10.50063"><ele>1337</ele></trkpt>
<trkpt lat="46.88805" lon="10.50044"><ele>1336</ele></trkpt>
<trkpt lat="46.88793" lon="10.50011"><ele>1334</ele></trkpt>
<trkpt lat="46.88791" lon="10.50006"><ele>1334</ele></trkpt>
<trkpt lat="46.88787" lon="10.49998"><ele>1333</ele></trkpt>
<trkpt lat="46.88777" lon="10.49979"><ele>1334</ele></trkpt>
<trkpt lat="46.88757" lon="10.49943"><ele>1338</ele></trkpt>
<trkpt lat="46.88767" lon="10.4991"><ele>1339</ele></trkpt>
<trkpt lat="46.88784" lon="10.49855"><ele>1339</ele></trkpt>
<trkpt lat="46.88799" lon="10.49816"><ele>1342</ele></trkpt>
<trkpt lat="46.88817" lon="10.49776"><ele>1342</ele></trkpt>
<trkpt lat="46.8884" lon="10.49728"><ele>1343</ele></trkpt>
<trkpt lat="46.88867" lon="10.49689"><ele>1345</ele></trkpt>
<trkpt lat="46.88897" lon="10.49653"><ele>1346</ele></trkpt>
<trkpt lat="46.88955" lon="10.49597"><ele>1347</ele></trkpt>
<trkpt lat="46.88992" lon="10.49559"><ele>1347</ele></trkpt>
<trkpt lat="46.8903" lon="10.49515"><ele>1348</ele></trkpt>
<trkpt lat="46.89072" lon="10.49458"><ele>1349</ele></trkpt>
<trkpt lat="46.89144" lon="10.49365"><ele>1355</ele></trkpt>
<trkpt lat="46.89181" lon="10.49324"><ele>1359</ele></trkpt>
<trkpt lat="46.89207" lon="10.493"><ele>1361</ele></trkpt>
<trkpt lat="46.89233" lon="10.49277"><ele>1363</ele></trkpt>
<trkpt lat="46.8926" lon="10.49255"><ele>1365</ele></trkpt>
<trkpt lat="46.89359" lon="10.49187"><ele>1369</ele></trkpt>
<trkpt lat="46.89376" lon="10.49173"><ele>1370</ele></trkpt>
<trkpt lat="46.89386" lon="10.49162"><ele>1371</ele></trkpt>
<trkpt lat="46.89393" lon="10.49153"><ele>1372</ele></trkpt>
<trkpt lat="46.89408" lon="10.49129"><ele>1374</ele></trkpt>
<trkpt lat="46.89449" lon="10.49048"><ele>1379</ele></trkpt>
<trkpt lat="46.89484" lon="10.48993"><ele>1384</ele></trkpt>
<trkpt lat="46.89492" lon="10.48979"><ele>1385</ele></trkpt>
<trkpt lat="46.89499" lon="10.48966"><ele>1386</ele></trkpt>
<trkpt lat="46.89505" lon="10.48947"><ele>1386</ele></trkpt>
<trkpt lat="46.89509" lon="10.48929"><ele>1387</ele></trkpt>
<trkpt lat="46.89511" lon="10.4891"><ele>1388</ele></trkpt>
<trkpt lat="46.89513" lon="10.48843"><ele>1391</ele></trkpt>
<trkpt lat="46.89515" lon="10.48823"><ele>1392</ele></trkpt>
<trkpt lat="46.89522" lon="10.48786"><ele>1395</ele></trkpt>
<trkpt lat="46.89527" lon="10.48766"><ele>1395</ele></trkpt>
<trkpt lat="46.8953" lon="10.48748"><ele>1396</ele></trkpt>
<trkpt lat="46.89531" lon="10.4873"><ele>1397</ele></trkpt>
<trkpt lat="46.89531" lon="10.4871"><ele>1397</ele></trkpt>
<trkpt lat="46.89528" lon="10.48687"><ele>1399</ele></trkpt>
<trkpt lat="46.89519" lon="10.48635"><ele>1401</ele></trkpt>
<trkpt lat="46.89517" lon="10.48614"><ele>1403</ele></trkpt>
<trkpt lat="46.89519" lon="10.48565"><ele>1407</ele></trkpt>
<trkpt lat="46.89519" lon="10.48553"><ele>1408</ele></trkpt>
<trkpt lat="46.89518" lon="10.4854"><ele>1409</ele></trkpt>
<trkpt lat="46.89516" lon="10.48522"><ele>1410</ele></trkpt>
<trkpt lat="46.8951" lon="10.48499"><ele>1409</ele></trkpt>
<trkpt lat="46.89507" lon="10.48487"><ele>1408</ele></trkpt>
<trkpt lat="46.89498" lon="10.48457"><ele>1407</ele></trkpt>
<trkpt lat="46.89489" lon="10.48424"><ele>1405</ele></trkpt>
<trkpt lat="46.89484" lon="10.48395"><ele>1402</ele></trkpt>
<trkpt lat="46.89482" lon="10.48372"><ele>1401</ele></trkpt>
<trkpt lat="46.89482" lon="10.48354"><ele>1401</ele></trkpt>
<trkpt lat="46.89482" lon="10.48339"><ele>1401</ele></trkpt>
<trkpt lat="46.89487" lon="10.48312"><ele>1400</ele></trkpt>
<trkpt lat="46.89494" lon="10.48287"><ele>1398</ele></trkpt>
<trkpt lat="46.89501" lon="10.48269"><ele>1396</ele></trkpt>
<trkpt lat="46.8951" lon="10.48252"><ele>1395</ele></trkpt>
<trkpt lat="46.89543" lon="10.48203"><ele>1391</ele></trkpt>
<trkpt lat="46.89549" lon="10.48189"><ele>1390</ele></trkpt>
<trkpt lat="46.89552" lon="10.48177"><ele>1389</ele></trkpt>
<trkpt lat="46.89553" lon="10.48164"><ele>1388</ele></trkpt>
<trkpt lat="46.8955" lon="10.48151"><ele>1388</ele></trkpt>
<trkpt lat="46.89545" lon="10.48137"><ele>1386</ele></trkpt>
<trkpt lat="46.89536" lon="10.48128"><ele>1385</ele></trkpt>
<trkpt lat="46.8953" lon="10.48124"><ele>1384</ele></trkpt>
<trkpt lat="46.89521" lon="10.48123"><ele>1384</ele></trkpt>
<trkpt lat="46.89511" lon="10.48126"><ele>1384</ele></trkpt>
<trkpt lat="46.89501" lon="10.48132"><ele>1384</ele></trkpt>
<trkpt lat="46.89483" lon="10.48152"><ele>1382</ele></trkpt>
<trkpt lat="46.89463" lon="10.4817"><ele>1378</ele></trkpt>
<trkpt lat="46.89453" lon="10.48176"><ele>1378</ele></trkpt>
<trkpt lat="46.89441" lon="10.48181"><ele>1377</ele></trkpt>
<trkpt lat="46.89435" lon="10.48182"><ele>1376</ele></trkpt>
<trkpt lat="46.89424" lon="10.48183"><ele>1375</ele></trkpt>
<trkpt lat="46.89408" lon="10.48179"><ele>1373</ele></trkpt>
<trkpt lat="46.8939" lon="10.48171"><ele>1371</ele></trkpt>
<trkpt lat="46.89361" lon="10.48154"><ele>1371</ele></trkpt>
<trkpt lat="46.89337" lon="10.48142"><ele>1367</ele></trkpt>
<trkpt lat="46.89322" lon="10.48136"><ele>1366</ele></trkpt>
<trkpt lat="46.89304" lon="10.48131"><ele>1365</ele></trkpt>
<trkpt lat="46.89285" lon="10.48128"><ele>1362</ele></trkpt>
<trkpt lat="46.89265" lon="10.48126"><ele>1361</ele></trkpt>
<trkpt lat="46.89242" lon="10.48128"><ele>1360</ele></trkpt>
<trkpt lat="46.89228" lon="10.4813"><ele>1359</ele></trkpt>
<trkpt lat="46.89204" lon="10.48135"><ele>1356</ele></trkpt>
<trkpt lat="46.8918" lon="10.48143"><ele>1353</ele></trkpt>
<trkpt lat="46.8916" lon="10.48147"><ele>1351</ele></trkpt>
<trkpt lat="46.89154" lon="10.48148"><ele>1350</ele></trkpt>
<trkpt lat="46.8914" lon="10.48147"><ele>1348</ele></trkpt>
<trkpt lat="46.8913" lon="10.48143"><ele>1348</ele></trkpt>
<trkpt lat="46.89116" lon="10.48137"><ele>1348</ele></trkpt>
<trkpt lat="46.89103" lon="10.48129"><ele>1347</ele></trkpt>
<trkpt lat="46.89059" lon="10.48091"><ele>1342</ele></trkpt>
<trkpt lat="46.89036" lon="10.48076"><ele>1339</ele></trkpt>
<trkpt lat="46.89018" lon="10.48066"><ele>1338</ele></trkpt>
<trkpt lat="46.89" lon="10.48058"><ele>1338</ele></trkpt>
<trkpt lat="46.8897" lon="10.48048"><ele>1337</ele></trkpt>
<trkpt lat="46.88966" lon="10.48045"><ele>1336</ele></trkpt>
<trkpt lat="46.88964" lon="10.48039"><ele>1335</ele></trkpt>
<trkpt lat="46.88964" lon="10.48034"><ele>1334</ele></trkpt>
<trkpt lat="46.88966" lon="10.4803"><ele>1334</ele></trkpt>
<trkpt lat="46.88968" lon="10.48027"><ele>1334</ele></trkpt>
<trkpt lat="46.88972" lon="10.48025"><ele>1333</ele></trkpt>
<trkpt lat="46.88978" lon="10.48026"><ele>1333</ele></trkpt>
<trkpt lat="46.88991" lon="10.48033"><ele>1332</ele></trkpt>
<trkpt lat="46.89046" lon="10.48056"><ele>1330</ele></trkpt>
<trkpt lat="46.89067" lon="10.48062"><ele>1330</ele></trkpt>
<trkpt lat="46.89075" lon="10.48061"><ele>1329</ele></trkpt>
<trkpt lat="46.89086" lon="10.48058"><ele>1328</ele></trkpt>
<trkpt lat="46.89095" lon="10.48053"><ele>1327</ele></trkpt>
<trkpt lat="46.89108" lon="10.48044"><ele>1325</ele></trkpt>
<trkpt lat="46.89193" lon="10.47969"><ele>1317</ele></trkpt>
<trkpt lat="46.89211" lon="10.47954"><ele>1315</ele></trkpt>
<trkpt lat="46.89223" lon="10.47946"><ele>1314</ele></trkpt>
<trkpt lat="46.8923" lon="10.47942"><ele>1313</ele></trkpt>
<trkpt lat="46.89238" lon="10.4794"><ele>1312</ele></trkpt>
<trkpt lat="46.8925" lon="10.47941"><ele>1312</ele></trkpt>
<trkpt lat="46.89261" lon="10.47944"><ele>1312</ele></trkpt>
<trkpt lat="46.89271" lon="10.47951"><ele>1314</ele></trkpt>
<trkpt lat="46.8928" lon="10.47956"><ele>1317</ele></trkpt>
<trkpt lat="46.89285" lon="10.47955"><ele>1316</ele></trkpt>
<trkpt lat="46.89289" lon="10.47952"><ele>1315</ele></trkpt>
<trkpt lat="46.89291" lon="10.47946"><ele>1312</ele></trkpt>
<trkpt lat="46.89291" lon="10.47939"><ele>1310</ele></trkpt>
<trkpt lat="46.89288" lon="10.47933"><ele>1309</ele></trkpt>
<trkpt lat="46.89284" lon="10.47929"><ele>1308</ele></trkpt>
<trkpt lat="46.89274" lon="10.47927"><ele>1307</ele></trkpt>
<trkpt lat="46.89221" lon="10.47918"><ele>1304</ele></trkpt>
<trkpt lat="46.89208" lon="10.4792"><ele>1303</ele></trkpt>
<trkpt lat="46.89146" lon="10.47941"><ele>1300</ele></trkpt>
<trkpt lat="46.89101" lon="10.47958"><ele>1296</ele></trkpt>
<trkpt lat="46.89067" lon="10.47969"><ele>1292</ele></trkpt>
<trkpt lat="46.89053" lon="10.47972"><ele>1291</ele></trkpt>
<trkpt lat="46.89033" lon="10.47969"><ele>1290</ele></trkpt>
<trkpt lat="46.89022" lon="10.47965"><ele>1290</ele></trkpt>
<trkpt lat="46.8901" lon="10.47959"><ele>1290</ele></trkpt>
<trkpt lat="46.88983" lon="10.47941"><ele>1289</ele></trkpt>
<trkpt lat="46.88958" lon="10.47926"><ele>1287</ele></trkpt>
<trkpt lat="46.88937" lon="10.47917"><ele>1286</ele></trkpt>
<trkpt lat="46.88921" lon="10.47912"><ele>1286</ele></trkpt>
<trkpt lat="46.88904" lon="10.47909"><ele>1285</ele></trkpt>
<trkpt lat="46.88876" lon="10.47905"><ele>1284</ele></trkpt>
<trkpt lat="46.88862" lon="10.47901"><ele>1283</ele></trkpt>
<trkpt lat="46.88849" lon="10.47896"><ele>1283</ele></trkpt>
<trkpt lat="46.8884" lon="10.47891"><ele>1282</ele></trkpt>
<trkpt lat="46.88829" lon="10.47882"><ele>1281</ele></trkpt>
<trkpt lat="46.88788" lon="10.47841"><ele>1278</ele></trkpt>
<trkpt lat="46.88773" lon="10.47831"><ele>1277</ele></trkpt>
<trkpt lat="46.88759" lon="10.47823"><ele>1277</ele></trkpt>
<trkpt lat="46.88745" lon="10.47816"><ele>1277</ele></trkpt>
<trkpt lat="46.88704" lon="10.47805"><ele>1274</ele></trkpt>
<trkpt lat="46.88692" lon="10.478"><ele>1273</ele></trkpt>
<trkpt lat="46.88681" lon="10.47793"><ele>1273</ele></trkpt>
<trkpt lat="46.88671" lon="10.47785"><ele>1272</ele></trkpt>
<trkpt lat="46.88656" lon="10.47769"><ele>1272</ele></trkpt>
<trkpt lat="46.88614" lon="10.47716"><ele>1269</ele></trkpt>
<trkpt lat="46.88587" lon="10.47681"><ele>1270</ele></trkpt>
<trkpt lat="46.88583" lon="10.47673"><ele>1269</ele></trkpt>
<trkpt lat="46.88582" lon="10.47665"><ele>1268</ele></trkpt>
<trkpt lat="46.88583" lon="10.47659"><ele>1267</ele></trkpt>
<trkpt lat="46.88584" lon="10.47658"><ele>1266</ele></trkpt>
<trkpt lat="46.88586" lon="10.47655"><ele>1265</ele></trkpt>
<trkpt lat="46.88591" lon="10.47653"><ele>1262</ele></trkpt>
<trkpt lat="46.88595" lon="10.47655"><ele>1261</ele></trkpt>
<trkpt lat="46.88599" lon="10.47659"><ele>1261</ele></trkpt>
<trkpt lat="46.88612" lon="10.47686"><ele>1263</ele></trkpt>
<trkpt lat="46.88623" lon="10.47705"><ele>1263</ele></trkpt>
<trkpt lat="46.88636" lon="10.47723"><ele>1264</ele></trkpt>
<trkpt lat="46.88661" lon="10.47746"><ele>1261</ele></trkpt>
<trkpt lat="46.88676" lon="10.47759"><ele>1261</ele></trkpt>
<trkpt lat="46.88688" lon="10.47766"><ele>1259</ele></trkpt>
<trkpt lat="46.88699" lon="10.4777"><ele>1258</ele></trkpt>
<trkpt lat="46.88717" lon="10.47773"><ele>1257</ele></trkpt>
<trkpt lat="46.8874" lon="10.47771"><ele>1255</ele></trkpt>
<trkpt lat="46.88757" lon="10.47771"><ele>1253</ele></trkpt>
<trkpt lat="46.88771" lon="10.47772"><ele>1253</ele></trkpt>
<trkpt lat="46.88784" lon="10.47775"><ele>1253</ele></trkpt>
<trkpt lat="46.88798" lon="10.47779"><ele>1252</ele></trkpt>
<trkpt lat="46.88818" lon="10.47788"><ele>1252</ele></trkpt>
<trkpt lat="46.88834" lon="10.47797"><ele>1249</ele></trkpt>
<trkpt lat="46.88864" lon="10.47809"><ele>1247</ele></trkpt>
<trkpt lat="46.88921" lon="10.47824"><ele>1242</ele></trkpt>
<trkpt lat="46.88944" lon="10.47829"><ele>1240</ele></trkpt>
<trkpt lat="46.88954" lon="10.4783"><ele>1240</ele></trkpt>
<trkpt lat="46.88966" lon="10.47829"><ele>1239</ele></trkpt>
<trkpt lat="46.8898" lon="10.47825"><ele>1237</ele></trkpt>
<trkpt lat="46.89007" lon="10.47813"><ele>1235</ele></trkpt>
<trkpt lat="46.89021" lon="10.4781"><ele>1234</ele></trkpt>
<trkpt lat="46.8906" lon="10.4781"><ele>1234</ele></trkpt>
<trkpt lat="46.89064" lon="10.47809"><ele>1234</ele></trkpt>
<trkpt lat="46.89068" lon="10.47806"><ele>1234</ele></trkpt>
<trkpt lat="46.89069" lon="10.47799"><ele>1232</ele></trkpt>
<trkpt lat="46.89068" lon="10.47793"><ele>1231</ele></trkpt>
<trkpt lat="46.89065" lon="10.47789"><ele>1230</ele></trkpt>
<trkpt lat="46.89061" lon="10.47789"><ele>1229</ele></trkpt>
<trkpt lat="46.89038" lon="10.47791"><ele>1229</ele></trkpt>
<trkpt lat="46.89029" lon="10.47789"><ele>1229</ele></trkpt>
<trkpt lat="46.89012" lon="10.47782"><ele>1227</ele></trkpt>
<trkpt lat="46.89005" lon="10.4778"><ele>1227</ele></trkpt>
<trkpt lat="46.88998" lon="10.4778"><ele>1227</ele></trkpt>
<trkpt lat="46.8899" lon="10.47781"><ele>1226</ele></trkpt>
<trkpt lat="46.88982" lon="10.47784"><ele>1226</ele></trkpt>
<trkpt lat="46.88972" lon="10.4779"><ele>1226</ele></trkpt>
<trkpt lat="46.88965" lon="10.47791"><ele>1227</ele></trkpt>
<trkpt lat="46.88962" lon="10.47789"><ele>1226</ele></trkpt>
<trkpt lat="46.88959" lon="10.47783"><ele>1224</ele></trkpt>
<trkpt lat="46.88959" lon="10.47775"><ele>1222</ele></trkpt>
<trkpt lat="46.88963" lon="10.47771"><ele>1221</ele></trkpt>
<trkpt lat="46.88969" lon="10.47768"><ele>1221</ele></trkpt>
<trkpt lat="46.89002" lon="10.47761"><ele>1221</ele></trkpt>
<trkpt lat="46.89028" lon="10.47757"><ele>1220</ele></trkpt>
<trkpt lat="46.89052" lon="10.47751"><ele>1216</ele></trkpt>
<trkpt lat="46.89065" lon="10.4775"><ele>1215</ele></trkpt>
<trkpt lat="46.89079" lon="10.47752"><ele>1215</ele></trkpt>
<trkpt lat="46.89121" lon="10.47764"><ele>1217</ele></trkpt>
<trkpt lat="46.89137" lon="10.47765"><ele>1213</ele></trkpt>
<trkpt lat="46.89156" lon="10.4776"><ele>1211</ele></trkpt>
<trkpt lat="46.89237" lon="10.47724"><ele>1203</ele></trkpt>
<trkpt lat="46.89278" lon="10.47711"><ele>1199</ele></trkpt>
<trkpt lat="46.89344" lon="10.47682"><ele>1198</ele></trkpt>
<trkpt lat="46.89349" lon="10.47679"><ele>1198</ele></trkpt>
<trkpt lat="46.89353" lon="10.47674"><ele>1197</ele></trkpt>
<trkpt lat="46.89353" lon="10.47667"><ele>1195</ele></trkpt>
<trkpt lat="46.89351" lon="10.47662"><ele>1193</ele></trkpt>
<trkpt lat="46.89348" lon="10.4766"><ele>1192</ele></trkpt>
<trkpt lat="46.89343" lon="10.47661"><ele>1192</ele></trkpt>
<trkpt lat="46.89337" lon="10.47663"><ele>1192</ele></trkpt>
<trkpt lat="46.89327" lon="10.47671"><ele>1192</ele></trkpt>
<trkpt lat="46.89317" lon="10.47677"><ele>1191</ele></trkpt>
<trkpt lat="46.89303" lon="10.4768"><ele>1190</ele></trkpt>
<trkpt lat="46.89238" lon="10.47684"><ele>1186</ele></trkpt>
<trkpt lat="46.89197" lon="10.47685"><ele>1182</ele></trkpt>
<trkpt lat="46.89163" lon="10.47684"><ele>1180</ele></trkpt>
<trkpt lat="46.89152" lon="10.47685"><ele>1179</ele></trkpt>
<trkpt lat="46.89141" lon="10.47689"><ele>1178</ele></trkpt>
<trkpt lat="46.89122" lon="10.47699"><ele>1180</ele></trkpt>
<trkpt lat="46.89117" lon="10.47696"><ele>1179</ele></trkpt>
<trkpt lat="46.89114" lon="10.47691"><ele>1177</ele></trkpt>
<trkpt lat="46.89114" lon="10.47685"><ele>1175</ele></trkpt>
<trkpt lat="46.89117" lon="10.47679"><ele>1173</ele></trkpt>
<trkpt lat="46.89124" lon="10.47675"><ele>1173</ele></trkpt>
<trkpt lat="46.89147" lon="10.47668"><ele>1173</ele></trkpt>
<trkpt lat="46.89182" lon="10.4766"><ele>1171</ele></trkpt>
<trkpt lat="46.89202" lon="10.47657"><ele>1170</ele></trkpt>
<trkpt lat="46.89221" lon="10.47652"><ele>1169</ele></trkpt>
<trkpt lat="46.8924" lon="10.47643"><ele>1167</ele></trkpt>
<trkpt lat="46.89287" lon="10.47617"><ele>1163</ele></trkpt>
<trkpt lat="46.89324" lon="10.47605"><ele>1164</ele></trkpt>
<trkpt lat="46.8933" lon="10.47602"><ele>1164</ele></trkpt>
<trkpt lat="46.89333" lon="10.47595"><ele>1163</ele></trkpt>
<trkpt lat="46.89332" lon="10.47587"><ele>1160</ele></trkpt>
<trkpt lat="46.89329" lon="10.47583"><ele>1159</ele></trkpt>
<trkpt lat="46.89326" lon="10.47582"><ele>1158</ele></trkpt>
<trkpt lat="46.89318" lon="10.47585"><ele>1158</ele></trkpt>
<trkpt lat="46.89294" lon="10.47596"><ele>1157</ele></trkpt>
<trkpt lat="46.89278" lon="10.47602"><ele>1156</ele></trkpt>
<trkpt lat="46.89261" lon="10.47605"><ele>1156</ele></trkpt>
<trkpt lat="46.89244" lon="10.47602"><ele>1154</ele></trkpt>
<trkpt lat="46.89227" lon="10.47596"><ele>1153</ele></trkpt>
<trkpt lat="46.89201" lon="10.47589"><ele>1151</ele></trkpt>
<trkpt lat="46.89178" lon="10.47587"><ele>1149</ele></trkpt>
<trkpt lat="46.89158" lon="10.4759"><ele>1148</ele></trkpt>
<trkpt lat="46.89136" lon="10.47596"><ele>1148</ele></trkpt>
<trkpt lat="46.89115" lon="10.47597"><ele>1143</ele></trkpt>
<trkpt lat="46.89104" lon="10.47595"><ele>1142</ele></trkpt>
<trkpt lat="46.89091" lon="10.47588"><ele>1142</ele></trkpt>
<trkpt lat="46.89079" lon="10.47579"><ele>1140</ele></trkpt>
<trkpt lat="46.89055" lon="10.47555"><ele>1138</ele></trkpt>
<trkpt lat="46.89042" lon="10.47545"><ele>1138</ele></trkpt>
<trkpt lat="46.8903" lon="10.47538"><ele>1138</ele></trkpt>
<trkpt lat="46.89021" lon="10.47536"><ele>1137</ele></trkpt>
<trkpt lat="46.89014" lon="10.47536"><ele>1136</ele></trkpt>
<trkpt lat="46.88974" lon="10.47535"><ele>1131</ele></trkpt>
<trkpt lat="46.88961" lon="10.47531"><ele>1129</ele></trkpt>
<trkpt lat="46.88951" lon="10.47526"><ele>1128</ele></trkpt>
<trkpt lat="46.8894" lon="10.47516"><ele>1127</ele></trkpt>
<trkpt lat="46.88933" lon="10.47508"><ele>1127</ele></trkpt>
<trkpt lat="46.88926" lon="10.47497"><ele>1127</ele></trkpt>
<trkpt lat="46.88911" lon="10.47469"><ele>1126</ele></trkpt>
<trkpt lat="46.88891" lon="10.47433"><ele>1122</ele></trkpt>
<trkpt lat="46.88878" lon="10.47422"><ele>1120</ele></trkpt>
<trkpt lat="46.88864" lon="10.47416"><ele>1118</ele></trkpt>
<trkpt lat="46.88853" lon="10.47414"><ele>1117</ele></trkpt>
<trkpt lat="46.88836" lon="10.47412"><ele>1116</ele></trkpt>
<trkpt lat="46.88822" lon="10.4741"><ele>1114</ele></trkpt>
<trkpt lat="46.88811" lon="10.47405"><ele>1112</ele></trkpt>
<trkpt lat="46.88801" lon="10.47397"><ele>1112</ele></trkpt>
<trkpt lat="46.88793" lon="10.47387"><ele>1112</ele></trkpt>
<trkpt lat="46.88787" lon="10.47375"><ele>1111</ele></trkpt>
<trkpt lat="46.88783" lon="10.47361"><ele>1109</ele></trkpt>
<trkpt lat="46.88781" lon="10.47344"><ele>1108</ele></trkpt>
<trkpt lat="46.88777" lon="10.47306"><ele>1107</ele></trkpt>
<trkpt lat="46.88774" lon="10.47288"><ele>1108</ele></trkpt>
<trkpt lat="46.88771" lon="10.47274"><ele>1107</ele></trkpt>
<trkpt lat="46.88764" lon="10.47257"><ele>1105</ele></trkpt>
<trkpt lat="46.88756" lon="10.47244"><ele>1103</ele></trkpt>
<trkpt lat="46.88747" lon="10.47233"><ele>1102</ele></trkpt>
<trkpt lat="46.88739" lon="10.47226"><ele>1101</ele></trkpt>
<trkpt lat="46.88727" lon="10.47219"><ele>1099</ele></trkpt>
<trkpt lat="46.88716" lon="10.47215"><ele>1098</ele></trkpt>
<trkpt lat="46.88673" lon="10.47205"><ele>1094</ele></trkpt>
<trkpt lat="46.88659" lon="10.47201"><ele>1093</ele></trkpt>
<trkpt lat="46.88649" lon="10.47195"><ele>1093</ele></trkpt>
<trkpt lat="46.88639" lon="10.47188"><ele>1091</ele></trkpt>
<trkpt lat="46.88629" lon="10.47175"><ele>1089</ele></trkpt>
<trkpt lat="46.88619" lon="10.4716"><ele>1088</ele></trkpt>
<trkpt lat="46.88612" lon="10.47141"><ele>1088</ele></trkpt>
<trkpt lat="46.88601" lon="10.47107"><ele>1087</ele></trkpt>
<trkpt lat="46.88579" lon="10.47034"><ele>1083</ele></trkpt>
<trkpt lat="46.88571" lon="10.47015"><ele>1082</ele></trkpt>
<trkpt lat="46.88563" lon="10.46999"><ele>1080</ele></trkpt>
<trkpt lat="46.88551" lon="10.4698"><ele>1081</ele></trkpt>
<trkpt lat="46.88543" lon="10.46966"><ele>1083</ele></trkpt>
<trkpt lat="46.88543" lon="10.46958"><ele>1083</ele></trkpt>
<trkpt lat="46.88546" lon="10.46952"><ele>1082</ele></trkpt>
<trkpt lat="46.8855" lon="10.4695"><ele>1079</ele></trkpt>
<trkpt lat="46.88553" lon="10.46952"><ele>1078</ele></trkpt>
<trkpt lat="46.88557" lon="10.46958"><ele>1076</ele></trkpt>
<trkpt lat="46.88565" lon="10.46978"><ele>1074</ele></trkpt>
<trkpt lat="46.88578" lon="10.47001"><ele>1075</ele></trkpt>
<trkpt lat="46.886" lon="10.47037"><ele>1073</ele></trkpt>
<trkpt lat="46.88615" lon="10.47061"><ele>1072</ele></trkpt>
<trkpt lat="46.88625" lon="10.47074"><ele>1072</ele></trkpt>
<trkpt lat="46.88636" lon="10.47084"><ele>1070</ele></trkpt>
<trkpt lat="46.88649" lon="10.47093"><ele>1069</ele></trkpt>
<trkpt lat="46.88663" lon="10.471"><ele>1068</ele></trkpt>
<trkpt lat="46.88671" lon="10.47102"><ele>1068</ele></trkpt>
<trkpt lat="46.88678" lon="10.47102"><ele>1067</ele></trkpt>
<trkpt lat="46.88681" lon="10.47099"><ele>1067</ele></trkpt>
<trkpt lat="46.88683" lon="10.47093"><ele>1066</ele></trkpt>
<trkpt lat="46.88681" lon="10.47085"><ele>1065</ele></trkpt>
<trkpt lat="46.88677" lon="10.47081"><ele>1064</ele></trkpt>
<trkpt lat="46.8867" lon="10.47077"><ele>1064</ele></trkpt>
<trkpt lat="46.88653" lon="10.47068"><ele>1065</ele></trkpt>
<trkpt lat="46.8864" lon="10.4706"><ele>1064</ele></trkpt>
<trkpt lat="46.88634" lon="10.47052"><ele>1064</ele></trkpt>
<trkpt lat="46.88624" lon="10.47037"><ele>1063</ele></trkpt>
<trkpt lat="46.88614" lon="10.47016"><ele>1061</ele></trkpt>
<trkpt lat="46.88606" lon="10.46996"><ele>1060</ele></trkpt>
<trkpt lat="46.88582" lon="10.46922"><ele>1056</ele></trkpt>
<trkpt lat="46.88577" lon="10.469"><ele>1056</ele></trkpt>
<trkpt lat="46.88573" lon="10.46863"><ele>1054</ele></trkpt>
<trkpt lat="46.88572" lon="10.4683"><ele>1052</ele></trkpt>
<trkpt lat="46.88572" lon="10.46756"><ele>1048</ele></trkpt>
<trkpt lat="46.88573" lon="10.46733"><ele>1047</ele></trkpt>
<trkpt lat="46.88571" lon="10.46719"><ele>1047</ele></trkpt>
<trkpt lat="46.88569" lon="10.46706"><ele>1046</ele></trkpt>
<trkpt lat="46.88566" lon="10.46696"><ele>1046</ele></trkpt>
<trkpt lat="46.88561" lon="10.46686"><ele>1045</ele></trkpt>
<trkpt lat="46.8852" lon="10.46628"><ele>1042</ele></trkpt>
<trkpt lat="46.88489" lon="10.46584"><ele>1040</ele></trkpt>
<trkpt lat="46.88471" lon="10.46557"><ele>1037</ele></trkpt>
<trkpt lat="46.88464" lon="10.46545"><ele>1037</ele></trkpt>
<trkpt lat="46.88463" lon="10.46539"><ele>1036</ele></trkpt>
<trkpt lat="46.88462" lon="10.46534"><ele>1035</ele></trkpt>
<trkpt lat="46.88463" lon="10.46528"><ele>1034</ele></trkpt>
<trkpt lat="46.88466" lon="10.46519"><ele>1034</ele></trkpt>
<trkpt lat="46.88479" lon="10.46482"><ele>1032</ele></trkpt>
<trkpt lat="46.8848" lon="10.4648"><ele>1032</ele></trkpt>
<trkpt lat="46.88485" lon="10.46475"><ele>1032</ele></trkpt>
<trkpt lat="46.88494" lon="10.46471"><ele>1034</ele></trkpt>
<trkpt lat="46.885" lon="10.4647"><ele>1034</ele></trkpt>
<trkpt lat="46.88505" lon="10.46474"><ele>1034</ele></trkpt>
<trkpt lat="46.88513" lon="10.46478"><ele>1034</ele></trkpt>
<trkpt lat="46.88519" lon="10.46473"><ele>1034</ele></trkpt>
<trkpt lat="46.8852" lon="10.4647"><ele>1034</ele></trkpt>
<trkpt lat="46.88521" lon="10.46465"><ele>1034</ele></trkpt>
<trkpt lat="46.88522" lon="10.46461"><ele>1034</ele></trkpt>
<trkpt lat="46.88521" lon="10.46455"><ele>1034</ele></trkpt>
<trkpt lat="46.88519" lon="10.46449"><ele>1034</ele></trkpt>
<trkpt lat="46.88502" lon="10.46436"><ele>1035</ele></trkpt>
<trkpt lat="46.88482" lon="10.46423"><ele>1035</ele></trkpt>
<trkpt lat="46.8847" lon="10.46413"><ele>1036</ele></trkpt>
<trkpt lat="46.88467" lon="10.46411"><ele>1036</ele></trkpt>
<trkpt lat="46.88458" lon="10.46394"><ele>1036</ele></trkpt>
<trkpt lat="46.88437" lon="10.46365"><ele>1037</ele></trkpt>
<trkpt lat="46.88433" lon="10.46361"><ele>1037</ele></trkpt>
<trkpt lat="46.88427" lon="10.46358"><ele>1037</ele></trkpt>
<trkpt lat="46.88394" lon="10.46305"><ele>1040</ele></trkpt>
<trkpt lat="46.88379" lon="10.4627"><ele>1041</ele></trkpt>
<trkpt lat="46.88388" lon="10.46261"><ele>1041</ele></trkpt>
<trkpt lat="46.88414" lon="10.46214"><ele>1046</ele></trkpt>
<trkpt lat="46.88422" lon="10.46211"><ele>1047</ele></trkpt>
<trkpt lat="46.88427" lon="10.46213"><ele>1048</ele></trkpt>
<trkpt lat="46.88447" lon="10.46232"><ele>1049</ele></trkpt>
<trkpt lat="46.88473" lon="10.46266"><ele>1049</ele></trkpt>
<trkpt lat="46.88492" lon="10.46294"><ele>1051</ele></trkpt>
<trkpt lat="46.88503" lon="10.46316"><ele>1055</ele></trkpt>
<trkpt lat="46.88492" lon="10.46294"><ele>1051</ele></trkpt>
<trkpt lat="46.88473" lon="10.46266"><ele>1049</ele></trkpt>
<trkpt lat="46.88447" lon="10.46232"><ele>1049</ele></trkpt>
<trkpt lat="46.88427" lon="10.46213"><ele>1048</ele></trkpt>
<trkpt lat="46.88422" lon="10.46211"><ele>1047</ele></trkpt>
<trkpt lat="46.88414" lon="10.46214"><ele>1046</ele></trkpt>
<trkpt lat="46.88388" lon="10.46261"><ele>1041</ele></trkpt>
<trkpt lat="46.88379" lon="10.4627"><ele>1041</ele></trkpt>
<trkpt lat="46.88394" lon="10.46305"><ele>1040</ele></trkpt>
<trkpt lat="46.88427" lon="10.46358"><ele>1037</ele></trkpt>
<trkpt lat="46.88423" lon="10.46361"><ele>1037</ele></trkpt>
<trkpt lat="46.88416" lon="10.46375"><ele>1036</ele></trkpt>
<trkpt lat="46.88412" lon="10.46385"><ele>1035</ele></trkpt>
<trkpt lat="46.8841" lon="10.4639"><ele>1034</ele></trkpt>
<trkpt lat="46.88418" lon="10.46401"><ele>1034</ele></trkpt>
<trkpt lat="46.88429" lon="10.46415"><ele>1034</ele></trkpt>
<trkpt lat="46.8844" lon="10.46425"><ele>1034</ele></trkpt>
<trkpt lat="46.88472" lon="10.46448"><ele>1034</ele></trkpt>
<trkpt lat="46.88484" lon="10.46457"><ele>1034</ele></trkpt>
<trkpt lat="46.885" lon="10.4647"><ele>1034</ele></trkpt>
<trkpt lat="46.88505" lon="10.46474"><ele>1034</ele></trkpt>
<trkpt lat="46.88513" lon="10.46478"><ele>1034</ele></trkpt>
<trkpt lat="46.88518" lon="10.46479"><ele>1033</ele></trkpt>
<trkpt lat="46.88523" lon="10.46478"><ele>1034</ele></trkpt>
<trkpt lat="46.88531" lon="10.46471"><ele>1034</ele></trkpt>
<trkpt lat="46.88534" lon="10.4647"><ele>1034</ele></trkpt>
<trkpt lat="46.88543" lon="10.4647"><ele>1034</ele></trkpt>
<trkpt lat="46.88551" lon="10.46475"><ele>1033</ele></trkpt>
<trkpt lat="46.88583" lon="10.46503"><ele>1033</ele></trkpt>
<trkpt lat="46.88603" lon="10.4652"><ele>1034</ele></trkpt>
<trkpt lat="46.88627" lon="10.46541"><ele>1032</ele></trkpt>
<trkpt lat="46.88663" lon="10.46573"><ele>1032</ele></trkpt>
<trkpt lat="46.88722" lon="10.46623"><ele>1032</ele></trkpt>
<trkpt lat="46.88787" lon="10.4668"><ele>1031</ele></trkpt>
<trkpt lat="46.88847" lon="10.46735"><ele>1032</ele></trkpt>
<trkpt lat="46.88883" lon="10.46768"><ele>1031</ele></trkpt>
<trkpt lat="46.889" lon="10.46786"><ele>1031</ele></trkpt>
<trkpt lat="46.88903" lon="10.4679"><ele>1031</ele></trkpt>
<trkpt lat="46.88916" lon="10.46809"><ele>1031</ele></trkpt>
<trkpt lat="46.88928" lon="10.46832"><ele>1034</ele></trkpt>
<trkpt lat="46.88939" lon="10.46856"><ele>1033</ele></trkpt>
<trkpt lat="46.88948" lon="10.46875"><ele>1033</ele></trkpt>
<trkpt lat="46.88979" lon="10.46943"><ele>1035</ele></trkpt>
<trkpt lat="46.88996" lon="10.46974"><ele>1031</ele></trkpt>
<trkpt lat="46.8904" lon="10.4704"><ele>1034</ele></trkpt>
<trkpt lat="46.8906" lon="10.47066"><ele>1032</ele></trkpt>
<trkpt lat="46.89113" lon="10.4712"><ele>1033</ele></trkpt>
<trkpt lat="46.8913" lon="10.47134"><ele>1033</ele></trkpt>
<trkpt lat="46.89149" lon="10.47143"><ele>1033</ele></trkpt>
<trkpt lat="46.89218" lon="10.47173"><ele>1034</ele></trkpt>
<trkpt lat="46.89242" lon="10.47185"><ele>1034</ele></trkpt>
<trkpt lat="46.8926" lon="10.47197"><ele>1034</ele></trkpt>
<trkpt lat="46.89274" lon="10.47212"><ele>1034</ele></trkpt>
<trkpt lat="46.89289" lon="10.47232"><ele>1034</ele></trkpt>
<trkpt lat="46.89313" lon="10.47264"><ele>1034</ele></trkpt>
<trkpt lat="46.89338" lon="10.47304"><ele>1034</ele></trkpt>
<trkpt lat="46.89373" lon="10.4737"><ele>1035</ele></trkpt>
<trkpt lat="46.89393" lon="10.47401"><ele>1035</ele></trkpt>
<trkpt lat="46.89432" lon="10.47452"><ele>1035</ele></trkpt>
<trkpt lat="46.89449" lon="10.4747"><ele>1034</ele></trkpt>
<trkpt lat="46.89458" lon="10.47477"><ele>1034</ele></trkpt>
<trkpt lat="46.89475" lon="10.47484"><ele>1034</ele></trkpt>
<trkpt lat="46.89488" lon="10.47487"><ele>1033</ele></trkpt>
<trkpt lat="46.89507" lon="10.47486"><ele>1034</ele></trkpt>
<trkpt lat="46.8957" lon="10.47482"><ele>1034</ele></trkpt>
<trkpt lat="46.89587" lon="10.47484"><ele>1034</ele></trkpt>
<trkpt lat="46.89605" lon="10.47489"><ele>1033</ele></trkpt>
<trkpt lat="46.89675" lon="10.47517"><ele>1033</ele></trkpt>
<trkpt lat="46.89732" lon="10.47526"><ele>1032</ele></trkpt>
<trkpt lat="46.89751" lon="10.47524"><ele>1032</ele></trkpt>
<trkpt lat="46.89762" lon="10.47521"><ele>1032</ele></trkpt>
<trkpt lat="46.8978" lon="10.47512"><ele>1031</ele></trkpt>
<trkpt lat="46.89795" lon="10.47502"><ele>1031</ele></trkpt>
<trkpt lat="46.89828" lon="10.47473"><ele>1030</ele></trkpt>
<trkpt lat="46.89843" lon="10.47465"><ele>1030</ele></trkpt>
<trkpt lat="46.89858" lon="10.4746"><ele>1030</ele></trkpt>
<trkpt lat="46.89871" lon="10.4746"><ele>1030</ele></trkpt>
<trkpt lat="46.90047" lon="10.4748"><ele>1032</ele></trkpt>
<trkpt lat="46.90105" lon="10.47479"><ele>1031</ele></trkpt>
<trkpt lat="46.90121" lon="10.47481"><ele>1032</ele></trkpt>
<trkpt lat="46.90139" lon="10.47488"><ele>1032</ele></trkpt>
<trkpt lat="46.90152" lon="10.47496"><ele>1033</ele></trkpt>
<trkpt lat="46.90169" lon="10.47512"><ele>1033</ele></trkpt>
<trkpt lat="46.90182" lon="10.4753"><ele>1039</ele></trkpt>
<trkpt lat="46.90198" lon="10.47555"><ele>1037</ele></trkpt>
<trkpt lat="46.90211" lon="10.47573"><ele>1038</ele></trkpt>
<trkpt lat="46.90314" lon="10.47681"><ele>1034</ele></trkpt>
<trkpt lat="46.90322" lon="10.47688"><ele>1034</ele></trkpt>
<trkpt lat="46.9033" lon="10.477"><ele>1033</ele></trkpt>
<trkpt lat="46.90346" lon="10.47696"><ele>1035</ele></trkpt>
<trkpt lat="46.90355" lon="10.47696"><ele>1035</ele></trkpt>
<trkpt lat="46.90377" lon="10.47695"><ele>1036</ele></trkpt>
<trkpt lat="46.9038" lon="10.47708"><ele>1034</ele></trkpt>
<trkpt lat="46.90383" lon="10.47713"><ele>1033</ele></trkpt>
<trkpt lat="46.90419" lon="10.47713"><ele>1031</ele></trkpt>
<trkpt lat="46.90438" lon="10.47711"><ele>1030</ele></trkpt>
<trkpt lat="46.90459" lon="10.47711"><ele>1029</ele></trkpt>
<trkpt lat="46.90481" lon="10.47713"><ele>1029</ele></trkpt>
<trkpt lat="46.90503" lon="10.47713"><ele>1030</ele></trkpt>
<trkpt lat="46.90529" lon="10.47725"><ele>1028</ele></trkpt>
<trkpt lat="46.90571" lon="10.47749"><ele>1025</ele></trkpt>
<trkpt lat="46.90597" lon="10.4776"><ele>1027</ele></trkpt>
<trkpt lat="46.90618" lon="10.47774"><ele>1025</ele></trkpt>
<trkpt lat="46.90718" lon="10.47816"><ele>1026</ele></trkpt>
<trkpt lat="46.90727" lon="10.47819"><ele>1026</ele></trkpt>
<trkpt lat="46.90755" lon="10.47819"><ele>1028</ele></trkpt>
<trkpt lat="46.90783" lon="10.47821"><ele>1028</ele></trkpt>
<trkpt lat="46.908" lon="10.47819"><ele>1030</ele></trkpt>
<trkpt lat="46.90806" lon="10.4782"><ele>1029</ele></trkpt>
<trkpt lat="46.90814" lon="10.47822"><ele>1028</ele></trkpt>
<trkpt lat="46.90838" lon="10.47826"><ele>1026</ele></trkpt>
<trkpt lat="46.90851" lon="10.47827"><ele>1025</ele></trkpt>
<trkpt lat="46.9087" lon="10.47823"><ele>1026</ele></trkpt>
<trkpt lat="46.90891" lon="10.47817"><ele>1027</ele></trkpt>
<trkpt lat="46.90904" lon="10.47804"><ele>1029</ele></trkpt>
<trkpt lat="46.90914" lon="10.47798"><ele>1029</ele></trkpt>
<trkpt lat="46.90929" lon="10.47791"><ele>1029</ele></trkpt>
<trkpt lat="46.90945" lon="10.47787"><ele>1027</ele></trkpt>
<trkpt lat="46.90962" lon="10.47785"><ele>1027</ele></trkpt>
<trkpt lat="46.90996" lon="10.47786"><ele>1025</ele></trkpt>
<trkpt lat="46.91053" lon="10.47792"><ele>1025</ele></trkpt>
<trkpt lat="46.91058" lon="10.47793"><ele>1026</ele></trkpt>
<trkpt lat="46.91069" lon="10.478"><ele>1026</ele></trkpt>
<trkpt lat="46.91095" lon="10.4782"><ele>1026</ele></trkpt>
<trkpt lat="46.91101" lon="10.47829"><ele>1025</ele></trkpt>
<trkpt lat="46.91105" lon="10.47837"><ele>1024</ele></trkpt>
<trkpt lat="46.9111" lon="10.47849"><ele>1023</ele></trkpt>
<trkpt lat="46.91119" lon="10.47877"><ele>1023</ele></trkpt>
<trkpt lat="46.91122" lon="10.47883"><ele>1023</ele></trkpt>
<trkpt lat="46.91124" lon="10.47891"><ele>1023</ele></trkpt>
<trkpt lat="46.91132" lon="10.47922"><ele>1023</ele></trkpt>
<trkpt lat="46.91137" lon="10.47936"><ele>1022</ele></trkpt>
<trkpt lat="46.91145" lon="10.47951"><ele>1023</ele></trkpt>
<trkpt lat="46.91161" lon="10.47997"><ele>1024</ele></trkpt>
<trkpt lat="46.91171" lon="10.48036"><ele>1025</ele></trkpt>
<trkpt lat="46.91175" lon="10.48056"><ele>1025</ele></trkpt>
<trkpt lat="46.91182" lon="10.48081"><ele>1022</ele></trkpt>
<trkpt lat="46.91196" lon="10.48121"><ele>1023</ele></trkpt>
<trkpt lat="46.91208" lon="10.48149"><ele>1024</ele></trkpt>
<trkpt lat="46.91221" lon="10.48186"><ele>1024</ele></trkpt>
<trkpt lat="46.91236" lon="10.48214"><ele>1024</ele></trkpt>
<trkpt lat="46.91262" lon="10.48258"><ele>1026</ele></trkpt>
<trkpt lat="46.91269" lon="10.48269"><ele>1026</ele></trkpt>
<trkpt lat="46.91274" lon="10.48277"><ele>1026</ele></trkpt>
<trkpt lat="46.91287" lon="10.48292"><ele>1026</ele></trkpt>
<trkpt lat="46.91293" lon="10.48296"><ele>1027</ele></trkpt>
<trkpt lat="46.913" lon="10.48299"><ele>1027</ele></trkpt>
<trkpt lat="46.91333" lon="10.48308"><ele>1032</ele></trkpt>
<trkpt lat="46.91349" lon="10.48311"><ele>1036</ele></trkpt>
<trkpt lat="46.91358" lon="10.48315"><ele>1037</ele></trkpt>
<trkpt lat="46.91373" lon="10.48325"><ele>1038</ele></trkpt>
<trkpt lat="46.91379" lon="10.4833"><ele>1039</ele></trkpt>
<trkpt lat="46.91395" lon="10.4835"><ele>1040</ele></trkpt>
<trkpt lat="46.91401" lon="10.48356"><ele>1041</ele></trkpt>
<trkpt lat="46.91407" lon="10.4836"><ele>1041</ele></trkpt>
<trkpt lat="46.91415" lon="10.48363"><ele>1044</ele></trkpt>
<trkpt lat="46.91419" lon="10.48366"><ele>1045</ele></trkpt>
<trkpt lat="46.91423" lon="10.48371"><ele>1045</ele></trkpt>
<trkpt lat="46.91428" lon="10.48382"><ele>1046</ele></trkpt>
<trkpt lat="46.91436" lon="10.48395"><ele>1047</ele></trkpt>
<trkpt lat="46.91456" lon="10.48419"><ele>1048</ele></trkpt>
<trkpt lat="46.9149" lon="10.48472"><ele>1049</ele></trkpt>
<trkpt lat="46.91496" lon="10.48478"><ele>1049</ele></trkpt>
<trkpt lat="46.91521" lon="10.48497"><ele>1052</ele></trkpt>
<trkpt lat="46.9154" lon="10.48509"><ele>1053</ele></trkpt>
<trkpt lat="46.91547" lon="10.48513"><ele>1053</ele></trkpt>
<trkpt lat="46.91557" lon="10.48516"><ele>1053</ele></trkpt>
<trkpt lat="46.91563" lon="10.48517"><ele>1052</ele></trkpt>
<trkpt lat="46.91569" lon="10.48515"><ele>1052</ele></trkpt>
<trkpt lat="46.91576" lon="10.4851"><ele>1053</ele></trkpt>
<trkpt lat="46.91591" lon="10.48501"><ele>1055</ele></trkpt>
<trkpt lat="46.91642" lon="10.48477"><ele>1055</ele></trkpt>
<trkpt lat="46.9165" lon="10.48471"><ele>1055</ele></trkpt>
<trkpt lat="46.91657" lon="10.48465"><ele>1056</ele></trkpt>
<trkpt lat="46.91664" lon="10.48462"><ele>1056</ele></trkpt>
<trkpt lat="46.91672" lon="10.4846"><ele>1058</ele></trkpt>
<trkpt lat="46.9168" lon="10.4846"><ele>1059</ele></trkpt>
<trkpt lat="46.91686" lon="10.48461"><ele>1060</ele></trkpt>
<trkpt lat="46.91705" lon="10.48466"><ele>1062</ele></trkpt>
<trkpt lat="46.91713" lon="10.48469"><ele>1062</ele></trkpt>
<trkpt lat="46.9173" lon="10.48477"><ele>1062</ele></trkpt>
<trkpt lat="46.91736" lon="10.48479"><ele>1062</ele></trkpt>
<trkpt lat="46.9174" lon="10.48476"><ele>1063</ele></trkpt>
<trkpt lat="46.91742" lon="10.4847"><ele>1065</ele></trkpt>
<trkpt lat="46.91741" lon="10.48465"><ele>1066</ele></trkpt>
<trkpt lat="46.91739" lon="10.48462"><ele>1066</ele></trkpt>
<trkpt lat="46.91725" lon="10.48452"><ele>1067</ele></trkpt>
<trkpt lat="46.91723" lon="10.48448"><ele>1067</ele></trkpt>
<trkpt lat="46.91723" lon="10.48442"><ele>1068</ele></trkpt>
<trkpt lat="46.91726" lon="10.48439"><ele>1069</ele></trkpt>
<trkpt lat="46.9173" lon="10.48438"><ele>1070</ele></trkpt>
<trkpt lat="46.91736" lon="10.4844"><ele>1071</ele></trkpt>
<trkpt lat="46.91745" lon="10.48439"><ele>1073</ele></trkpt>
<trkpt lat="46.91751" lon="10.48437"><ele>1074</ele></trkpt>
<trkpt lat="46.91756" lon="10.48432"><ele>1073</ele></trkpt>
<trkpt lat="46.91763" lon="10.48424"><ele>1074</ele></trkpt>
<trkpt lat="46.91769" lon="10.48414"><ele>1075</ele></trkpt>
<trkpt lat="46.91772" lon="10.48406"><ele>1075</ele></trkpt>
<trkpt lat="46.91772" lon="10.48398"><ele>1075</ele></trkpt>
<trkpt lat="46.91771" lon="10.48393"><ele>1076</ele></trkpt>
<trkpt lat="46.91768" lon="10.48389"><ele>1075</ele></trkpt>
<trkpt lat="46.91763" lon="10.48387"><ele>1075</ele></trkpt>
<trkpt lat="46.91743" lon="10.48386"><ele>1075</ele></trkpt>
<trkpt lat="46.91736" lon="10.48383"><ele>1075</ele></trkpt>
<trkpt lat="46.91729" lon="10.48379"><ele>1076</ele></trkpt>
<trkpt lat="46.91719" lon="10.48371"><ele>1076</ele></trkpt>
<trkpt lat="46.91696" lon="10.48346"><ele>1077</ele></trkpt>
<trkpt lat="46.91674" lon="10.48315"><ele>1080</ele></trkpt>
<trkpt lat="46.91668" lon="10.48302"><ele>1081</ele></trkpt>
<trkpt lat="46.91662" lon="10.48293"><ele>1081</ele></trkpt>
<trkpt lat="46.91647" lon="10.48271"><ele>1083</ele></trkpt>
<trkpt lat="46.91609" lon="10.48234"><ele>1084</ele></trkpt>
<trkpt lat="46.91608" lon="10.4823"><ele>1084</ele></trkpt>
<trkpt lat="46.91611" lon="10.48212"><ele>1088</ele></trkpt>
<trkpt lat="46.91614" lon="10.48215"><ele>1088</ele></trkpt>
<trkpt lat="46.9163" lon="10.48232"><ele>1087</ele></trkpt>
<trkpt lat="46.91651" lon="10.48256"><ele>1087</ele></trkpt>
<trkpt lat="46.91715" lon="10.48337"><ele>1085</ele></trkpt>
<trkpt lat="46.9173" lon="10.48348"><ele>1087</ele></trkpt>
<trkpt lat="46.91744" lon="10.48354"><ele>1089</ele></trkpt>
<trkpt lat="46.91756" lon="10.48356"><ele>1089</ele></trkpt>
<trkpt lat="46.91771" lon="10.48355"><ele>1087</ele></trkpt>
<trkpt lat="46.91796" lon="10.48348"><ele>1088</ele></trkpt>
<trkpt lat="46.91815" lon="10.48345"><ele>1087</ele></trkpt>
<trkpt lat="46.91831" lon="10.48345"><ele>1085</ele></trkpt>
<trkpt lat="46.91847" lon="10.48347"><ele>1085</ele></trkpt>
<trkpt lat="46.91877" lon="10.48355"><ele>1085</ele></trkpt>
<trkpt lat="46.91892" lon="10.48356"><ele>1088</ele></trkpt>
<trkpt lat="46.91906" lon="10.48353"><ele>1089</ele></trkpt>
<trkpt lat="46.91918" lon="10.48349"><ele>1090</ele></trkpt>
<trkpt lat="46.9193" lon="10.48348"><ele>1090</ele></trkpt>
<trkpt lat="46.91944" lon="10.48351"><ele>1086</ele></trkpt>
<trkpt lat="46.91953" lon="10.48358"><ele>1086</ele></trkpt>
<trkpt lat="46.9196" lon="10.48367"><ele>1087</ele></trkpt>
<trkpt lat="46.91974" lon="10.48396"><ele>1088</ele></trkpt>
<trkpt lat="46.91983" lon="10.48412"><ele>1084</ele></trkpt>
<trkpt lat="46.92" lon="10.48427"><ele>1083</ele></trkpt>
<trkpt lat="46.92061" lon="10.48477"><ele>1083</ele></trkpt>
<trkpt lat="46.92072" lon="10.48483"><ele>1084</ele></trkpt>
<trkpt lat="46.92086" lon="10.48486"><ele>1085</ele></trkpt>
<trkpt lat="46.92099" lon="10.48486"><ele>1085</ele></trkpt>
<trkpt lat="46.92116" lon="10.48479"><ele>1085</ele></trkpt>
<trkpt lat="46.92207" lon="10.48433"><ele>1087</ele></trkpt>
<trkpt lat="46.92221" lon="10.48429"><ele>1087</ele></trkpt>
<trkpt lat="46.92232" lon="10.4843"><ele>1088</ele></trkpt>
<trkpt lat="46.92248" lon="10.4844"><ele>1087</ele></trkpt>
<trkpt lat="46.92263" lon="10.48459"><ele>1085</ele></trkpt>
<trkpt lat="46.92274" lon="10.4847"><ele>1085</ele></trkpt>
<trkpt lat="46.92288" lon="10.48479"><ele>1085</ele></trkpt>
<trkpt lat="46.92296" lon="10.4848"><ele>1086</ele></trkpt>
<trkpt lat="46.92326" lon="10.48479"><ele>1088</ele></trkpt>
<trkpt lat="46.92339" lon="10.48483"><ele>1087</ele></trkpt>
<trkpt lat="46.92348" lon="10.48488"><ele>1087</ele></trkpt>
<trkpt lat="46.92388" lon="10.48519"><ele>1086</ele></trkpt>
<trkpt lat="46.92429" lon="10.48544"><ele>1088</ele></trkpt>
<trkpt lat="46.92443" lon="10.48557"><ele>1085</ele></trkpt>
<trkpt lat="46.92459" lon="10.48577"><ele>1084</ele></trkpt>
<trkpt lat="46.92468" lon="10.48582"><ele>1086</ele></trkpt>
<trkpt lat="46.92475" lon="10.48582"><ele>1087</ele></trkpt>
<trkpt lat="46.92481" lon="10.48577"><ele>1086</ele></trkpt>
<trkpt lat="46.92491" lon="10.48563"><ele>1087</ele></trkpt>
<trkpt lat="46.92493" lon="10.4856"><ele>1087</ele></trkpt>
<trkpt lat="46.92513" lon="10.48535"><ele>1085</ele></trkpt>
<trkpt lat="46.92519" lon="10.48529"><ele>1084</ele></trkpt>
<trkpt lat="46.92531" lon="10.48521"><ele>1084</ele></trkpt>
<trkpt lat="46.92543" lon="10.48514"><ele>1083</ele></trkpt>
<trkpt lat="46.92559" lon="10.48512"><ele>1082</ele></trkpt>
<trkpt lat="46.92572" lon="10.48512"><ele>1081</ele></trkpt>
<trkpt lat="46.92583" lon="10.48514"><ele>1080</ele></trkpt>
<trkpt lat="46.92608" lon="10.48522"><ele>1081</ele></trkpt>
<trkpt lat="46.92626" lon="10.48524"><ele>1079</ele></trkpt>
<trkpt lat="46.9264" lon="10.48524"><ele>1078</ele></trkpt>
<trkpt lat="46.92666" lon="10.48518"><ele>1077</ele></trkpt>
<trkpt lat="46.92694" lon="10.4851"><ele>1074</ele></trkpt>
<trkpt lat="46.92713" lon="10.48508"><ele>1074</ele></trkpt>
<trkpt lat="46.92725" lon="10.48508"><ele>1073</ele></trkpt>
<trkpt lat="46.92746" lon="10.48509"><ele>1074</ele></trkpt>
<trkpt lat="46.92788" lon="10.48517"><ele>1069</ele></trkpt>
<trkpt lat="46.92804" lon="10.48518"><ele>1069</ele></trkpt>
<trkpt lat="46.92811" lon="10.48518"><ele>1068</ele></trkpt>
<trkpt lat="46.92826" lon="10.48514"><ele>1068</ele></trkpt>
<trkpt lat="46.92838" lon="10.48507"><ele>1067</ele></trkpt>
<trkpt lat="46.92851" lon="10.48496"><ele>1066</ele></trkpt>
<trkpt lat="46.92875" lon="10.4848"><ele>1064</ele></trkpt>
<trkpt lat="46.92907" lon="10.4846"><ele>1064</ele></trkpt>
<trkpt lat="46.92955" lon="10.48432"><ele>1061</ele></trkpt>
<trkpt lat="46.92967" lon="10.48426"><ele>1062</ele></trkpt>
<trkpt lat="46.92977" lon="10.48422"><ele>1064</ele></trkpt>
<trkpt lat="46.92988" lon="10.4842"><ele>1065</ele></trkpt>
<trkpt lat="46.93004" lon="10.48421"><ele>1063</ele></trkpt>
<trkpt lat="46.93016" lon="10.48424"><ele>1062</ele></trkpt>
<trkpt lat="46.93025" lon="10.48428"><ele>1060</ele></trkpt>
<trkpt lat="46.93035" lon="10.48435"><ele>1057</ele></trkpt>
<trkpt lat="46.93065" lon="10.48453"><ele>1050</ele></trkpt>
<trkpt lat="46.93074" lon="10.48455"><ele>1049</ele></trkpt>
<trkpt lat="46.93084" lon="10.48454"><ele>1048</ele></trkpt>
<trkpt lat="46.93113" lon="10.48449"><ele>1046</ele></trkpt>
<trkpt lat="46.93132" lon="10.48446"><ele>1046</ele></trkpt>
<trkpt lat="46.9314" lon="10.48446"><ele>1046</ele></trkpt>
<trkpt lat="46.93147" lon="10.48447"><ele>1046</ele></trkpt>
<trkpt lat="46.93161" lon="10.48452"><ele>1045</ele></trkpt>
<trkpt lat="46.93169" lon="10.48457"><ele>1044</ele></trkpt>
<trkpt lat="46.93193" lon="10.48481"><ele>1043</ele></trkpt>
<trkpt lat="46.93207" lon="10.48491"><ele>1042</ele></trkpt>
<trkpt lat="46.93244" lon="10.48511"><ele>1040</ele></trkpt>
<trkpt lat="46.93279" lon="10.48533"><ele>1038</ele></trkpt>
<trkpt lat="46.93307" lon="10.48553"><ele>1036</ele></trkpt>
<trkpt lat="46.93325" lon="10.4857"><ele>1036</ele></trkpt>
<trkpt lat="46.93343" lon="10.48589"><ele>1036</ele></trkpt>
<trkpt lat="46.93403" lon="10.48672"><ele>1032</ele></trkpt>
<trkpt lat="46.93426" lon="10.48702"><ele>1030</ele></trkpt>
<trkpt lat="46.93451" lon="10.48728"><ele>1028</ele></trkpt>
<trkpt lat="46.93537" lon="10.4881"><ele>1024</ele></trkpt>
<trkpt lat="46.93595" lon="10.48869"><ele>1020</ele></trkpt>
<trkpt lat="46.93649" lon="10.48931"><ele>1019</ele></trkpt>
<trkpt lat="46.93684" lon="10.48976"><ele>1017</ele></trkpt>
<trkpt lat="46.93695" lon="10.48991"><ele>1013</ele></trkpt>
<trkpt lat="46.93735" lon="10.49051"><ele>1011</ele></trkpt>
<trkpt lat="46.9378" lon="10.49132"><ele>1012</ele></trkpt>
<trkpt lat="46.93811" lon="10.49188"><ele>1010</ele></trkpt>
<trkpt lat="46.9384" lon="10.49237"><ele>1009</ele></trkpt>
<trkpt lat="46.93854" lon="10.49259"><ele>1009</ele></trkpt>
<trkpt lat="46.93845" lon="10.4926"><ele>1004</ele></trkpt>
<trkpt lat="46.93811" lon="10.49234"><ele>1000</ele></trkpt>
<trkpt lat="46.93817" lon="10.49245"><ele>998</ele></trkpt>
<trkpt lat="46.93856" lon="10.49276"><ele>1001</ele></trkpt>
<trkpt lat="46.9388" lon="10.49308"><ele>1001</ele></trkpt>
<trkpt lat="46.93904" lon="10.49337"><ele>1000</ele></trkpt>
<trkpt lat="46.93939" lon="10.49381"><ele>998</ele></trkpt>
<trkpt lat="46.93993" lon="10.49457"><ele>997</ele></trkpt>
<trkpt lat="46.94035" lon="10.49531"><ele>993</ele></trkpt>
<trkpt lat="46.94069" lon="10.49586"><ele>996</ele></trkpt>
<trkpt lat="46.94094" lon="10.49618"><ele>997</ele></trkpt>
<trkpt lat="46.94125" lon="10.49654"><ele>997</ele></trkpt>
<trkpt lat="46.9414" lon="10.49668"><ele>998</ele></trkpt>
<trkpt lat="46.9416" lon="10.4969"><ele>1000</ele></trkpt>
<trkpt lat="46.94171" lon="10.49703"><ele>1000</ele></trkpt>
<trkpt lat="46.94189" lon="10.49724"><ele>1000</ele></trkpt>
<trkpt lat="46.94204" lon="10.49743"><ele>1001</ele></trkpt>
<trkpt lat="46.94232" lon="10.49786"><ele>1000</ele></trkpt>
<trkpt lat="46.94266" lon="10.4984"><ele>999</ele></trkpt>
<trkpt lat="46.94292" lon="10.49893"><ele>1000</ele></trkpt>
<trkpt lat="46.94332" lon="10.49983"><ele>1000</ele></trkpt>
<trkpt lat="46.94337" lon="10.49996"><ele>1000</ele></trkpt>
<trkpt lat="46.94337" lon="10.50007"><ele>998</ele></trkpt>
<trkpt lat="46.94341" lon="10.50019"><ele>996</ele></trkpt>
<trkpt lat="46.94369" lon="10.5006"><ele>997</ele></trkpt>
<trkpt lat="46.94383" lon="10.50086"><ele>995</ele></trkpt>
<trkpt lat="46.94399" lon="10.50111"><ele>996</ele></trkpt>
<trkpt lat="46.94436" lon="10.50175"><ele>996</ele></trkpt>
<trkpt lat="46.94459" lon="10.50211"><ele>995</ele></trkpt>
<trkpt lat="46.94482" lon="10.50245"><ele>995</ele></trkpt>
<trkpt lat="46.94506" lon="10.50279"><ele>996</ele></trkpt>
<trkpt lat="46.94521" lon="10.50304"><ele>994</ele></trkpt>
<trkpt lat="46.94538" lon="10.50336"><ele>993</ele></trkpt>
<trkpt lat="46.94548" lon="10.50358"><ele>993</ele></trkpt>
<trkpt lat="46.94568" lon="10.50418"><ele>993</ele></trkpt>
<trkpt lat="46.94588" lon="10.50471"><ele>997</ele></trkpt>
<trkpt lat="46.94615" lon="10.50517"><ele>996</ele></trkpt>
<trkpt lat="46.9464" lon="10.50545"><ele>995</ele></trkpt>
<trkpt lat="46.94657" lon="10.50558"><ele>995</ele></trkpt>
<trkpt lat="46.94686" lon="10.50575"><ele>994</ele></trkpt>
<trkpt lat="46.94714" lon="10.50585"><ele>992</ele></trkpt>
<trkpt lat="46.94737" lon="10.50591"><ele>989</ele></trkpt>
<trkpt lat="46.94766" lon="10.50593"><ele>987</ele></trkpt>
<trkpt lat="46.94793" lon="10.50598"><ele>985</ele></trkpt>
<trkpt lat="46.94823" lon="10.50608"><ele>983</ele></trkpt>
<trkpt lat="46.94844" lon="10.50623"><ele>981</ele></trkpt>
<trkpt lat="46.94865" lon="10.50638"><ele>981</ele></trkpt>
<trkpt lat="46.94886" lon="10.5066"><ele>983</ele></trkpt>
<trkpt lat="46.94915" lon="10.50695"><ele>982</ele></trkpt>
<trkpt lat="46.94923" lon="10.50705"><ele>983</ele></trkpt>
<trkpt lat="46.94948" lon="10.5074"><ele>984</ele></trkpt>
<trkpt lat="46.95034" lon="10.50831"><ele>981</ele></trkpt>
<trkpt lat="46.95113" lon="10.50955"><ele>976</ele></trkpt>
<trkpt lat="46.95184" lon="10.51113"><ele>977</ele></trkpt>
<trkpt lat="46.95202" lon="10.51137"><ele>976</ele></trkpt>
<trkpt lat="46.95212" lon="10.5114"><ele>977</ele></trkpt>
<trkpt lat="46.95223" lon="10.51139"><ele>978</ele></trkpt>
<trkpt lat="46.95237" lon="10.51139"><ele>978</ele></trkpt>
<trkpt lat="46.95256" lon="10.51134"><ele>980</ele></trkpt>
<trkpt lat="46.95264" lon="10.51136"><ele>980</ele></trkpt>
<trkpt lat="46.95294" lon="10.51152"><ele>978</ele></trkpt>
<trkpt lat="46.95334" lon="10.5114"><ele>978</ele></trkpt>
<trkpt lat="46.9535" lon="10.51141"><ele>978</ele></trkpt>
<trkpt lat="46.95366" lon="10.51146"><ele>978</ele></trkpt>
<trkpt lat="46.95376" lon="10.51149"><ele>978</ele></trkpt>
<trkpt lat="46.954" lon="10.51161"><ele>978</ele></trkpt>
<trkpt lat="46.95405" lon="10.51157"><ele>979</ele></trkpt>
<trkpt lat="46.95414" lon="10.5116"><ele>979</ele></trkpt>
<trkpt lat="46.95424" lon="10.51167"><ele>979</ele></trkpt>
<trkpt lat="46.95482" lon="10.51225"><ele>979</ele></trkpt>
<trkpt lat="46.9552" lon="10.51271"><ele>978</ele></trkpt>
<trkpt lat="46.95524" lon="10.51292"><ele>975</ele></trkpt>
<trkpt lat="46.95512" lon="10.51342"><ele>972</ele></trkpt>
<trkpt lat="46.95502" lon="10.51376"><ele>972</ele></trkpt>
<trkpt lat="46.95499" lon="10.51385"><ele>972</ele></trkpt>
<trkpt lat="46.95492" lon="10.5141"><ele>972</ele></trkpt>
<trkpt lat="46.9549" lon="10.51423"><ele>971</ele></trkpt>
<trkpt lat="46.9549" lon="10.51426"><ele>970</ele></trkpt>
<trkpt lat="46.95483" lon="10.51512"><ele>972</ele></trkpt>
<trkpt lat="46.95484" lon="10.51518"><ele>974</ele></trkpt>
<trkpt lat="46.95497" lon="10.51529"><ele>976</ele></trkpt>
<trkpt lat="46.95497" lon="10.51533"><ele>976</ele></trkpt>
<trkpt lat="46.95494" lon="10.51535"><ele>977</ele></trkpt>
<trkpt lat="46.95486" lon="10.51548"><ele>978</ele></trkpt>
<trkpt lat="46.95486" lon="10.51565"><ele>979</ele></trkpt>
<trkpt lat="46.95493" lon="10.51591"><ele>980</ele></trkpt>
<trkpt lat="46.95501" lon="10.51614"><ele>981</ele></trkpt>
<trkpt lat="46.95509" lon="10.51644"><ele>982</ele></trkpt>
<trkpt lat="46.9551" lon="10.51659"><ele>984</ele></trkpt>
<trkpt lat="46.95529" lon="10.51704"><ele>984</ele></trkpt>
<trkpt lat="46.95544" lon="10.51762"><ele>982</ele></trkpt>
<trkpt lat="46.95549" lon="10.51814"><ele>983</ele></trkpt>
<trkpt lat="46.95547" lon="10.51873"><ele>984</ele></trkpt>
<trkpt lat="46.95557" lon="10.51917"><ele>984</ele></trkpt>
<trkpt lat="46.9558" lon="10.51969"><ele>984</ele></trkpt>
<trkpt lat="46.95589" lon="10.52015"><ele>984</ele></trkpt>
<trkpt lat="46.95603" lon="10.52047"><ele>985</ele></trkpt>
<trkpt lat="46.95625" lon="10.52074"><ele>985</ele></trkpt>
<trkpt lat="46.95645" lon="10.52111"><ele>986</ele></trkpt>
<trkpt lat="46.95661" lon="10.52149"><ele>989</ele></trkpt>
<trkpt lat="46.95694" lon="10.52269"><ele>995</ele></trkpt>
<trkpt lat="46.95707" lon="10.52307"><ele>994</ele></trkpt>
<trkpt lat="46.95715" lon="10.52324"><ele>994</ele></trkpt>
<trkpt lat="46.95721" lon="10.52345"><ele>994</ele></trkpt>
<trkpt lat="46.95725" lon="10.52398"><ele>994</ele></trkpt>
<trkpt lat="46.95727" lon="10.52414"><ele>993</ele></trkpt>
<trkpt lat="46.95731" lon="10.52435"><ele>992</ele></trkpt>
<trkpt lat="46.95739" lon="10.52464"><ele>992</ele></trkpt>
<trkpt lat="46.95751" lon="10.5248"><ele>992</ele></trkpt>
<trkpt lat="46.9578" lon="10.52503"><ele>989</ele></trkpt>
<trkpt lat="46.95815" lon="10.52522"><ele>985</ele></trkpt>
<trkpt lat="46.95828" lon="10.52524"><ele>982</ele></trkpt>
<trkpt lat="46.95846" lon="10.52519"><ele>980</ele></trkpt>
<trkpt lat="46.95863" lon="10.52514"><ele>980</ele></trkpt>
<trkpt lat="46.95873" lon="10.52514"><ele>980</ele></trkpt>
<trkpt lat="46.95882" lon="10.52521"><ele>980</ele></trkpt>
<trkpt lat="46.95894" lon="10.52542"><ele>979</ele></trkpt>
<trkpt lat="46.95904" lon="10.52562"><ele>979</ele></trkpt>
<trkpt lat="46.95912" lon="10.52585"><ele>979</ele></trkpt>
<trkpt lat="46.95918" lon="10.52615"><ele>978</ele></trkpt>
<trkpt lat="46.95927" lon="10.52665"><ele>978</ele></trkpt>
<trkpt lat="46.9594" lon="10.5275"><ele>978</ele></trkpt>
<trkpt lat="46.95943" lon="10.52765"><ele>978</ele></trkpt>
<trkpt lat="46.95952" lon="10.5279"><ele>977</ele></trkpt>
<trkpt lat="46.95959" lon="10.52804"><ele>977</ele></trkpt>
<trkpt lat="46.95969" lon="10.52817"><ele>978</ele></trkpt>
<trkpt lat="46.95985" lon="10.52832"><ele>977</ele></trkpt>
<trkpt lat="46.96017" lon="10.52854"><ele>977</ele></trkpt>
<trkpt lat="46.96034" lon="10.52869"><ele>977</ele></trkpt>
<trkpt lat="46.96055" lon="10.52897"><ele>977</ele></trkpt>
<trkpt lat="46.96084" lon="10.52947"><ele>977</ele></trkpt>
<trkpt lat="46.96148" lon="10.53071"><ele>976</ele></trkpt>
<trkpt lat="46.9619" lon="10.53162"><ele>975</ele></trkpt>
<trkpt lat="46.96221" lon="10.5325"><ele>974</ele></trkpt>
<trkpt lat="46.96247" lon="10.53352"><ele>973</ele></trkpt>
<trkpt lat="46.96272" lon="10.53444"><ele>974</ele></trkpt>
<trkpt lat="46.96281" lon="10.53482"><ele>973</ele></trkpt>
<trkpt lat="46.9629" lon="10.53501"><ele>973</ele></trkpt>
<trkpt lat="46.96298" lon="10.53509"><ele>972</ele></trkpt>
<trkpt lat="46.96332" lon="10.53536"><ele>971</ele></trkpt>
<trkpt lat="46.96357" lon="10.53561"><ele>971</ele></trkpt>
<trkpt lat="46.96375" lon="10.53588"><ele>970</ele></trkpt>
<trkpt lat="46.9639" lon="10.53618"><ele>969</ele></trkpt>
<trkpt lat="46.96401" lon="10.53648"><ele>968</ele></trkpt>
<trkpt lat="46.96406" lon="10.53672"><ele>968</ele></trkpt>
<trkpt lat="46.96411" lon="10.53686"><ele>968</ele></trkpt>
<trkpt lat="46.9642" lon="10.53734"><ele>968</ele></trkpt>
<trkpt lat="46.96431" lon="10.53777"><ele>968</ele></trkpt>
<trkpt lat="46.96462" lon="10.53879"><ele>969</ele></trkpt>
<trkpt lat="46.96465" lon="10.53886"><ele>970</ele></trkpt>
<trkpt lat="46.96472" lon="10.53895"><ele>970</ele></trkpt>
<trkpt lat="46.965" lon="10.53924"><ele>972</ele></trkpt>
<trkpt lat="46.96515" lon="10.53941"><ele>972</ele></trkpt>
<trkpt lat="46.96522" lon="10.53948"><ele>972</ele></trkpt>
<trkpt lat="46.9655" lon="10.53973"><ele>973</ele></trkpt>
<trkpt lat="46.96583" lon="10.53984"><ele>971</ele></trkpt>
<trkpt lat="46.96598" lon="10.53993"><ele>970</ele></trkpt>
<trkpt lat="46.96617" lon="10.54015"><ele>970</ele></trkpt>
<trkpt lat="46.96627" lon="10.54043"><ele>973</ele></trkpt>
<trkpt lat="46.96649" lon="10.54093"><ele>973</ele></trkpt>
<trkpt lat="46.9666" lon="10.54109"><ele>972</ele></trkpt>
<trkpt lat="46.96679" lon="10.5414"><ele>972</ele></trkpt>
<trkpt lat="46.96696" lon="10.54179"><ele>973</ele></trkpt>
<trkpt lat="46.96697" lon="10.54181"><ele>973</ele></trkpt>
<trkpt lat="46.967" lon="10.54186"><ele>973</ele></trkpt>
<trkpt lat="46.96707" lon="10.54194"><ele>973</ele></trkpt>
<trkpt lat="46.96718" lon="10.5421"><ele>974</ele></trkpt>
<trkpt lat="46.96728" lon="10.54239"><ele>974</ele></trkpt>
<trkpt lat="46.96733" lon="10.54254"><ele>974</ele></trkpt>
<trkpt lat="46.96737" lon="10.54266"><ele>974</ele></trkpt>
<trkpt lat="46.9674" lon="10.54275"><ele>974</ele></trkpt>
<trkpt lat="46.96763" lon="10.54302"><ele>974</ele></trkpt>
<trkpt lat="46.9677" lon="10.5431"><ele>974</ele></trkpt>
<trkpt lat="46.96789" lon="10.54329"><ele>973</ele></trkpt>
<trkpt lat="46.96793" lon="10.54331"><ele>973</ele></trkpt>
<trkpt lat="46.96796" lon="10.54334"><ele>973</ele></trkpt>
<trkpt lat="46.96794" lon="10.54339"><ele>973</ele></trkpt>
<trkpt lat="46.96795" lon="10.54345"><ele>973</ele></trkpt>
<trkpt lat="46.96797" lon="10.5435"><ele>973</ele></trkpt>
<trkpt lat="46.96801" lon="10.54352"><ele>973</ele></trkpt>
<trkpt lat="46.968" lon="10.5436"><ele>973</ele></trkpt>
<trkpt lat="46.96802" lon="10.5438"><ele>973</ele></trkpt>
<trkpt lat="46.96803" lon="10.54384"><ele>973</ele></trkpt>
<trkpt lat="46.96811" lon="10.544"><ele>972</ele></trkpt>
<trkpt lat="46.96863" lon="10.54417"><ele>968</ele></trkpt>
<trkpt lat="46.96897" lon="10.54414"><ele>966</ele></trkpt>
<trkpt lat="46.96947" lon="10.54452"><ele>963</ele></trkpt>
<trkpt lat="46.96998" lon="10.54486"><ele>960</ele></trkpt>
<trkpt lat="46.97022" lon="10.54511"><ele>959</ele></trkpt>
<trkpt lat="46.97062" lon="10.54557"><ele>956</ele></trkpt>
<trkpt lat="46.97092" lon="10.54592"><ele>955</ele></trkpt>
<trkpt lat="46.97106" lon="10.54616"><ele>955</ele></trkpt>
<trkpt lat="46.97116" lon="10.54658"><ele>955</ele></trkpt>
<trkpt lat="46.97151" lon="10.54773"><ele>953</ele></trkpt>
<trkpt lat="46.97197" lon="10.54906"><ele>952</ele></trkpt>
<trkpt lat="46.97242" lon="10.55012"><ele>952</ele></trkpt>
<trkpt lat="46.97304" lon="10.5513"><ele>951</ele></trkpt>
<trkpt lat="46.97319" lon="10.55152"><ele>951</ele></trkpt>
<trkpt lat="46.97399" lon="10.55269"><ele>951</ele></trkpt>
<trkpt lat="46.97468" lon="10.55367"><ele>951</ele></trkpt>
<trkpt lat="46.97527" lon="10.55454"><ele>953</ele></trkpt>
<trkpt lat="46.97554" lon="10.55488"><ele>952</ele></trkpt>
<trkpt lat="46.97569" lon="10.55523"><ele>953</ele></trkpt>
<trkpt lat="46.97608" lon="10.55571"><ele>954</ele></trkpt>
<trkpt lat="46.9769" lon="10.55681"><ele>954</ele></trkpt>
<trkpt lat="46.97737" lon="10.55761"><ele>962</ele></trkpt>
<trkpt lat="46.97814" lon="10.55926"><ele>950</ele></trkpt>
<trkpt lat="46.97818" lon="10.55945"><ele>953</ele></trkpt>
<trkpt lat="46.97836" lon="10.55991"><ele>949</ele></trkpt>
<trkpt lat="46.9786" lon="10.56016"><ele>948</ele></trkpt>
<trkpt lat="46.97865" lon="10.56021"><ele>948</ele></trkpt>
<trkpt lat="46.97937" lon="10.56167"><ele>947</ele></trkpt>
<trkpt lat="46.97967" lon="10.56222"><ele>947</ele></trkpt>
<trkpt lat="46.98042" lon="10.56307"><ele>946</ele></trkpt>
<trkpt lat="46.9805" lon="10.56318"><ele>946</ele></trkpt>
<trkpt lat="46.98057" lon="10.5633"><ele>946</ele></trkpt>
<trkpt lat="46.98065" lon="10.56349"><ele>946</ele></trkpt>
<trkpt lat="46.98072" lon="10.56368"><ele>946</ele></trkpt>
<trkpt lat="46.98106" lon="10.5647"><ele>947</ele></trkpt>
<trkpt lat="46.98112" lon="10.5649"><ele>947</ele></trkpt>
<trkpt lat="46.98116" lon="10.56511"><ele>947</ele></trkpt>
<trkpt lat="46.98137" lon="10.56688"><ele>946</ele></trkpt>
<trkpt lat="46.98143" lon="10.56717"><ele>945</ele></trkpt>
<trkpt lat="46.98159" lon="10.56744"><ele>946</ele></trkpt>
<trkpt lat="46.98167" lon="10.5676"><ele>947</ele></trkpt>
<trkpt lat="46.9821" lon="10.56826"><ele>947</ele></trkpt>
<trkpt lat="46.9822" lon="10.56835"><ele>945</ele></trkpt>
<trkpt lat="46.98257" lon="10.56852"><ele>945</ele></trkpt>
<trkpt lat="46.98344" lon="10.56938"><ele>946</ele></trkpt>
<trkpt lat="46.98374" lon="10.56977"><ele>944</ele></trkpt>
<trkpt lat="46.98397" lon="10.5699"><ele>943</ele></trkpt>
<trkpt lat="46.98515" lon="10.5715"><ele>951</ele></trkpt>
<trkpt lat="46.98527" lon="10.57166"><ele>950</ele></trkpt>
<trkpt lat="46.98578" lon="10.57196"><ele>950</ele></trkpt>
<trkpt lat="46.98665" lon="10.57278"><ele>958</ele></trkpt>
<trkpt lat="46.98812" lon="10.57459"><ele>953</ele></trkpt>
<trkpt lat="46.98838" lon="10.57484"><ele>951</ele></trkpt>
<trkpt lat="46.9886" lon="10.57501"><ele>947</ele></trkpt>
<trkpt lat="46.98871" lon="10.57506"><ele>948</ele></trkpt>
<trkpt lat="46.98883" lon="10.57506"><ele>948</ele></trkpt>
<trkpt lat="46.98906" lon="10.57511"><ele>948</ele></trkpt>
<trkpt lat="46.98917" lon="10.57511"><ele>948</ele></trkpt>
<trkpt lat="46.98977" lon="10.57523"><ele>944</ele></trkpt>
<trkpt lat="46.99022" lon="10.5754"><ele>942</ele></trkpt>
<trkpt lat="46.99066" lon="10.57565"><ele>940</ele></trkpt>
<trkpt lat="46.9919" lon="10.5765"><ele>938</ele></trkpt>
<trkpt lat="46.99206" lon="10.57666"><ele>939</ele></trkpt>
<trkpt lat="46.99223" lon="10.57686"><ele>940</ele></trkpt>
<trkpt lat="46.99227" lon="10.57671"><ele>937</ele></trkpt>
<trkpt lat="46.99248" lon="10.57611"><ele>936</ele></trkpt>
<trkpt lat="46.99254" lon="10.57599"><ele>938</ele></trkpt>
<trkpt lat="46.99267" lon="10.57562"><ele>940</ele></trkpt>
<trkpt lat="46.99269" lon="10.57556"><ele>940</ele></trkpt>
<trkpt lat="46.99281" lon="10.57542"><ele>939</ele></trkpt>
<trkpt lat="46.99284" lon="10.57523"><ele>939</ele></trkpt>
<trkpt lat="46.99292" lon="10.57518"><ele>939</ele></trkpt>
<trkpt lat="46.993" lon="10.57515"><ele>939</ele></trkpt>
<trkpt lat="46.99315" lon="10.57514"><ele>942</ele></trkpt>
<trkpt lat="46.99368" lon="10.57571"><ele>943</ele></trkpt>
<trkpt lat="46.99385" lon="10.57597"><ele>944</ele></trkpt>
<trkpt lat="46.99397" lon="10.57616"><ele>944</ele></trkpt>
<trkpt lat="46.99484" lon="10.57767"><ele>947</ele></trkpt>
<trkpt lat="46.99518" lon="10.57819"><ele>947</ele></trkpt>
<trkpt lat="46.99584" lon="10.57905"><ele>945</ele></trkpt>
<trkpt lat="46.99594" lon="10.57924"><ele>944</ele></trkpt>
<trkpt lat="46.99618" lon="10.57974"><ele>945</ele></trkpt>
<trkpt lat="46.9964" lon="10.58036"><ele>950</ele></trkpt>
<trkpt lat="46.99646" lon="10.5805"><ele>950</ele></trkpt>
<trkpt lat="46.99656" lon="10.58071"><ele>950</ele></trkpt>
<trkpt lat="46.99668" lon="10.58091"><ele>949</ele></trkpt>
<trkpt lat="46.99681" lon="10.58109"><ele>950</ele></trkpt>
<trkpt lat="46.99741" lon="10.58165"><ele>952</ele></trkpt>
<trkpt lat="46.998" lon="10.5822"><ele>951</ele></trkpt>
<trkpt lat="46.99805" lon="10.58226"><ele>951</ele></trkpt>
<trkpt lat="46.9981" lon="10.58234"><ele>951</ele></trkpt>
<trkpt lat="46.99835" lon="10.5829"><ele>950</ele></trkpt>
<trkpt lat="46.9984" lon="10.58304"><ele>951</ele></trkpt>
</trkseg></trk>
</gpx>
