<?xml version="1.0" encoding="UTF-8"?>
<gpx version="1.1" creator="radtour" xmlns="http://www.topografix.com/GPX/1/1">
<trk><name>Amtliche Radumleitung Bierweg Nauders - Pfunds</name><trkseg>
<trkpt lat="46.8867" lon="10.50443"><ele>1362</ele></trkpt>
<trkpt lat="46.88811" lon="10.50338"><ele>1347</ele></trkpt>
<trkpt lat="46.88831" lon="10.50284"><ele>1346</ele></trkpt>
<trkpt lat="46.8887" lon="10.50219"><ele>1345</ele></trkpt>
<trkpt lat="46.88963" lon="10.50241"><ele>1351</ele></trkpt>
<trkpt lat="46.8903" lon="10.50276"><ele>1357</ele></trkpt>
<trkpt lat="46.89047" lon="10.50311"><ele>1360</ele></trkpt>
<trkpt lat="46.89071" lon="10.50297"><ele>1361</ele></trkpt>
<trkpt lat="46.89107" lon="10.50268"><ele>1363</ele></trkpt>
<trkpt lat="46.89125" lon="10.50219"><ele>1362</ele></trkpt>
<trkpt lat="46.8914" lon="10.50188"><ele>1361</ele></trkpt>
<trkpt lat="46.89164" lon="10.5016"><ele>1359</ele></trkpt>
<trkpt lat="46.89165" lon="10.50147"><ele>1359</ele></trkpt>
<trkpt lat="46.89186" lon="10.50133"><ele>1359</ele></trkpt>
<trkpt lat="46.89188" lon="10.50092"><ele>1356</ele></trkpt>
<trkpt lat="46.89188" lon="10.50047"><ele>1352</ele></trkpt>
<trkpt lat="46.89191" lon="10.50016"><ele>1351</ele></trkpt>
<trkpt lat="46.89201" lon="10.49998"><ele>1349</ele></trkpt>
<trkpt lat="46.89223" lon="10.49992"><ele>1349</ele></trkpt>
<trkpt lat="46.8927" lon="10.49989"><ele>1347</ele></trkpt>
<trkpt lat="46.89296" lon="10.49967"><ele>1346</ele></trkpt>
<trkpt lat="46.89319" lon="10.49949"><ele>1344</ele></trkpt>
<trkpt lat="46.89352" lon="10.4993"><ele>1343</ele></trkpt>
<trkpt lat="46.89425" lon="10.49893"><ele>1339</ele></trkpt>
<trkpt lat="46.89486" lon="10.4986"><ele>1336</ele></trkpt>
<trkpt lat="46.89496" lon="10.49858"><ele>1335</ele></trkpt>
<trkpt lat="46.89534" lon="10.49863"><ele>1335</ele></trkpt>
<trkpt lat="46.89591" lon="10.4988"><ele>1332</ele></trkpt>
<trkpt lat="46.89645" lon="10.49894"><ele>1328</ele></trkpt>
<trkpt lat="46.89669" lon="10.49894"><ele>1328</ele></trkpt>
<trkpt lat="46.89698" lon="10.49865"><ele>1326</ele></trkpt>
<trkpt lat="46.89742" lon="10.49821"><ele>1322</ele></trkpt>
<trkpt lat="46.89777" lon="10.49814"><ele>1322</ele></trkpt>
<trkpt lat="46.89822" lon="10.49809"><ele>1320</ele></trkpt>
<trkpt lat="46.8985" lon="10.49772"><ele>1319</ele></trkpt>
<trkpt lat="46.89932" lon="10.49669"><ele>1312</ele></trkpt>
<trkpt lat="46.89981" lon="10.496"><ele>1309</ele></trkpt>
<trkpt lat="46.90021" lon="10.49566"><ele>1306</ele></trkpt>
<trkpt lat="46.90059" lon="10.49547"><ele>1305</ele></trkpt>
<trkpt lat="46.90092" lon="10.49556"><ele>1305</ele></trkpt>
<trkpt lat="46.90125" lon="10.49579"><ele>1303</ele></trkpt>
<trkpt lat="46.9014" lon="10.49584"><ele>1305</ele></trkpt>
<trkpt lat="46.90153" lon="10.49564"><ele>1302</ele></trkpt>
<trkpt lat="46.90146" lon="10.4954"><ele>1301</ele></trkpt>
<trkpt lat="46.90121" lon="10.49525"><ele>1299</ele></trkpt>
<trkpt lat="46.9008" lon="10.49506"><ele>1299</ele></trkpt>
<trkpt lat="46.9004" lon="10.49505"><ele>1299</ele></trkpt>
<trkpt lat="46.89961" lon="10.49522"><ele>1296</ele></trkpt>
<trkpt lat="46.89897" lon="10.49532"><ele>1293</ele></trkpt>
<trkpt lat="46.89852" lon="10.49527"><ele>1287</ele></trkpt>
<trkpt lat="46.89831" lon="10.4951"><ele>1287</ele></trkpt>
<trkpt lat="46.8979" lon="10.49467"><ele>1289</ele></trkpt>
<trkpt lat="46.89727" lon="10.49434"><ele>1285</ele></trkpt>
<trkpt lat="46.89695" lon="10.49421"><ele>1285</ele></trkpt>
<trkpt lat="46.89679" lon="10.49401"><ele>1282</ele></trkpt>
<trkpt lat="46.89682" lon="10.49378"><ele>1282</ele></trkpt>
<trkpt lat="46.89696" lon="10.49374"><ele>1283</ele></trkpt>
<trkpt lat="46.89739" lon="10.49386"><ele>1281</ele></trkpt>
<trkpt lat="46.898" lon="10.49402"><ele>1276</ele></trkpt>
<trkpt lat="46.89839" lon="10.49417"><ele>1273</ele></trkpt>
<trkpt lat="46.89881" lon="10.4943"><ele>1272</ele></trkpt>
<trkpt lat="46.8993" lon="10.4942"><ele>1271</ele></trkpt>
<trkpt lat="46.89966" lon="10.49399"><ele>1272</ele></trkpt>
<trkpt lat="46.89998" lon="10.49372"><ele>1268</ele></trkpt>
<trkpt lat="46.90024" lon="10.49338"><ele>1264</ele></trkpt>
<trkpt lat="46.90075" lon="10.49291"><ele>1261</ele></trkpt>
<trkpt lat="46.9011" lon="10.49272"><ele>1262</ele></trkpt>
<trkpt lat="46.90144" lon="10.49247"><ele>1261</ele></trkpt>
<trkpt lat="46.90169" lon="10.49242"><ele>1257</ele></trkpt>
<trkpt lat="46.90186" lon="10.49237"><ele>1255</ele></trkpt>
<trkpt lat="46.90217" lon="10.49241"><ele>1255</ele></trkpt>
<trkpt lat="46.90304" lon="10.49301"><ele>1250</ele></trkpt>
<trkpt lat="46.90424" lon="10.49389"><ele>1244</ele></trkpt>
<trkpt lat="46.90482" lon="10.49434"><ele>1242</ele></trkpt>
<trkpt lat="46.9052" lon="10.49442"><ele>1240</ele></trkpt>
<trkpt lat="46.90543" lon="10.49446"><ele>1239</ele></trkpt>
<trkpt lat="46.9057" lon="10.49465"><ele>1238</ele></trkpt>
<trkpt lat="46.90669" lon="10.49538"><ele>1233</ele></trkpt>
<trkpt lat="46.90731" lon="10.49586"><ele>1229</ele></trkpt>
<trkpt lat="46.90792" lon="10.49615"><ele>1226</ele></trkpt>
<trkpt lat="46.9082" lon="10.49621"><ele>1223</ele></trkpt>
<trkpt lat="46.90857" lon="10.49622"><ele>1222</ele></trkpt>
<trkpt lat="46.90903" lon="10.4961"><ele>1220</ele></trkpt>
<trkpt lat="46.9096" lon="10.49577"><ele>1219</ele></trkpt>
<trkpt lat="46.91009" lon="10.49545"><ele>1217</ele></trkpt>
<trkpt lat="46.91048" lon="10.49529"><ele>1220</ele></trkpt>
<trkpt lat="46.91093" lon="10.49526"><ele>1234</ele></trkpt>
<trkpt lat="46.91134" lon="10.49527"><ele>1222</ele></trkpt>
<trkpt lat="46.91172" lon="10.49513"><ele>1210</ele></trkpt>
<trkpt lat="46.91219" lon="10.49484"><ele>1206</ele></trkpt>
<trkpt lat="46.91262" lon="10.49438"><ele>1202</ele></trkpt>
<trkpt lat="46.91296" lon="10.49387"><ele>1197</ele></trkpt>
<trkpt lat="46.9132" lon="10.49354"><ele>1193</ele></trkpt>
<trkpt lat="46.91359" lon="10.4931"><ele>1188</ele></trkpt>
<trkpt lat="46.91392" lon="10.49291"><ele>1196</ele></trkpt>
<trkpt lat="46.91443" lon="10.49244"><ele>1196</ele></trkpt>
<trkpt lat="46.91468" lon="10.49187"><ele>1195</ele></trkpt>
<trkpt lat="46.91498" lon="10.4912"><ele>1193</ele></trkpt>
<trkpt lat="46.91545" lon="10.49056"><ele>1234</ele></trkpt>
<trkpt lat="46.9157" lon="10.4904"><ele>1262</ele></trkpt>
<trkpt lat="46.916" lon="10.49039"><ele>1260</ele></trkpt>
<trkpt lat="46.91646" lon="10.49046"><ele>1246</ele></trkpt>
<trkpt lat="46.91684" lon="10.4904"><ele>1198</ele></trkpt>
<trkpt lat="46.91721" lon="10.4902"><ele>1194</ele></trkpt>
<trkpt lat="46.91769" lon="10.48983"><ele>1188</ele></trkpt>
<trkpt lat="46.91817" lon="10.48971"><ele>1193</ele></trkpt>
<trkpt lat="46.9188" lon="10.48973"><ele>1211</ele></trkpt>
<trkpt lat="46.91933" lon="10.48986"><ele>1200</ele></trkpt>
<trkpt lat="46.9197" lon="10.49011"><ele>1223</ele></trkpt>
<trkpt lat="46.92" lon="10.49031"><ele>1281</ele></trkpt>
<trkpt lat="46.92048" lon="10.4906"><ele>1294</ele></trkpt>
<trkpt lat="46.9211" lon="10.49083"><ele>1249</ele></trkpt>
<trkpt lat="46.92138" lon="10.49078"><ele>1214</ele></trkpt>
<trkpt lat="46.92198" lon="10.49056"><ele>1247</ele></trkpt>
<trkpt lat="46.92241" lon="10.49037"><ele>1282</ele></trkpt>
<trkpt lat="46.92303" lon="10.49022"><ele>1213</ele></trkpt>
<trkpt lat="46.92463" lon="10.49075"><ele>1176</ele></trkpt>
<trkpt lat="46.92507" lon="10.49103"><ele>1161</ele></trkpt>
<trkpt lat="46.92578" lon="10.49156"><ele>1162</ele></trkpt>
<trkpt lat="46.9267" lon="10.4922"><ele>1154</ele></trkpt>
<trkpt lat="46.92758" lon="10.49274"><ele>1158</ele></trkpt>
<trkpt lat="46.9282" lon="10.49303"><ele>1147</ele></trkpt>
<trkpt lat="46.92872" lon="10.49345"><ele>1151</ele></trkpt>
<trkpt lat="46.92896" lon="10.49361"><ele>1151</ele></trkpt>
<trkpt lat="46.92933" lon="10.49352"><ele>1151</ele></trkpt>
<trkpt lat="46.9296" lon="10.49328"><ele>1146</ele></trkpt>
<trkpt lat="46.9295" lon="10.49324"><ele>1142</ele></trkpt>
<trkpt lat="46.92925" lon="10.4933"><ele>1141</ele></trkpt>
<trkpt lat="46.92897" lon="10.49323"><ele>1135</ele></trkpt>
<trkpt lat="46.92872" lon="10.49304"><ele>1134</ele></trkpt>
<trkpt lat="46.92847" lon="10.4929"><ele>1134</ele></trkpt>
<trkpt lat="46.92791" lon="10.49252"><ele>1135</ele></trkpt>
<trkpt lat="46.92781" lon="10.49233"><ele>1130</ele></trkpt>
<trkpt lat="46.92756" lon="10.49213"><ele>1134</ele></trkpt>
<trkpt lat="46.92686" lon="10.49159"><ele>1123</ele></trkpt>
<trkpt lat="46.9264" lon="10.49111"><ele>1113</ele></trkpt>
<trkpt lat="46.92613" lon="10.49068"><ele>1102</ele></trkpt>
<trkpt lat="46.92593" lon="10.49048"><ele>1101</ele></trkpt>
<trkpt lat="46.92561" lon="10.49028"><ele>1095</ele></trkpt>
<trkpt lat="46.92518" lon="10.48986"><ele>1090</ele></trkpt>
<trkpt lat="46.92469" lon="10.48938"><ele>1078</ele></trkpt>
<trkpt lat="46.92442" lon="10.48914"><ele>1072</ele></trkpt>
<trkpt lat="46.9242" lon="10.48901"><ele>1071</ele></trkpt>
<trkpt lat="46.92415" lon="10.48891"><ele>1073</ele></trkpt>
<trkpt lat="46.92422" lon="10.48886"><ele>1066</ele></trkpt>
<trkpt lat="46.92436" lon="10.48893"><ele>1066</ele></trkpt>
<trkpt lat="46.92462" lon="10.48898"><ele>1058</ele></trkpt>
<trkpt lat="46.9251" lon="10.48919"><ele>1058</ele></trkpt>
<trkpt lat="46.92563" lon="10.48938"><ele>1050</ele></trkpt>
<trkpt lat="46.92622" lon="10.48943"><ele>1044</ele></trkpt>
<trkpt lat="46.92636" lon="10.48937"><ele>1036</ele></trkpt>
<trkpt lat="46.92674" lon="10.48931"><ele>1032</ele></trkpt>
<trkpt lat="46.92694" lon="10.48935"><ele>1031</ele></trkpt>
<trkpt lat="46.92841" lon="10.48867"><ele>1009</ele></trkpt>
<trkpt lat="46.9285" lon="10.4886"><ele>1007</ele></trkpt>
<trkpt lat="46.92887" lon="10.48808"><ele>1000</ele></trkpt>
<trkpt lat="46.92912" lon="10.48774"><ele>996</ele></trkpt>
<trkpt lat="46.92923" lon="10.48751"><ele>997</ele></trkpt>
<trkpt lat="46.92927" lon="10.48703"><ele>1000</ele></trkpt>
<trkpt lat="46.92921" lon="10.48686"><ele>989</ele></trkpt>
<trkpt lat="46.92911" lon="10.48662"><ele>991</ele></trkpt>
<trkpt lat="46.9291" lon="10.4866"><ele>994</ele></trkpt>
<trkpt lat="46.92909" lon="10.48655"><ele>994</ele></trkpt>
<trkpt lat="46.92924" lon="10.4863"><ele>993</ele></trkpt>
<trkpt lat="46.92948" lon="10.48601"><ele>993</ele></trkpt>
<trkpt lat="46.92967" lon="10.48575"><ele>996</ele></trkpt>
<trkpt lat="46.92981" lon="10.4856"><ele>996</ele></trkpt>
<trkpt lat="46.92985" lon="10.48558"><ele>999</ele></trkpt>
<trkpt lat="46.92994" lon="10.48554"><ele>998</ele></trkpt>
<trkpt lat="46.93002" lon="10.48551"><ele>998</ele></trkpt>
<trkpt lat="46.93011" lon="10.48549"><ele>997</ele></trkpt>
<trkpt lat="46.93021" lon="10.48546"><ele>996</ele></trkpt>
<trkpt lat="46.93049" lon="10.48537"><ele>1001</ele></trkpt>
<trkpt lat="46.93071" lon="10.48532"><ele>1007</ele></trkpt>
<trkpt lat="46.93098" lon="10.48535"><ele>1000</ele></trkpt>
<trkpt lat="46.93118" lon="10.48535"><ele>1001</ele></trkpt>
<trkpt lat="46.93126" lon="10.48536"><ele>1001</ele></trkpt>
<trkpt lat="46.93138" lon="10.48536"><ele>1002</ele></trkpt>
<trkpt lat="46.93149" lon="10.4854"><ele>1004</ele></trkpt>
<trkpt lat="46.93171" lon="10.48544"><ele>1006</ele></trkpt>
<trkpt lat="46.93198" lon="10.48549"><ele>1004</ele></trkpt>
<trkpt lat="46.93259" lon="10.48576"><ele>1007</ele></trkpt>
<trkpt lat="46.93304" lon="10.48599"><ele>1006</ele></trkpt>
<trkpt lat="46.93316" lon="10.48614"><ele>1005</ele></trkpt>
<trkpt lat="46.93327" lon="10.48635"><ele>1012</ele></trkpt>
<trkpt lat="46.93343" lon="10.48654"><ele>1009</ele></trkpt>
<trkpt lat="46.93362" lon="10.48676"><ele>1007</ele></trkpt>
<trkpt lat="46.93399" lon="10.48742"><ele>1002</ele></trkpt>
<trkpt lat="46.93413" lon="10.48765"><ele>1002</ele></trkpt>
<trkpt lat="46.93428" lon="10.48794"><ele>999</ele></trkpt>
<trkpt lat="46.93433" lon="10.48804"><ele>999</ele></trkpt>
<trkpt lat="46.93435" lon="10.48814"><ele>997</ele></trkpt>
<trkpt lat="46.93443" lon="10.48832"><ele>997</ele></trkpt>
<trkpt lat="46.93445" lon="10.48835"><ele>997</ele></trkpt>
<trkpt lat="46.93456" lon="10.48848"><ele>998</ele></trkpt>
<trkpt lat="46.93468" lon="10.48874"><ele>996</ele></trkpt>
<trkpt lat="46.93473" lon="10.48882"><ele>994</ele></trkpt>
<trkpt lat="46.93487" lon="10.48897"><ele>995</ele></trkpt>
<trkpt lat="46.93502" lon="10.4891"><ele>996</ele></trkpt>
<trkpt lat="46.93521" lon="10.48919"><ele>995</ele></trkpt>
<trkpt lat="46.93541" lon="10.48931"><ele>995</ele></trkpt>
<trkpt lat="46.93569" lon="10.48949"><ele>995</ele></trkpt>
<trkpt lat="46.93584" lon="10.48961"><ele>994</ele></trkpt>
<trkpt lat="46.93598" lon="10.48974"><ele>995</ele></trkpt>
<trkpt lat="46.93607" lon="10.48988"><ele>994</ele></trkpt>
<trkpt lat="46.93614" lon="10.49003"><ele>993</ele></trkpt>
<trkpt lat="46.93621" lon="10.49014"><ele>992</ele></trkpt>
<trkpt lat="46.9363" lon="10.49021"><ele>992</ele></trkpt>
<trkpt lat="46.93653" lon="10.49031"><ele>990</ele></trkpt>
<trkpt lat="46.93673" lon="10.49037"><ele>992</ele></trkpt>
<trkpt lat="46.9368" lon="10.49051"><ele>988</ele></trkpt>
<trkpt lat="46.93687" lon="10.49067"><ele>989</ele></trkpt>
<trkpt lat="46.93689" lon="10.4909"><ele>991</ele></trkpt>
<trkpt lat="46.93693" lon="10.49109"><ele>993</ele></trkpt>
<trkpt lat="46.93709" lon="10.49131"><ele>999</ele></trkpt>
<trkpt lat="46.93737" lon="10.49161"><ele>997</ele></trkpt>
<trkpt lat="46.93792" lon="10.49219"><ele>1001</ele></trkpt>
<trkpt lat="46.93811" lon="10.49234"><ele>1003</ele></trkpt>
<trkpt lat="46.93811" lon="10.49234"><ele>1003</ele></trkpt>
<trkpt lat="46.93817" lon="10.49245"><ele>1002</ele></trkpt>
<trkpt lat="46.93838" lon="10.49263"><ele>998</ele></trkpt>
<trkpt lat="46.93856" lon="10.49276"><ele>999</ele></trkpt>
<trkpt lat="46.9388" lon="10.49308"><ele>1002</ele></trkpt>
<trkpt lat="46.93904" lon="10.49337"><ele>1004</ele></trkpt>
<trkpt lat="46.93939" lon="10.49382"><ele>999</ele></trkpt>
<trkpt lat="46.93956" lon="10.49405"><ele>997</ele></trkpt>
<trkpt lat="46.93993" lon="10.49457"><ele>997</ele></trkpt>
<trkpt lat="46.94011" lon="10.49488"><ele>998</ele></trkpt>
<trkpt lat="46.94035" lon="10.49531"><ele>994</ele></trkpt>
<trkpt lat="46.94069" lon="10.49586"><ele>998</ele></trkpt>
<trkpt lat="46.94094" lon="10.49618"><ele>1001</ele></trkpt>
<trkpt lat="46.94106" lon="10.49632"><ele>996</ele></trkpt>
<trkpt lat="46.94106" lon="10.49632"><ele>996</ele></trkpt>
<trkpt lat="46.94106" lon="10.49632"><ele>996</ele></trkpt>
<trkpt lat="46.94106" lon="10.49632"><ele>996</ele></trkpt>
<trkpt lat="46.94125" lon="10.49655"><ele>999</ele></trkpt>
<trkpt lat="46.9414" lon="10.49668"><ele>1001</ele></trkpt>
<trkpt lat="46.94147" lon="10.49676"><ele>1000</ele></trkpt>
<trkpt lat="46.9416" lon="10.4969"><ele>1000</ele></trkpt>
<trkpt lat="46.94171" lon="10.49703"><ele>1001</ele></trkpt>
<trkpt lat="46.94189" lon="10.49724"><ele>1001</ele></trkpt>
<trkpt lat="46.94204" lon="10.49743"><ele>1002</ele></trkpt>
<trkpt lat="46.94233" lon="10.49786"><ele>1001</ele></trkpt>
<trkpt lat="46.94249" lon="10.49812"><ele>999</ele></trkpt>
<trkpt lat="46.94266" lon="10.4984"><ele>999</ele></trkpt>
<trkpt lat="46.94281" lon="10.4987"><ele>1000</ele></trkpt>
<trkpt lat="46.94292" lon="10.49893"><ele>999</ele></trkpt>
<trkpt lat="46.943" lon="10.49911"><ele>1000</ele></trkpt>
<trkpt lat="46.94315" lon="10.49944"><ele>1000</ele></trkpt>
<trkpt lat="46.94332" lon="10.49983"><ele>999</ele></trkpt>
<trkpt lat="46.94337" lon="10.49996"><ele>1000</ele></trkpt>
<trkpt lat="46.94337" lon="10.50007"><ele>998</ele></trkpt>
<trkpt lat="46.94341" lon="10.50019"><ele>996</ele></trkpt>
<trkpt lat="46.94369" lon="10.50059"><ele>997</ele></trkpt>
<trkpt lat="46.94383" lon="10.50086"><ele>997</ele></trkpt>
<trkpt lat="46.94399" lon="10.50111"><ele>999</ele></trkpt>
<trkpt lat="46.94416" lon="10.50142"><ele>999</ele></trkpt>
<trkpt lat="46.94436" lon="10.50175"><ele>999</ele></trkpt>
<trkpt lat="46.94459" lon="10.50211"><ele>998</ele></trkpt>
<trkpt lat="46.94482" lon="10.50245"><ele>995</ele></trkpt>
<trkpt lat="46.94506" lon="10.50279"><ele>997</ele></trkpt>
<trkpt lat="46.94522" lon="10.50303"><ele>998</ele></trkpt>
<trkpt lat="46.94538" lon="10.50336"><ele>996</ele></trkpt>
<trkpt lat="46.94548" lon="10.50358"><ele>996</ele></trkpt>
<trkpt lat="46.94568" lon="10.50418"><ele>996</ele></trkpt>
<trkpt lat="46.94588" lon="10.50471"><ele>997</ele></trkpt>
<trkpt lat="46.94615" lon="10.50517"><ele>996</ele></trkpt>
<trkpt lat="46.9464" lon="10.50545"><ele>996</ele></trkpt>
<trkpt lat="46.94657" lon="10.50558"><ele>996</ele></trkpt>
<trkpt lat="46.94686" lon="10.50575"><ele>994</ele></trkpt>
<trkpt lat="46.94714" lon="10.50585"><ele>993</ele></trkpt>
<trkpt lat="46.94737" lon="10.50591"><ele>990</ele></trkpt>
<trkpt lat="46.94766" lon="10.50593"><ele>986</ele></trkpt>
<trkpt lat="46.94793" lon="10.50598"><ele>987</ele></trkpt>
<trkpt lat="46.94824" lon="10.50608"><ele>983</ele></trkpt>
<trkpt lat="46.94844" lon="10.50623"><ele>982</ele></trkpt>
<trkpt lat="46.94865" lon="10.50638"><ele>983</ele></trkpt>
<trkpt lat="46.94886" lon="10.5066"><ele>984</ele></trkpt>
<trkpt lat="46.94886" lon="10.5066"><ele>984</ele></trkpt>
<trkpt lat="46.94886" lon="10.5066"><ele>984</ele></trkpt>
<trkpt lat="46.94886" lon="10.5066"><ele>984</ele></trkpt>
<trkpt lat="46.94915" lon="10.50695"><ele>984</ele></trkpt>
<trkpt lat="46.94923" lon="10.50705"><ele>985</ele></trkpt>
<trkpt lat="46.94948" lon="10.5074"><ele>985</ele></trkpt>
<trkpt lat="46.95034" lon="10.50831"><ele>985</ele></trkpt>
<trkpt lat="46.95113" lon="10.50955"><ele>980</ele></trkpt>
<trkpt lat="46.95184" lon="10.51113"><ele>981</ele></trkpt>
<trkpt lat="46.95202" lon="10.51137"><ele>981</ele></trkpt>
<trkpt lat="46.95212" lon="10.5114"><ele>977</ele></trkpt>
<trkpt lat="46.95223" lon="10.51139"><ele>977</ele></trkpt>
<trkpt lat="46.95237" lon="10.51139"><ele>977</ele></trkpt>
<trkpt lat="46.95256" lon="10.51134"><ele>979</ele></trkpt>
<trkpt lat="46.95264" lon="10.51136"><ele>978</ele></trkpt>
<trkpt lat="46.95294" lon="10.51152"><ele>975</ele></trkpt>
<trkpt lat="46.95334" lon="10.5114"><ele>977</ele></trkpt>
<trkpt lat="46.9535" lon="10.51141"><ele>977</ele></trkpt>
<trkpt lat="46.95366" lon="10.51146"><ele>977</ele></trkpt>
<trkpt lat="46.95376" lon="10.51149"><ele>978</ele></trkpt>
<trkpt lat="46.954" lon="10.51161"><ele>976</ele></trkpt>
<trkpt lat="46.95405" lon="10.51157"><ele>977</ele></trkpt>
<trkpt lat="46.95414" lon="10.51161"><ele>979</ele></trkpt>
<trkpt lat="46.95424" lon="10.51167"><ele>977</ele></trkpt>
<trkpt lat="46.95482" lon="10.51225"><ele>980</ele></trkpt>
<trkpt lat="46.95513" lon="10.51261"><ele>978</ele></trkpt>
<trkpt lat="46.95521" lon="10.51271"><ele>977</ele></trkpt>
<trkpt lat="46.95521" lon="10.51271"><ele>977</ele></trkpt>
<trkpt lat="46.95524" lon="10.51293"><ele>974</ele></trkpt>
<trkpt lat="46.95512" lon="10.51342"><ele>973</ele></trkpt>
<trkpt lat="46.95507" lon="10.51358"><ele>972</ele></trkpt>
<trkpt lat="46.95507" lon="10.51358"><ele>972</ele></trkpt>
<trkpt lat="46.95507" lon="10.51358"><ele>972</ele></trkpt>
<trkpt lat="46.95507" lon="10.51358"><ele>972</ele></trkpt>
<trkpt lat="46.95502" lon="10.51376"><ele>972</ele></trkpt>
<trkpt lat="46.95499" lon="10.51385"><ele>971</ele></trkpt>
<trkpt lat="46.95492" lon="10.5141"><ele>971</ele></trkpt>
<trkpt lat="46.9549" lon="10.51423"><ele>971</ele></trkpt>
<trkpt lat="46.9549" lon="10.51426"><ele>971</ele></trkpt>
<trkpt lat="46.95489" lon="10.51434"><ele>969</ele></trkpt>
<trkpt lat="46.95483" lon="10.51512"><ele>974</ele></trkpt>
<trkpt lat="46.95484" lon="10.51518"><ele>974</ele></trkpt>
<trkpt lat="46.9549" lon="10.51524"><ele>976</ele></trkpt>
<trkpt lat="46.95497" lon="10.51529"><ele>974</ele></trkpt>
<trkpt lat="46.95498" lon="10.51533"><ele>974</ele></trkpt>
<trkpt lat="46.95498" lon="10.51533"><ele>974</ele></trkpt>
<trkpt lat="46.95494" lon="10.51535"><ele>977</ele></trkpt>
<trkpt lat="46.95486" lon="10.51548"><ele>979</ele></trkpt>
<trkpt lat="46.95486" lon="10.51565"><ele>980</ele></trkpt>
<trkpt lat="46.95493" lon="10.51591"><ele>981</ele></trkpt>
<trkpt lat="46.95501" lon="10.51614"><ele>983</ele></trkpt>
<trkpt lat="46.95509" lon="10.51644"><ele>983</ele></trkpt>
<trkpt lat="46.9551" lon="10.51659"><ele>984</ele></trkpt>
<trkpt lat="46.9553" lon="10.51704"><ele>986</ele></trkpt>
<trkpt lat="46.95545" lon="10.51762"><ele>983</ele></trkpt>
<trkpt lat="46.95549" lon="10.51814"><ele>982</ele></trkpt>
<trkpt lat="46.95547" lon="10.51873"><ele>985</ele></trkpt>
<trkpt lat="46.95557" lon="10.51917"><ele>985</ele></trkpt>
<trkpt lat="46.95575" lon="10.51956"><ele>984</ele></trkpt>
<trkpt lat="46.95575" lon="10.51956"><ele>984</ele></trkpt>
<trkpt lat="46.95575" lon="10.51956"><ele>984</ele></trkpt>
<trkpt lat="46.95575" lon="10.51956"><ele>984</ele></trkpt>
<trkpt lat="46.9558" lon="10.51969"><ele>985</ele></trkpt>
<trkpt lat="46.95589" lon="10.52015"><ele>985</ele></trkpt>
<trkpt lat="46.95603" lon="10.52047"><ele>987</ele></trkpt>
<trkpt lat="46.95615" lon="10.52062"><ele>987</ele></trkpt>
<trkpt lat="46.95625" lon="10.52074"><ele>987</ele></trkpt>
<trkpt lat="46.95645" lon="10.52111"><ele>988</ele></trkpt>
<trkpt lat="46.95661" lon="10.5215"><ele>992</ele></trkpt>
<trkpt lat="46.95678" lon="10.52211"><ele>993</ele></trkpt>
<trkpt lat="46.95694" lon="10.52269"><ele>995</ele></trkpt>
<trkpt lat="46.95707" lon="10.52307"><ele>994</ele></trkpt>
<trkpt lat="46.95715" lon="10.52324"><ele>992</ele></trkpt>
<trkpt lat="46.95721" lon="10.52345"><ele>994</ele></trkpt>
<trkpt lat="46.95725" lon="10.52398"><ele>994</ele></trkpt>
<trkpt lat="46.95727" lon="10.52414"><ele>993</ele></trkpt>
<trkpt lat="46.95731" lon="10.52435"><ele>993</ele></trkpt>
<trkpt lat="46.95739" lon="10.52464"><ele>993</ele></trkpt>
<trkpt lat="46.95751" lon="10.5248"><ele>994</ele></trkpt>
<trkpt lat="46.9578" lon="10.52503"><ele>988</ele></trkpt>
<trkpt lat="46.95815" lon="10.52522"><ele>985</ele></trkpt>
<trkpt lat="46.95828" lon="10.52524"><ele>982</ele></trkpt>
<trkpt lat="46.95846" lon="10.52519"><ele>980</ele></trkpt>
<trkpt lat="46.95863" lon="10.52514"><ele>980</ele></trkpt>
<trkpt lat="46.95873" lon="10.52514"><ele>980</ele></trkpt>
<trkpt lat="46.95873" lon="10.52514"><ele>980</ele></trkpt>
<trkpt lat="46.95882" lon="10.52521"><ele>980</ele></trkpt>
<trkpt lat="46.95894" lon="10.52542"><ele>979</ele></trkpt>
<trkpt lat="46.95904" lon="10.52562"><ele>979</ele></trkpt>
<trkpt lat="46.95912" lon="10.52585"><ele>979</ele></trkpt>
<trkpt lat="46.95918" lon="10.52615"><ele>979</ele></trkpt>
<trkpt lat="46.95926" lon="10.52665"><ele>978</ele></trkpt>
<trkpt lat="46.95935" lon="10.52721"><ele>978</ele></trkpt>
<trkpt lat="46.9594" lon="10.5275"><ele>978</ele></trkpt>
<trkpt lat="46.95943" lon="10.52765"><ele>978</ele></trkpt>
<trkpt lat="46.95947" lon="10.52777"><ele>978</ele></trkpt>
<trkpt lat="46.95952" lon="10.5279"><ele>978</ele></trkpt>
<trkpt lat="46.95959" lon="10.52804"><ele>978</ele></trkpt>
<trkpt lat="46.95969" lon="10.52817"><ele>978</ele></trkpt>
<trkpt lat="46.95985" lon="10.52832"><ele>977</ele></trkpt>
<trkpt lat="46.96017" lon="10.52854"><ele>977</ele></trkpt>
<trkpt lat="46.96034" lon="10.52869"><ele>977</ele></trkpt>
<trkpt lat="46.96055" lon="10.52897"><ele>977</ele></trkpt>
<trkpt lat="46.96083" lon="10.52947"><ele>977</ele></trkpt>
<trkpt lat="46.96148" lon="10.53071"><ele>976</ele></trkpt>
<trkpt lat="46.9619" lon="10.53162"><ele>975</ele></trkpt>
<trkpt lat="46.96221" lon="10.5325"><ele>974</ele></trkpt>
<trkpt lat="46.96247" lon="10.53352"><ele>974</ele></trkpt>
<trkpt lat="46.96272" lon="10.53444"><ele>973</ele></trkpt>
<trkpt lat="46.96281" lon="10.53482"><ele>972</ele></trkpt>
<trkpt lat="46.96283" lon="10.53487"><ele>972</ele></trkpt>
<trkpt lat="46.96283" lon="10.53487"><ele>972</ele></trkpt>
<trkpt lat="46.96283" lon="10.53487"><ele>972</ele></trkpt>
<trkpt lat="46.96283" lon="10.53487"><ele>972</ele></trkpt>
<trkpt lat="46.9629" lon="10.53501"><ele>972</ele></trkpt>
<trkpt lat="46.96298" lon="10.53509"><ele>972</ele></trkpt>
<trkpt lat="46.96333" lon="10.53536"><ele>972</ele></trkpt>
<trkpt lat="46.96357" lon="10.53561"><ele>971</ele></trkpt>
<trkpt lat="46.96375" lon="10.53588"><ele>971</ele></trkpt>
<trkpt lat="46.9639" lon="10.53618"><ele>970</ele></trkpt>
<trkpt lat="46.96401" lon="10.53648"><ele>969</ele></trkpt>
<trkpt lat="46.96406" lon="10.53672"><ele>969</ele></trkpt>
<trkpt lat="46.96411" lon="10.53686"><ele>969</ele></trkpt>
<trkpt lat="46.9642" lon="10.53734"><ele>968</ele></trkpt>
<trkpt lat="46.96431" lon="10.53777"><ele>968</ele></trkpt>
<trkpt lat="46.96462" lon="10.53879"><ele>970</ele></trkpt>
<trkpt lat="46.96465" lon="10.53886"><ele>970</ele></trkpt>
<trkpt lat="46.96472" lon="10.53895"><ele>970</ele></trkpt>
<trkpt lat="46.965" lon="10.53924"><ele>972</ele></trkpt>
<trkpt lat="46.96515" lon="10.53941"><ele>973</ele></trkpt>
<trkpt lat="46.96522" lon="10.53948"><ele>973</ele></trkpt>
<trkpt lat="46.9655" lon="10.53973"><ele>972</ele></trkpt>
<trkpt lat="46.96583" lon="10.53985"><ele>971</ele></trkpt>
<trkpt lat="46.96598" lon="10.53993"><ele>971</ele></trkpt>
<trkpt lat="46.96617" lon="10.54015"><ele>972</ele></trkpt>
<trkpt lat="46.96617" lon="10.54015"><ele>972</ele></trkpt>
<trkpt lat="46.96682" lon="10.54039"><ele>970</ele></trkpt>
<trkpt lat="46.96708" lon="10.54068"><ele>967</ele></trkpt>
<trkpt lat="46.96708" lon="10.54068"><ele>967</ele></trkpt>
<trkpt lat="46.96732" lon="10.54043"><ele>965</ele></trkpt>
<trkpt lat="46.96749" lon="10.54027"><ele>963</ele></trkpt>
<trkpt lat="46.9677" lon="10.54019"><ele>963</ele></trkpt>
<trkpt lat="46.9677" lon="10.54019"><ele>963</ele></trkpt>
<trkpt lat="46.9677" lon="10.54019"><ele>963</ele></trkpt>
<trkpt lat="46.9677" lon="10.54019"><ele>963</ele></trkpt>
<trkpt lat="46.96765" lon="10.54065"><ele>966</ele></trkpt>
<trkpt lat="46.96765" lon="10.54065"><ele>966</ele></trkpt>
<trkpt lat="46.96772" lon="10.54068"><ele>966</ele></trkpt>
<trkpt lat="46.96786" lon="10.54064"><ele>966</ele></trkpt>
<trkpt lat="46.96795" lon="10.54071"><ele>965</ele></trkpt>
<trkpt lat="46.96795" lon="10.54071"><ele>965</ele></trkpt>
<trkpt lat="46.96801" lon="10.54081"><ele>966</ele></trkpt>
<trkpt lat="46.96813" lon="10.5412"><ele>966</ele></trkpt>
<trkpt lat="46.96812" lon="10.54141"><ele>968</ele></trkpt>
<trkpt lat="46.96797" lon="10.54202"><ele>969</ele></trkpt>
<trkpt lat="46.96792" lon="10.5422"><ele>970</ele></trkpt>
<trkpt lat="46.96792" lon="10.5422"><ele>970</ele></trkpt>
<trkpt lat="46.96801" lon="10.54252"><ele>971</ele></trkpt>
<trkpt lat="46.96808" lon="10.54279"><ele>972</ele></trkpt>
<trkpt lat="46.96811" lon="10.54287"><ele>972</ele></trkpt>
<trkpt lat="46.96807" lon="10.5432"><ele>973</ele></trkpt>
<trkpt lat="46.96806" lon="10.54332"><ele>973</ele></trkpt>
<trkpt lat="46.96806" lon="10.54332"><ele>973</ele></trkpt>
<trkpt lat="46.96808" lon="10.54334"><ele>973</ele></trkpt>
<trkpt lat="46.96809" lon="10.54337"><ele>973</ele></trkpt>
<trkpt lat="46.96809" lon="10.54339"><ele>973</ele></trkpt>
<trkpt lat="46.96809" lon="10.54342"><ele>973</ele></trkpt>
<trkpt lat="46.96809" lon="10.54345"><ele>972</ele></trkpt>
<trkpt lat="46.96808" lon="10.54348"><ele>972</ele></trkpt>
<trkpt lat="46.96808" lon="10.54348"><ele>972</ele></trkpt>
<trkpt lat="46.96806" lon="10.5435"><ele>972</ele></trkpt>
<trkpt lat="46.96805" lon="10.54351"><ele>972</ele></trkpt>
<trkpt lat="46.96803" lon="10.54352"><ele>973</ele></trkpt>
<trkpt lat="46.96801" lon="10.54352"><ele>973</ele></trkpt>
<trkpt lat="46.96801" lon="10.54352"><ele>973</ele></trkpt>
<trkpt lat="46.968" lon="10.5436"><ele>972</ele></trkpt>
<trkpt lat="46.96803" lon="10.5438"><ele>972</ele></trkpt>
<trkpt lat="46.96803" lon="10.54384"><ele>972</ele></trkpt>
<trkpt lat="46.96811" lon="10.544"><ele>973</ele></trkpt>
<trkpt lat="46.96811" lon="10.544"><ele>973</ele></trkpt>
<trkpt lat="46.96831" lon="10.54407"><ele>971</ele></trkpt>
<trkpt lat="46.96863" lon="10.54417"><ele>969</ele></trkpt>
<trkpt lat="46.96867" lon="10.54417"><ele>969</ele></trkpt>
<trkpt lat="46.96867" lon="10.54417"><ele>969</ele></trkpt>
<trkpt lat="46.96867" lon="10.54417"><ele>969</ele></trkpt>
<trkpt lat="46.96867" lon="10.54417"><ele>969</ele></trkpt>
<trkpt lat="46.96897" lon="10.54414"><ele>966</ele></trkpt>
<trkpt lat="46.96923" lon="10.54433"><ele>965</ele></trkpt>
<trkpt lat="46.96947" lon="10.54452"><ele>963</ele></trkpt>
<trkpt lat="46.9697" lon="10.54467"><ele>962</ele></trkpt>
<trkpt lat="46.96998" lon="10.54486"><ele>960</ele></trkpt>
<trkpt lat="46.97022" lon="10.54511"><ele>959</ele></trkpt>
<trkpt lat="46.97062" lon="10.54557"><ele>957</ele></trkpt>
<trkpt lat="46.97092" lon="10.54592"><ele>956</ele></trkpt>
<trkpt lat="46.97106" lon="10.54616"><ele>956</ele></trkpt>
<trkpt lat="46.97116" lon="10.54658"><ele>955</ele></trkpt>
<trkpt lat="46.97151" lon="10.54773"><ele>954</ele></trkpt>
<trkpt lat="46.97197" lon="10.54906"><ele>953</ele></trkpt>
<trkpt lat="46.97242" lon="10.55012"><ele>953</ele></trkpt>
<trkpt lat="46.97304" lon="10.5513"><ele>952</ele></trkpt>
<trkpt lat="46.97319" lon="10.55153"><ele>952</ele></trkpt>
<trkpt lat="46.97344" lon="10.55189"><ele>952</ele></trkpt>
<trkpt lat="46.97399" lon="10.5527"><ele>951</ele></trkpt>
<trkpt lat="46.97468" lon="10.55367"><ele>951</ele></trkpt>
<trkpt lat="46.97527" lon="10.55454"><ele>951</ele></trkpt>
<trkpt lat="46.97554" lon="10.55488"><ele>951</ele></trkpt>
<trkpt lat="46.97569" lon="10.55523"><ele>954</ele></trkpt>
<trkpt lat="46.97608" lon="10.55571"><ele>955</ele></trkpt>
<trkpt lat="46.9769" lon="10.55681"><ele>955</ele></trkpt>
<trkpt lat="46.97737" lon="10.5576"><ele>950</ele></trkpt>
<trkpt lat="46.97814" lon="10.55926"><ele>950</ele></trkpt>
<trkpt lat="46.97814" lon="10.55926"><ele>950</ele></trkpt>
<trkpt lat="46.97877" lon="10.55984"><ele>946</ele></trkpt>
<trkpt lat="46.97917" lon="10.56018"><ele>947</ele></trkpt>
<trkpt lat="46.9796" lon="10.56049"><ele>946</ele></trkpt>
<trkpt lat="46.98013" lon="10.56078"><ele>945</ele></trkpt>
<trkpt lat="46.98013" lon="10.56078"><ele>945</ele></trkpt>
<trkpt lat="46.98013" lon="10.56078"><ele>945</ele></trkpt>
<trkpt lat="46.98013" lon="10.56078"><ele>945</ele></trkpt>
<trkpt lat="46.98043" lon="10.56098"><ele>945</ele></trkpt>
<trkpt lat="46.98083" lon="10.56133"><ele>946</ele></trkpt>
<trkpt lat="46.98106" lon="10.56151"><ele>945</ele></trkpt>
<trkpt lat="46.98151" lon="10.56178"><ele>945</ele></trkpt>
<trkpt lat="46.98248" lon="10.56253"><ele>945</ele></trkpt>
<trkpt lat="46.98267" lon="10.56263"><ele>945</ele></trkpt>
<trkpt lat="46.98287" lon="10.56268"><ele>944</ele></trkpt>
<trkpt lat="46.98312" lon="10.56289"><ele>944</ele></trkpt>
<trkpt lat="46.98337" lon="10.56313"><ele>945</ele></trkpt>
<trkpt lat="46.98357" lon="10.56346"><ele>944</ele></trkpt>
<trkpt lat="46.98385" lon="10.56395"><ele>944</ele></trkpt>
<trkpt lat="46.98401" lon="10.56437"><ele>944</ele></trkpt>
<trkpt lat="46.98414" lon="10.5648"><ele>944</ele></trkpt>
<trkpt lat="46.98418" lon="10.5651"><ele>943</ele></trkpt>
<trkpt lat="46.98421" lon="10.56562"><ele>944</ele></trkpt>
<trkpt lat="46.98426" lon="10.56605"><ele>943</ele></trkpt>
<trkpt lat="46.98426" lon="10.56648"><ele>943</ele></trkpt>
<trkpt lat="46.98404" lon="10.56769"><ele>943</ele></trkpt>
<trkpt lat="46.98374" lon="10.56977"><ele>944</ele></trkpt>
<trkpt lat="46.98374" lon="10.56977"><ele>944</ele></trkpt>
<trkpt lat="46.98396" lon="10.5699"><ele>943</ele></trkpt>
<trkpt lat="46.98396" lon="10.5699"><ele>943</ele></trkpt>
<trkpt lat="46.98396" lon="10.5699"><ele>943</ele></trkpt>
<trkpt lat="46.98396" lon="10.5699"><ele>943</ele></trkpt>
<trkpt lat="46.98515" lon="10.5715"><ele>945</ele></trkpt>
<trkpt lat="46.98527" lon="10.57166"><ele>948</ele></trkpt>
<trkpt lat="46.98578" lon="10.57196"><ele>954</ele></trkpt>
<trkpt lat="46.98665" lon="10.57278"><ele>957</ele></trkpt>
<trkpt lat="46.98812" lon="10.57459"><ele>951</ele></trkpt>
<trkpt lat="46.98838" lon="10.57484"><ele>949</ele></trkpt>
<trkpt lat="46.98861" lon="10.57501"><ele>948</ele></trkpt>
<trkpt lat="46.98871" lon="10.57506"><ele>948</ele></trkpt>
<trkpt lat="46.98883" lon="10.57506"><ele>948</ele></trkpt>
<trkpt lat="46.98906" lon="10.57511"><ele>948</ele></trkpt>
<trkpt lat="46.98917" lon="10.57511"><ele>947</ele></trkpt>
<trkpt lat="46.98977" lon="10.57523"><ele>943</ele></trkpt>
<trkpt lat="46.99022" lon="10.5754"><ele>943</ele></trkpt>
<trkpt lat="46.99066" lon="10.57565"><ele>940</ele></trkpt>
<trkpt lat="46.99084" lon="10.57577"><ele>939</ele></trkpt>
<trkpt lat="46.99084" lon="10.57577"><ele>939</ele></trkpt>
<trkpt lat="46.99084" lon="10.57577"><ele>939</ele></trkpt>
<trkpt lat="46.99084" lon="10.57577"><ele>939</ele></trkpt>
<trkpt lat="46.99149" lon="10.57623"><ele>937</ele></trkpt>
<trkpt lat="46.9919" lon="10.57651"><ele>937</ele></trkpt>
<trkpt lat="46.99206" lon="10.57665"><ele>939</ele></trkpt>
<trkpt lat="46.99223" lon="10.57686"><ele>940</ele></trkpt>
<trkpt lat="46.99223" lon="10.57686"><ele>940</ele></trkpt>
<trkpt lat="46.99227" lon="10.57671"><ele>937</ele></trkpt>
<trkpt lat="46.99248" lon="10.57612"><ele>938</ele></trkpt>
<trkpt lat="46.99254" lon="10.57599"><ele>940</ele></trkpt>
<trkpt lat="46.99265" lon="10.57568"><ele>940</ele></trkpt>
<trkpt lat="46.99265" lon="10.57568"><ele>940</ele></trkpt>
<trkpt lat="46.99265" lon="10.57568"><ele>940</ele></trkpt>
<trkpt lat="46.99287" lon="10.57521"><ele>940</ele></trkpt>
<trkpt lat="46.99292" lon="10.57518"><ele>940</ele></trkpt>
<trkpt lat="46.993" lon="10.57515"><ele>940</ele></trkpt>
<trkpt lat="46.99315" lon="10.57515"><ele>942</ele></trkpt>
<trkpt lat="46.99315" lon="10.57515"><ele>942</ele></trkpt>
<trkpt lat="46.99338" lon="10.57541"><ele>941</ele></trkpt>
<trkpt lat="46.99338" lon="10.57541"><ele>941</ele></trkpt>
<trkpt lat="46.99338" lon="10.57541"><ele>941</ele></trkpt>
<trkpt lat="46.99369" lon="10.57577"><ele>941</ele></trkpt>
<trkpt lat="46.99385" lon="10.57597"><ele>945</ele></trkpt>
<trkpt lat="46.99397" lon="10.57616"><ele>943</ele></trkpt>
<trkpt lat="46.99447" lon="10.57703"><ele>946</ele></trkpt>
<trkpt lat="46.99484" lon="10.5777"><ele>945</ele></trkpt>
<trkpt lat="46.99514" lon="10.57815"><ele>949</ele></trkpt>
<trkpt lat="46.99584" lon="10.57908"><ele>944</ele></trkpt>
<trkpt lat="46.99594" lon="10.57924"><ele>945</ele></trkpt>
<trkpt lat="46.99618" lon="10.57974"><ele>947</ele></trkpt>
<trkpt lat="46.9964" lon="10.58036"><ele>949</ele></trkpt>
<trkpt lat="46.99646" lon="10.5805"><ele>950</ele></trkpt>
<trkpt lat="46.99656" lon="10.58072"><ele>951</ele></trkpt>
<trkpt lat="46.99669" lon="10.58095"><ele>949</ele></trkpt>
<trkpt lat="46.9968" lon="10.58112"><ele>949</ele></trkpt>
<trkpt lat="46.99703" lon="10.58133"><ele>951</ele></trkpt>
<trkpt lat="46.99757" lon="10.58181"><ele>951</ele></trkpt>
<trkpt lat="46.998" lon="10.5822"><ele>950</ele></trkpt>
<trkpt lat="46.99805" lon="10.58226"><ele>952</ele></trkpt>
<trkpt lat="46.9981" lon="10.58234"><ele>953</ele></trkpt>
<trkpt lat="46.99822" lon="10.58261"><ele>952</ele></trkpt>
<trkpt lat="46.99835" lon="10.5829"><ele>951</ele></trkpt>
<trkpt lat="46.99841" lon="10.58305"><ele>950</ele></trkpt>
</trkseg></trk>
</gpx>
