<?xml version="1.0" encoding="UTF-8"?>
<gpx version="1.1" creator="Radtouren-split" xmlns="http://www.topografix.com/GPX/1/1" xmlns:xsi="http://www.w3.org/2001/XMLSchema-instance" xsi:schemaLocation="http://www.topografix.com/GPX/1/1 http://www.topografix.com/GPX/1/1/gpx.xsd">
  <metadata><name>KN-GE Tag 3 Disentis</name></metadata>
  <wpt lat="46.816749" lon="9.366751">
    <ele>703.1</ele>
    <name>H Jugendherberge Trin</name>
    <cmt>hostel 1.3 km off</cmt>
    <sym>Lodge</sym>
  </wpt>
  <wpt lat="46.812571" lon="9.354495">
    <ele>739.4</ele>
    <name>Z Camping Trin</name>
    <cmt>campsite 1.8 km off route</cmt>
    <sym>Campground</sym>
  </wpt>
  <wpt lat="46.785337" lon="9.296453">
    <ele>834.7</ele>
    <name>Z Camping Carrera</name>
    <cmt>campsite 0.1 km off route</cmt>
    <sym>Campground</sym>
  </wpt>
  <wpt lat="46.773709" lon="9.196706">
    <ele>699.4</ele>
    <name>H Boardercamp</name>
    <cmt>hostel 1.3 km off</cmt>
    <sym>Lodge</sym>
  </wpt>
  <wpt lat="46.769883" lon="9.183338">
    <ele>724.1</ele>
    <name>Z Camping Lumnezia</name>
    <cmt>campsite 2.8 km off route</cmt>
    <sym>Campground</sym>
  </wpt>
  <wpt lat="46.774385" lon="9.155290">
    <ele>746.4</ele>
    <name>Z Wohnmobil-/Zeltstell</name>
    <cmt>campsite 2.2 km off route</cmt>
    <sym>Campground</sym>
  </wpt>
  <wpt lat="46.771747" lon="9.136101">
    <ele>763.2</ele>
    <name>Z Camping Surcuolm</name>
    <cmt>campsite 1.4 km off route</cmt>
    <sym>Campground</sym>
  </wpt>
  <wpt lat="46.771543" lon="9.135073">
    <ele>763.6</ele>
    <name>H Restaurant Valata</name>
    <cmt>hostel 1.1 km off</cmt>
    <sym>Lodge</sym>
  </wpt>
  <wpt lat="46.769631" lon="9.124504">
    <ele>767.8</ele>
    <name>H Casa da vacanzas e s</name>
    <cmt>hostel 1.8 km off</cmt>
    <sym>Lodge</sym>
  </wpt>
  <wpt lat="46.753455" lon="9.055817">
    <ele>796.6</ele>
    <name>H Hostel with Hearth</name>
    <cmt>hostel 0.1 km off</cmt>
    <sym>Lodge</sym>
  </wpt>
  <wpt lat="46.741989" lon="8.993526">
    <ele>848.9</ele>
    <name>Z Campingplatz Trun</name>
    <cmt>campsite 0.2 km off route</cmt>
    <sym>Campground</sym>
  </wpt>
  <wpt lat="46.720497" lon="8.929590">
    <ele>920.3</ele>
    <name>Z Campadi Garvera</name>
    <cmt>campsite 0.5 km off route</cmt>
    <sym>Campground</sym>
  </wpt>
  <wpt lat="46.704900" lon="8.867776">
    <ele>1026.7</ele>
    <name>H Disentiserhof</name>
    <cmt>hotel 0.4 km off</cmt>
    <sym>Lodging</sym>
  </wpt>
  <wpt lat="46.698877" lon="8.856945">
    <ele>1046.9</ele>
    <name>H Hotel La Furca</name>
    <cmt>hotel 0.7 km off</cmt>
    <sym>Lodging</sym>
  </wpt>
  <wpt lat="46.698877" lon="8.856945">
    <ele>1046.9</ele>
    <name>H Hotel Alpsu</name>
    <cmt>hotel 0.8 km off</cmt>
    <sym>Lodging</sym>
  </wpt>
  <wpt lat="46.698118" lon="8.854687">
    <ele>1054.0</ele>
    <name>Z TCS Camping Disentis</name>
    <cmt>campsite 0.1 km off route</cmt>
    <sym>Campground</sym>
  </wpt>
  <wpt lat="46.697958" lon="8.853732">
    <ele>1058.1</ele>
    <name>H Catrina Hotel</name>
    <cmt>hotel 0.9 km off</cmt>
    <sym>Lodging</sym>
  </wpt>
  <wpt lat="46.696009" lon="8.852823">
    <ele>1085.8</ele>
    <name>H Catrina Lodge</name>
    <cmt>hotel 0.8 km off</cmt>
    <sym>Lodging</sym>
  </wpt>
  <trk>
    <name>KN-GE Tag 3 Disentis</name>
    <trkseg>
      <trkpt lat="46.812449" lon="9.400142"><ele>655.6</ele></trkpt>
      <trkpt lat="46.812422" lon="9.399783"><ele>656.0</ele></trkpt>
      <trkpt lat="46.812355" lon="9.399248"><ele>656.5</ele></trkpt>
      <trkpt lat="46.812294" lon="9.398817"><ele>656.8</ele></trkpt>
      <trkpt lat="46.812242" lon="9.398638"><ele>656.8</ele></trkpt>
      <trkpt lat="46.812179" lon="9.398399"><ele>656.7</ele></trkpt>
      <trkpt lat="46.812122" lon="9.397925"><ele>656.7</ele></trkpt>
      <trkpt lat="46.812129" lon="9.397512"><ele>656.6</ele></trkpt>
      <trkpt lat="46.812127" lon="9.397372"><ele>656.6</ele></trkpt>
      <trkpt lat="46.812108" lon="9.396831"><ele>656.5</ele></trkpt>
      <trkpt lat="46.812098" lon="9.396425"><ele>656.4</ele></trkpt>
      <trkpt lat="46.812108" lon="9.396106"><ele>656.4</ele></trkpt>
      <trkpt lat="46.812128" lon="9.395586"><ele>656.4</ele></trkpt>
      <trkpt lat="46.812133" lon="9.395432"><ele>656.4</ele></trkpt>
      <trkpt lat="46.812148" lon="9.395117"><ele>656.5</ele></trkpt>
      <trkpt lat="46.812200" lon="9.393722"><ele>656.5</ele></trkpt>
      <trkpt lat="46.812235" lon="9.393087"><ele>656.3</ele></trkpt>
      <trkpt lat="46.812245" lon="9.392798"><ele>656.3</ele></trkpt>
      <trkpt lat="46.812506" lon="9.392715"><ele>656.2</ele></trkpt>
      <trkpt lat="46.812854" lon="9.392524"><ele>656.0</ele></trkpt>
      <trkpt lat="46.812926" lon="9.392450"><ele>656.0</ele></trkpt>
      <trkpt lat="46.812945" lon="9.392336"><ele>656.0</ele></trkpt>
      <trkpt lat="46.812932" lon="9.391616"><ele>655.9</ele></trkpt>
      <trkpt lat="46.812890" lon="9.391460"><ele>656.0</ele></trkpt>
      <trkpt lat="46.812908" lon="9.390678"><ele>656.2</ele></trkpt>
      <trkpt lat="46.812943" lon="9.390352"><ele>656.3</ele></trkpt>
      <trkpt lat="46.813019" lon="9.389957"><ele>656.5</ele></trkpt>
      <trkpt lat="46.813060" lon="9.389571"><ele>656.6</ele></trkpt>
      <trkpt lat="46.813313" lon="9.388550"><ele>657.8</ele></trkpt>
      <trkpt lat="46.813254" lon="9.388533"><ele>658.0</ele></trkpt>
      <trkpt lat="46.813131" lon="9.388558"><ele>658.2</ele></trkpt>
      <trkpt lat="46.813467" lon="9.388380"><ele>659.0</ele></trkpt>
      <trkpt lat="46.813608" lon="9.388203"><ele>659.4</ele></trkpt>
      <trkpt lat="46.814304" lon="9.387086"><ele>661.8</ele></trkpt>
      <trkpt lat="46.814797" lon="9.386213"><ele>663.9</ele></trkpt>
      <trkpt lat="46.815141" lon="9.385397"><ele>665.4</ele></trkpt>
      <trkpt lat="46.815317" lon="9.384826"><ele>666.0</ele></trkpt>
      <trkpt lat="46.815354" lon="9.384538"><ele>666.2</ele></trkpt>
      <trkpt lat="46.815343" lon="9.384155"><ele>666.5</ele></trkpt>
      <trkpt lat="46.815352" lon="9.383945"><ele>666.7</ele></trkpt>
      <trkpt lat="46.815411" lon="9.383762"><ele>666.9</ele></trkpt>
      <trkpt lat="46.815773" lon="9.383069"><ele>667.7</ele></trkpt>
      <trkpt lat="46.815927" lon="9.382683"><ele>668.5</ele></trkpt>
      <trkpt lat="46.816027" lon="9.382460"><ele>668.9</ele></trkpt>
      <trkpt lat="46.816376" lon="9.381151"><ele>671.2</ele></trkpt>
      <trkpt lat="46.816502" lon="9.380539"><ele>672.5</ele></trkpt>
      <trkpt lat="46.816540" lon="9.380217"><ele>673.4</ele></trkpt>
      <trkpt lat="46.816742" lon="9.379576"><ele>675.3</ele></trkpt>
      <trkpt lat="46.816866" lon="9.379081"><ele>676.8</ele></trkpt>
      <trkpt lat="46.816888" lon="9.378444"><ele>678.5</ele></trkpt>
      <trkpt lat="46.816868" lon="9.377905"><ele>679.6</ele></trkpt>
      <trkpt lat="46.816817" lon="9.377388"><ele>680.5</ele></trkpt>
      <trkpt lat="46.816574" lon="9.376792"><ele>681.8</ele></trkpt>
      <trkpt lat="46.816322" lon="9.376254"><ele>682.9</ele></trkpt>
      <trkpt lat="46.816269" lon="9.376091"><ele>683.2</ele></trkpt>
      <trkpt lat="46.816200" lon="9.375867"><ele>683.7</ele></trkpt>
      <trkpt lat="46.816084" lon="9.375253"><ele>684.5</ele></trkpt>
      <trkpt lat="46.815986" lon="9.374979"><ele>684.9</ele></trkpt>
      <trkpt lat="46.815643" lon="9.374353"><ele>686.0</ele></trkpt>
      <trkpt lat="46.815615" lon="9.373826"><ele>686.7</ele></trkpt>
      <trkpt lat="46.815612" lon="9.372020"><ele>691.3</ele></trkpt>
      <trkpt lat="46.815674" lon="9.371010"><ele>694.2</ele></trkpt>
      <trkpt lat="46.815723" lon="9.370364"><ele>695.8</ele></trkpt>
      <trkpt lat="46.815941" lon="9.369329"><ele>698.3</ele></trkpt>
      <trkpt lat="46.816034" lon="9.369085"><ele>699.0</ele></trkpt>
      <trkpt lat="46.816272" lon="9.368664"><ele>700.2</ele></trkpt>
      <trkpt lat="46.816319" lon="9.368479"><ele>700.7</ele></trkpt>
      <trkpt lat="46.816370" lon="9.368006"><ele>701.3</ele></trkpt>
      <trkpt lat="46.816608" lon="9.367270"><ele>702.4</ele></trkpt>
      <trkpt lat="46.816749" lon="9.366751"><ele>703.1</ele></trkpt>
      <trkpt lat="46.816661" lon="9.366520"><ele>703.5</ele></trkpt>
      <trkpt lat="46.816088" lon="9.365593"><ele>705.1</ele></trkpt>
      <trkpt lat="46.815672" lon="9.364777"><ele>706.6</ele></trkpt>
      <trkpt lat="46.815528" lon="9.364285"><ele>707.3</ele></trkpt>
      <trkpt lat="46.815444" lon="9.363791"><ele>708.2</ele></trkpt>
      <trkpt lat="46.815295" lon="9.363523"><ele>708.9</ele></trkpt>
      <trkpt lat="46.814595" lon="9.361656"><ele>713.8</ele></trkpt>
      <trkpt lat="46.814324" lon="9.361162"><ele>716.0</ele></trkpt>
      <trkpt lat="46.814278" lon="9.360745"><ele>717.4</ele></trkpt>
      <trkpt lat="46.814244" lon="9.360477"><ele>718.3</ele></trkpt>
      <trkpt lat="46.814061" lon="9.360546"><ele>719.2</ele></trkpt>
      <trkpt lat="46.813838" lon="9.360907"><ele>720.9</ele></trkpt>
      <trkpt lat="46.813706" lon="9.361051"><ele>721.7</ele></trkpt>
      <trkpt lat="46.813650" lon="9.360240"><ele>724.3</ele></trkpt>
      <trkpt lat="46.813623" lon="9.360096"><ele>724.7</ele></trkpt>
      <trkpt lat="46.813340" lon="9.359135"><ele>727.9</ele></trkpt>
      <trkpt lat="46.813141" lon="9.358583"><ele>729.8</ele></trkpt>
      <trkpt lat="46.812927" lon="9.357349"><ele>732.6</ele></trkpt>
      <trkpt lat="46.812821" lon="9.357071"><ele>733.2</ele></trkpt>
      <trkpt lat="46.812785" lon="9.356913"><ele>733.6</ele></trkpt>
      <trkpt lat="46.812784" lon="9.356741"><ele>733.9</ele></trkpt>
      <trkpt lat="46.812845" lon="9.356094"><ele>735.3</ele></trkpt>
      <trkpt lat="46.812844" lon="9.355871"><ele>735.7</ele></trkpt>
      <trkpt lat="46.812669" lon="9.354838"><ele>738.4</ele></trkpt>
      <trkpt lat="46.812571" lon="9.354495"><ele>739.4</ele></trkpt>
      <trkpt lat="46.812432" lon="9.354074"><ele>740.6</ele></trkpt>
      <trkpt lat="46.812329" lon="9.353498"><ele>742.2</ele></trkpt>
      <trkpt lat="46.812112" lon="9.352815"><ele>743.9</ele></trkpt>
      <trkpt lat="46.811624" lon="9.350717"><ele>748.6</ele></trkpt>
      <trkpt lat="46.811640" lon="9.350086"><ele>750.2</ele></trkpt>
      <trkpt lat="46.811558" lon="9.349715"><ele>751.1</ele></trkpt>
      <trkpt lat="46.811427" lon="9.349409"><ele>752.0</ele></trkpt>
      <trkpt lat="46.811281" lon="9.349141"><ele>752.9</ele></trkpt>
      <trkpt lat="46.811151" lon="9.348816"><ele>753.8</ele></trkpt>
      <trkpt lat="46.810990" lon="9.348519"><ele>754.8</ele></trkpt>
      <trkpt lat="46.810860" lon="9.348098"><ele>757.6</ele></trkpt>
      <trkpt lat="46.810803" lon="9.347764"><ele>759.7</ele></trkpt>
      <trkpt lat="46.810660" lon="9.347433"><ele>762.1</ele></trkpt>
      <trkpt lat="46.810506" lon="9.347146"><ele>764.4</ele></trkpt>
      <trkpt lat="46.810453" lon="9.347077"><ele>765.1</ele></trkpt>
      <trkpt lat="46.810409" lon="9.347071"><ele>765.5</ele></trkpt>
      <trkpt lat="46.810384" lon="9.347101"><ele>765.8</ele></trkpt>
      <trkpt lat="46.810375" lon="9.347232"><ele>766.6</ele></trkpt>
      <trkpt lat="46.810207" lon="9.347567"><ele>769.2</ele></trkpt>
      <trkpt lat="46.810101" lon="9.347132"><ele>771.3</ele></trkpt>
      <trkpt lat="46.809928" lon="9.346719"><ele>772.0</ele></trkpt>
      <trkpt lat="46.809758" lon="9.346316"><ele>772.7</ele></trkpt>
      <trkpt lat="46.809655" lon="9.346259"><ele>773.0</ele></trkpt>
      <trkpt lat="46.809333" lon="9.346403"><ele>773.7</ele></trkpt>
      <trkpt lat="46.809260" lon="9.346398"><ele>773.8</ele></trkpt>
      <trkpt lat="46.809202" lon="9.346356"><ele>774.0</ele></trkpt>
      <trkpt lat="46.808824" lon="9.345517"><ele>774.7</ele></trkpt>
      <trkpt lat="46.808707" lon="9.344988"><ele>774.3</ele></trkpt>
      <trkpt lat="46.808618" lon="9.344864"><ele>774.2</ele></trkpt>
      <trkpt lat="46.808471" lon="9.344752"><ele>774.0</ele></trkpt>
      <trkpt lat="46.808334" lon="9.344668"><ele>773.9</ele></trkpt>
      <trkpt lat="46.808200" lon="9.344654"><ele>773.7</ele></trkpt>
      <trkpt lat="46.808104" lon="9.344724"><ele>773.6</ele></trkpt>
      <trkpt lat="46.807801" lon="9.345059"><ele>773.2</ele></trkpt>
      <trkpt lat="46.807699" lon="9.345069"><ele>773.1</ele></trkpt>
      <trkpt lat="46.806848" lon="9.344375"><ele>775.0</ele></trkpt>
      <trkpt lat="46.806798" lon="9.344278"><ele>775.1</ele></trkpt>
      <trkpt lat="46.806754" lon="9.343994"><ele>775.5</ele></trkpt>
      <trkpt lat="46.806681" lon="9.343942"><ele>775.7</ele></trkpt>
      <trkpt lat="46.806457" lon="9.343919"><ele>776.1</ele></trkpt>
      <trkpt lat="46.806396" lon="9.343849"><ele>776.3</ele></trkpt>
      <trkpt lat="46.806341" lon="9.343696"><ele>776.5</ele></trkpt>
      <trkpt lat="46.806320" lon="9.343528"><ele>776.6</ele></trkpt>
      <trkpt lat="46.806323" lon="9.343280"><ele>776.2</ele></trkpt>
      <trkpt lat="46.806296" lon="9.343062"><ele>775.8</ele></trkpt>
      <trkpt lat="46.806251" lon="9.342959"><ele>775.6</ele></trkpt>
      <trkpt lat="46.806185" lon="9.342892"><ele>775.4</ele></trkpt>
      <trkpt lat="46.805963" lon="9.342756"><ele>774.8</ele></trkpt>
      <trkpt lat="46.805872" lon="9.342780"><ele>774.6</ele></trkpt>
      <trkpt lat="46.805724" lon="9.342885"><ele>774.2</ele></trkpt>
      <trkpt lat="46.805480" lon="9.342817"><ele>773.6</ele></trkpt>
      <trkpt lat="46.805333" lon="9.342755"><ele>773.3</ele></trkpt>
      <trkpt lat="46.805108" lon="9.342519"><ele>772.6</ele></trkpt>
      <trkpt lat="46.804763" lon="9.341943"><ele>770.0</ele></trkpt>
      <trkpt lat="46.804490" lon="9.341734"><ele>768.3</ele></trkpt>
      <trkpt lat="46.804082" lon="9.341599"><ele>766.0</ele></trkpt>
      <trkpt lat="46.803688" lon="9.341655"><ele>763.8</ele></trkpt>
      <trkpt lat="46.803269" lon="9.341849"><ele>761.4</ele></trkpt>
      <trkpt lat="46.803133" lon="9.341949"><ele>760.6</ele></trkpt>
      <trkpt lat="46.803023" lon="9.342038"><ele>760.0</ele></trkpt>
      <trkpt lat="46.802535" lon="9.342466"><ele>757.1</ele></trkpt>
      <trkpt lat="46.802270" lon="9.342717"><ele>755.5</ele></trkpt>
      <trkpt lat="46.802186" lon="9.342832"><ele>754.9</ele></trkpt>
      <trkpt lat="46.802050" lon="9.343172"><ele>753.5</ele></trkpt>
      <trkpt lat="46.801957" lon="9.343339"><ele>753.2</ele></trkpt>
      <trkpt lat="46.801879" lon="9.343393"><ele>753.2</ele></trkpt>
      <trkpt lat="46.801676" lon="9.343421"><ele>753.2</ele></trkpt>
      <trkpt lat="46.801591" lon="9.343466"><ele>753.2</ele></trkpt>
      <trkpt lat="46.801406" lon="9.343762"><ele>753.2</ele></trkpt>
      <trkpt lat="46.801158" lon="9.343984"><ele>753.3</ele></trkpt>
      <trkpt lat="46.800979" lon="9.344204"><ele>753.3</ele></trkpt>
      <trkpt lat="46.800790" lon="9.344618"><ele>753.3</ele></trkpt>
      <trkpt lat="46.800724" lon="9.344712"><ele>753.3</ele></trkpt>
      <trkpt lat="46.800111" lon="9.345172"><ele>756.4</ele></trkpt>
      <trkpt lat="46.800046" lon="9.345208"><ele>756.8</ele></trkpt>
      <trkpt lat="46.799683" lon="9.345357"><ele>758.8</ele></trkpt>
      <trkpt lat="46.799257" lon="9.345468"><ele>761.1</ele></trkpt>
      <trkpt lat="46.798932" lon="9.345327"><ele>762.9</ele></trkpt>
      <trkpt lat="46.798634" lon="9.345332"><ele>762.8</ele></trkpt>
      <trkpt lat="46.798247" lon="9.345172"><ele>762.6</ele></trkpt>
      <trkpt lat="46.798138" lon="9.345177"><ele>762.6</ele></trkpt>
      <trkpt lat="46.797912" lon="9.345287"><ele>762.5</ele></trkpt>
      <trkpt lat="46.797818" lon="9.345262"><ele>762.5</ele></trkpt>
      <trkpt lat="46.797783" lon="9.345178"><ele>762.5</ele></trkpt>
      <trkpt lat="46.797643" lon="9.344451"><ele>762.3</ele></trkpt>
      <trkpt lat="46.797529" lon="9.344131"><ele>760.1</ele></trkpt>
      <trkpt lat="46.797433" lon="9.343939"><ele>758.1</ele></trkpt>
      <trkpt lat="46.797339" lon="9.343798"><ele>756.6</ele></trkpt>
      <trkpt lat="46.797060" lon="9.343597"><ele>752.9</ele></trkpt>
      <trkpt lat="46.796950" lon="9.343466"><ele>751.2</ele></trkpt>
      <trkpt lat="46.796687" lon="9.342997"><ele>746.3</ele></trkpt>
      <trkpt lat="46.796328" lon="9.342253"><ele>740.7</ele></trkpt>
      <trkpt lat="46.796116" lon="9.342016"><ele>740.2</ele></trkpt>
      <trkpt lat="46.796053" lon="9.341863"><ele>739.9</ele></trkpt>
      <trkpt lat="46.795831" lon="9.341552"><ele>739.3</ele></trkpt>
      <trkpt lat="46.795630" lon="9.341066"><ele>738.4</ele></trkpt>
      <trkpt lat="46.795605" lon="9.340991"><ele>738.3</ele></trkpt>
      <trkpt lat="46.795232" lon="9.340085"><ele>740.6</ele></trkpt>
      <trkpt lat="46.795172" lon="9.340057"><ele>741.4</ele></trkpt>
      <trkpt lat="46.794943" lon="9.340174"><ele>744.6</ele></trkpt>
      <trkpt lat="46.794752" lon="9.340198"><ele>747.2</ele></trkpt>
      <trkpt lat="46.794689" lon="9.340248"><ele>748.1</ele></trkpt>
      <trkpt lat="46.794596" lon="9.340195"><ele>749.4</ele></trkpt>
      <trkpt lat="46.794472" lon="9.340192"><ele>751.1</ele></trkpt>
      <trkpt lat="46.794362" lon="9.340253"><ele>752.6</ele></trkpt>
      <trkpt lat="46.794203" lon="9.340438"><ele>755.3</ele></trkpt>
      <trkpt lat="46.794123" lon="9.340420"><ele>756.4</ele></trkpt>
      <trkpt lat="46.794108" lon="9.340321"><ele>757.3</ele></trkpt>
      <trkpt lat="46.794136" lon="9.340257"><ele>758.0</ele></trkpt>
      <trkpt lat="46.794411" lon="9.339909"><ele>762.1</ele></trkpt>
      <trkpt lat="46.794543" lon="9.339877"><ele>763.2</ele></trkpt>
      <trkpt lat="46.794728" lon="9.339892"><ele>764.7</ele></trkpt>
      <trkpt lat="46.794874" lon="9.339939"><ele>765.9</ele></trkpt>
      <trkpt lat="46.794928" lon="9.339876"><ele>766.5</ele></trkpt>
      <trkpt lat="46.794924" lon="9.339804"><ele>766.9</ele></trkpt>
      <trkpt lat="46.794848" lon="9.339735"><ele>767.6</ele></trkpt>
      <trkpt lat="46.794513" lon="9.339654"><ele>770.4</ele></trkpt>
      <trkpt lat="46.794311" lon="9.339625"><ele>772.0</ele></trkpt>
      <trkpt lat="46.794172" lon="9.339662"><ele>773.2</ele></trkpt>
      <trkpt lat="46.794044" lon="9.339812"><ele>774.5</ele></trkpt>
      <trkpt lat="46.793776" lon="9.340288"><ele>778.6</ele></trkpt>
      <trkpt lat="46.793614" lon="9.340656"><ele>781.7</ele></trkpt>
      <trkpt lat="46.793541" lon="9.340706"><ele>782.6</ele></trkpt>
      <trkpt lat="46.793490" lon="9.340642"><ele>783.3</ele></trkpt>
      <trkpt lat="46.793491" lon="9.340568"><ele>783.8</ele></trkpt>
      <trkpt lat="46.793635" lon="9.340293"><ele>786.3</ele></trkpt>
      <trkpt lat="46.793810" lon="9.339878"><ele>789.8</ele></trkpt>
      <trkpt lat="46.793935" lon="9.339346"><ele>793.8</ele></trkpt>
      <trkpt lat="46.793998" lon="9.339256"><ele>794.7</ele></trkpt>
      <trkpt lat="46.794086" lon="9.339196"><ele>795.9</ele></trkpt>
      <trkpt lat="46.794422" lon="9.339087"><ele>799.9</ele></trkpt>
      <trkpt lat="46.794591" lon="9.339092"><ele>801.9</ele></trkpt>
      <trkpt lat="46.794846" lon="9.339195"><ele>805.0</ele></trkpt>
      <trkpt lat="46.794896" lon="9.339109"><ele>806.0</ele></trkpt>
      <trkpt lat="46.794869" lon="9.339012"><ele>806.8</ele></trkpt>
      <trkpt lat="46.794457" lon="9.338912"><ele>811.7</ele></trkpt>
      <trkpt lat="46.793845" lon="9.338855"><ele>817.2</ele></trkpt>
      <trkpt lat="46.793713" lon="9.338927"><ele>818.0</ele></trkpt>
      <trkpt lat="46.793377" lon="9.339301"><ele>820.3</ele></trkpt>
      <trkpt lat="46.793076" lon="9.339512"><ele>822.1</ele></trkpt>
      <trkpt lat="46.792737" lon="9.339880"><ele>824.5</ele></trkpt>
      <trkpt lat="46.792300" lon="9.340134"><ele>826.6</ele></trkpt>
      <trkpt lat="46.791764" lon="9.341138"><ele>829.9</ele></trkpt>
      <trkpt lat="46.791540" lon="9.341424"><ele>831.0</ele></trkpt>
      <trkpt lat="46.791449" lon="9.341481"><ele>831.4</ele></trkpt>
      <trkpt lat="46.791347" lon="9.341497"><ele>831.8</ele></trkpt>
      <trkpt lat="46.791224" lon="9.341449"><ele>832.3</ele></trkpt>
      <trkpt lat="46.790619" lon="9.341095"><ele>840.5</ele></trkpt>
      <trkpt lat="46.790445" lon="9.340957"><ele>843.0</ele></trkpt>
      <trkpt lat="46.790224" lon="9.340658"><ele>846.9</ele></trkpt>
      <trkpt lat="46.789983" lon="9.340087"><ele>852.9</ele></trkpt>
      <trkpt lat="46.789817" lon="9.339736"><ele>856.8</ele></trkpt>
      <trkpt lat="46.789726" lon="9.339638"><ele>858.3</ele></trkpt>
      <trkpt lat="46.789551" lon="9.339558"><ele>860.9</ele></trkpt>
      <trkpt lat="46.789344" lon="9.339598"><ele>863.8</ele></trkpt>
      <trkpt lat="46.789102" lon="9.339802"><ele>867.6</ele></trkpt>
      <trkpt lat="46.788963" lon="9.339968"><ele>870.1</ele></trkpt>
      <trkpt lat="46.788876" lon="9.340178"><ele>872.4</ele></trkpt>
      <trkpt lat="46.788679" lon="9.340847"><ele>879.3</ele></trkpt>
      <trkpt lat="46.788625" lon="9.341117"><ele>881.6</ele></trkpt>
      <trkpt lat="46.788555" lon="9.341151"><ele>882.3</ele></trkpt>
      <trkpt lat="46.788499" lon="9.341059"><ele>883.1</ele></trkpt>
      <trkpt lat="46.788669" lon="9.340327"><ele>888.1</ele></trkpt>
      <trkpt lat="46.788779" lon="9.339668"><ele>892.6</ele></trkpt>
      <trkpt lat="46.788988" lon="9.339353"><ele>895.4</ele></trkpt>
      <trkpt lat="46.789169" lon="9.338878"><ele>897.7</ele></trkpt>
      <trkpt lat="46.789292" lon="9.338660"><ele>897.5</ele></trkpt>
      <trkpt lat="46.789508" lon="9.338424"><ele>897.3</ele></trkpt>
      <trkpt lat="46.789733" lon="9.338250"><ele>897.1</ele></trkpt>
      <trkpt lat="46.789985" lon="9.338081"><ele>896.9</ele></trkpt>
      <trkpt lat="46.790060" lon="9.338000"><ele>896.8</ele></trkpt>
      <trkpt lat="46.790255" lon="9.337972"><ele>896.6</ele></trkpt>
      <trkpt lat="46.790694" lon="9.338028"><ele>896.5</ele></trkpt>
      <trkpt lat="46.790964" lon="9.338197"><ele>897.5</ele></trkpt>
      <trkpt lat="46.791184" lon="9.338354"><ele>898.4</ele></trkpt>
      <trkpt lat="46.791299" lon="9.338399"><ele>898.8</ele></trkpt>
      <trkpt lat="46.791498" lon="9.338361"><ele>899.5</ele></trkpt>
      <trkpt lat="46.791638" lon="9.338280"><ele>900.0</ele></trkpt>
      <trkpt lat="46.791754" lon="9.338108"><ele>900.6</ele></trkpt>
      <trkpt lat="46.791795" lon="9.338038"><ele>900.8</ele></trkpt>
      <trkpt lat="46.791891" lon="9.337878"><ele>901.3</ele></trkpt>
      <trkpt lat="46.791924" lon="9.337822"><ele>901.5</ele></trkpt>
      <trkpt lat="46.792148" lon="9.337604"><ele>902.4</ele></trkpt>
      <trkpt lat="46.792173" lon="9.337632"><ele>902.5</ele></trkpt>
      <trkpt lat="46.792245" lon="9.337612"><ele>902.7</ele></trkpt>
      <trkpt lat="46.792524" lon="9.337415"><ele>903.0</ele></trkpt>
      <trkpt lat="46.792586" lon="9.337371"><ele>903.1</ele></trkpt>
      <trkpt lat="46.792656" lon="9.337318"><ele>903.1</ele></trkpt>
      <trkpt lat="46.792719" lon="9.337269"><ele>903.2</ele></trkpt>
      <trkpt lat="46.792806" lon="9.337194"><ele>903.3</ele></trkpt>
      <trkpt lat="46.792958" lon="9.337056"><ele>903.5</ele></trkpt>
      <trkpt lat="46.793549" lon="9.336539"><ele>904.2</ele></trkpt>
      <trkpt lat="46.793614" lon="9.336452"><ele>904.3</ele></trkpt>
      <trkpt lat="46.793732" lon="9.336223"><ele>904.6</ele></trkpt>
      <trkpt lat="46.793781" lon="9.336069"><ele>904.9</ele></trkpt>
      <trkpt lat="46.794126" lon="9.334487"><ele>907.5</ele></trkpt>
      <trkpt lat="46.794161" lon="9.334261"><ele>907.9</ele></trkpt>
      <trkpt lat="46.794199" lon="9.334032"><ele>908.3</ele></trkpt>
      <trkpt lat="46.794208" lon="9.333979"><ele>908.3</ele></trkpt>
      <trkpt lat="46.794322" lon="9.333289"><ele>909.9</ele></trkpt>
      <trkpt lat="46.794313" lon="9.333109"><ele>910.3</ele></trkpt>
      <trkpt lat="46.794354" lon="9.333036"><ele>910.5</ele></trkpt>
      <trkpt lat="46.794382" lon="9.332940"><ele>910.8</ele></trkpt>
      <trkpt lat="46.794413" lon="9.332186"><ele>912.6</ele></trkpt>
      <trkpt lat="46.794396" lon="9.331911"><ele>913.2</ele></trkpt>
      <trkpt lat="46.794267" lon="9.331254"><ele>914.8</ele></trkpt>
      <trkpt lat="46.794174" lon="9.330034"><ele>917.4</ele></trkpt>
      <trkpt lat="46.794012" lon="9.329318"><ele>919.0</ele></trkpt>
      <trkpt lat="46.793992" lon="9.329126"><ele>919.5</ele></trkpt>
      <trkpt lat="46.793869" lon="9.326521"><ele>927.1</ele></trkpt>
      <trkpt lat="46.793908" lon="9.325965"><ele>928.9</ele></trkpt>
      <trkpt lat="46.793983" lon="9.325385"><ele>931.4</ele></trkpt>
      <trkpt lat="46.793990" lon="9.325087"><ele>932.7</ele></trkpt>
      <trkpt lat="46.793963" lon="9.324857"><ele>933.8</ele></trkpt>
      <trkpt lat="46.793793" lon="9.324218"><ele>936.7</ele></trkpt>
      <trkpt lat="46.793772" lon="9.324063"><ele>937.4</ele></trkpt>
      <trkpt lat="46.793829" lon="9.323078"><ele>940.9</ele></trkpt>
      <trkpt lat="46.793872" lon="9.322733"><ele>941.7</ele></trkpt>
      <trkpt lat="46.794001" lon="9.322058"><ele>943.2</ele></trkpt>
      <trkpt lat="46.794209" lon="9.320599"><ele>945.4</ele></trkpt>
      <trkpt lat="46.794302" lon="9.320317"><ele>944.9</ele></trkpt>
      <trkpt lat="46.794518" lon="9.319868"><ele>944.1</ele></trkpt>
      <trkpt lat="46.794605" lon="9.319533"><ele>943.6</ele></trkpt>
      <trkpt lat="46.794619" lon="9.319248"><ele>943.2</ele></trkpt>
      <trkpt lat="46.794604" lon="9.317773"><ele>941.0</ele></trkpt>
      <trkpt lat="46.794573" lon="9.317550"><ele>940.6</ele></trkpt>
      <trkpt lat="46.794515" lon="9.317373"><ele>940.2</ele></trkpt>
      <trkpt lat="46.794428" lon="9.317159"><ele>939.8</ele></trkpt>
      <trkpt lat="46.793699" lon="9.316154"><ele>937.9</ele></trkpt>
      <trkpt lat="46.793487" lon="9.315768"><ele>938.6</ele></trkpt>
      <trkpt lat="46.792833" lon="9.314077"><ele>941.4</ele></trkpt>
      <trkpt lat="46.792776" lon="9.313892"><ele>941.6</ele></trkpt>
      <trkpt lat="46.792744" lon="9.313743"><ele>941.7</ele></trkpt>
      <trkpt lat="46.792720" lon="9.313535"><ele>941.9</ele></trkpt>
      <trkpt lat="46.792710" lon="9.312762"><ele>942.5</ele></trkpt>
      <trkpt lat="46.792690" lon="9.312459"><ele>942.8</ele></trkpt>
      <trkpt lat="46.792612" lon="9.312282"><ele>943.0</ele></trkpt>
      <trkpt lat="46.792541" lon="9.312186"><ele>943.1</ele></trkpt>
      <trkpt lat="46.792158" lon="9.311866"><ele>943.6</ele></trkpt>
      <trkpt lat="46.791949" lon="9.311779"><ele>942.1</ele></trkpt>
      <trkpt lat="46.791529" lon="9.311680"><ele>939.0</ele></trkpt>
      <trkpt lat="46.791396" lon="9.311528"><ele>937.7</ele></trkpt>
      <trkpt lat="46.791348" lon="9.311394"><ele>937.0</ele></trkpt>
      <trkpt lat="46.791249" lon="9.310752"><ele>933.7</ele></trkpt>
      <trkpt lat="46.791136" lon="9.310320"><ele>931.3</ele></trkpt>
      <trkpt lat="46.791108" lon="9.310087"><ele>930.1</ele></trkpt>
      <trkpt lat="46.791141" lon="9.309899"><ele>928.8</ele></trkpt>
      <trkpt lat="46.791281" lon="9.309444"><ele>925.5</ele></trkpt>
      <trkpt lat="46.791281" lon="9.309173"><ele>923.7</ele></trkpt>
      <trkpt lat="46.791083" lon="9.308199"><ele>917.0</ele></trkpt>
      <trkpt lat="46.791111" lon="9.307847"><ele>914.7</ele></trkpt>
      <trkpt lat="46.791229" lon="9.307594"><ele>912.8</ele></trkpt>
      <trkpt lat="46.791465" lon="9.307220"><ele>910.4</ele></trkpt>
      <trkpt lat="46.791536" lon="9.307013"><ele>909.4</ele></trkpt>
      <trkpt lat="46.791566" lon="9.306844"><ele>908.6</ele></trkpt>
      <trkpt lat="46.791613" lon="9.306401"><ele>906.5</ele></trkpt>
      <trkpt lat="46.791622" lon="9.306022"><ele>904.8</ele></trkpt>
      <trkpt lat="46.791594" lon="9.305694"><ele>903.2</ele></trkpt>
      <trkpt lat="46.791515" lon="9.305319"><ele>901.4</ele></trkpt>
      <trkpt lat="46.791180" lon="9.304500"><ele>896.8</ele></trkpt>
      <trkpt lat="46.790905" lon="9.304037"><ele>893.8</ele></trkpt>
      <trkpt lat="46.790817" lon="9.303839"><ele>892.6</ele></trkpt>
      <trkpt lat="46.790650" lon="9.302907"><ele>887.9</ele></trkpt>
      <trkpt lat="46.790396" lon="9.302360"><ele>885.3</ele></trkpt>
      <trkpt lat="46.790079" lon="9.301782"><ele>882.4</ele></trkpt>
      <trkpt lat="46.789790" lon="9.301316"><ele>880.0</ele></trkpt>
      <trkpt lat="46.789652" lon="9.301143"><ele>878.9</ele></trkpt>
      <trkpt lat="46.789450" lon="9.300988"><ele>877.7</ele></trkpt>
      <trkpt lat="46.788934" lon="9.300723"><ele>875.6</ele></trkpt>
      <trkpt lat="46.788814" lon="9.300623"><ele>875.0</ele></trkpt>
      <trkpt lat="46.788719" lon="9.300378"><ele>874.3</ele></trkpt>
      <trkpt lat="46.788568" lon="9.299633"><ele>872.2</ele></trkpt>
      <trkpt lat="46.788480" lon="9.299428"><ele>871.5</ele></trkpt>
      <trkpt lat="46.788152" lon="9.298828"><ele>867.8</ele></trkpt>
      <trkpt lat="46.788106" lon="9.298675"><ele>866.8</ele></trkpt>
      <trkpt lat="46.788096" lon="9.298531"><ele>865.9</ele></trkpt>
      <trkpt lat="46.788128" lon="9.298368"><ele>864.9</ele></trkpt>
      <trkpt lat="46.788338" lon="9.297937"><ele>861.7</ele></trkpt>
      <trkpt lat="46.788514" lon="9.297572"><ele>859.0</ele></trkpt>
      <trkpt lat="46.788584" lon="9.297246"><ele>856.9</ele></trkpt>
      <trkpt lat="46.788595" lon="9.296943"><ele>855.0</ele></trkpt>
      <trkpt lat="46.788613" lon="9.296604"><ele>852.3</ele></trkpt>
      <trkpt lat="46.788684" lon="9.296325"><ele>849.7</ele></trkpt>
      <trkpt lat="46.788719" lon="9.296196"><ele>848.6</ele></trkpt>
      <trkpt lat="46.788764" lon="9.296015"><ele>847.0</ele></trkpt>
      <trkpt lat="46.788716" lon="9.295837"><ele>845.3</ele></trkpt>
      <trkpt lat="46.788653" lon="9.295730"><ele>844.2</ele></trkpt>
      <trkpt lat="46.788561" lon="9.295660"><ele>842.9</ele></trkpt>
      <trkpt lat="46.788467" lon="9.295656"><ele>841.7</ele></trkpt>
      <trkpt lat="46.788385" lon="9.295692"><ele>840.7</ele></trkpt>
      <trkpt lat="46.788040" lon="9.295913"><ele>836.0</ele></trkpt>
      <trkpt lat="46.787329" lon="9.296114"><ele>832.2</ele></trkpt>
      <trkpt lat="46.785337" lon="9.296453"><ele>834.7</ele></trkpt>
      <trkpt lat="46.784265" lon="9.296290"><ele>841.1</ele></trkpt>
      <trkpt lat="46.784000" lon="9.296230"><ele>841.3</ele></trkpt>
      <trkpt lat="46.783949" lon="9.296139"><ele>841.2</ele></trkpt>
      <trkpt lat="46.783939" lon="9.296070"><ele>841.2</ele></trkpt>
      <trkpt lat="46.783933" lon="9.295466"><ele>840.9</ele></trkpt>
      <trkpt lat="46.783961" lon="9.295314"><ele>840.8</ele></trkpt>
      <trkpt lat="46.784095" lon="9.295154"><ele>840.7</ele></trkpt>
      <trkpt lat="46.785429" lon="9.293760"><ele>834.9</ele></trkpt>
      <trkpt lat="46.786026" lon="9.293187"><ele>830.5</ele></trkpt>
      <trkpt lat="46.786324" lon="9.292694"><ele>828.2</ele></trkpt>
      <trkpt lat="46.786501" lon="9.292486"><ele>827.2</ele></trkpt>
      <trkpt lat="46.786671" lon="9.292343"><ele>826.3</ele></trkpt>
      <trkpt lat="46.786863" lon="9.292174"><ele>825.3</ele></trkpt>
      <trkpt lat="46.786971" lon="9.291967"><ele>824.6</ele></trkpt>
      <trkpt lat="46.787266" lon="9.290951"><ele>821.3</ele></trkpt>
      <trkpt lat="46.787404" lon="9.290735"><ele>820.6</ele></trkpt>
      <trkpt lat="46.787828" lon="9.290187"><ele>818.6</ele></trkpt>
      <trkpt lat="46.787913" lon="9.290025"><ele>818.1</ele></trkpt>
      <trkpt lat="46.787933" lon="9.289858"><ele>817.7</ele></trkpt>
      <trkpt lat="46.787926" lon="9.288916"><ele>815.4</ele></trkpt>
      <trkpt lat="46.787943" lon="9.288747"><ele>815.0</ele></trkpt>
      <trkpt lat="46.788007" lon="9.288490"><ele>814.8</ele></trkpt>
      <trkpt lat="46.788210" lon="9.288122"><ele>814.5</ele></trkpt>
      <trkpt lat="46.788470" lon="9.287759"><ele>814.1</ele></trkpt>
      <trkpt lat="46.788636" lon="9.287468"><ele>813.8</ele></trkpt>
      <trkpt lat="46.788685" lon="9.287304"><ele>813.6</ele></trkpt>
      <trkpt lat="46.788698" lon="9.287039"><ele>813.4</ele></trkpt>
      <trkpt lat="46.788465" lon="9.285588"><ele>812.8</ele></trkpt>
      <trkpt lat="46.788295" lon="9.284548"><ele>812.6</ele></trkpt>
      <trkpt lat="46.788229" lon="9.283993"><ele>812.5</ele></trkpt>
      <trkpt lat="46.788225" lon="9.283953"><ele>812.5</ele></trkpt>
      <trkpt lat="46.788188" lon="9.283615"><ele>812.1</ele></trkpt>
      <trkpt lat="46.788151" lon="9.283318"><ele>811.8</ele></trkpt>
      <trkpt lat="46.788078" lon="9.282754"><ele>811.1</ele></trkpt>
      <trkpt lat="46.787927" lon="9.282724"><ele>810.9</ele></trkpt>
      <trkpt lat="46.787764" lon="9.282708"><ele>810.6</ele></trkpt>
      <trkpt lat="46.787690" lon="9.282584"><ele>810.4</ele></trkpt>
      <trkpt lat="46.787630" lon="9.282432"><ele>810.2</ele></trkpt>
      <trkpt lat="46.787522" lon="9.281943"><ele>809.7</ele></trkpt>
      <trkpt lat="46.787476" lon="9.281611"><ele>809.0</ele></trkpt>
      <trkpt lat="46.787412" lon="9.281300"><ele>808.3</ele></trkpt>
      <trkpt lat="46.787424" lon="9.280921"><ele>807.5</ele></trkpt>
      <trkpt lat="46.787442" lon="9.280632"><ele>806.8</ele></trkpt>
      <trkpt lat="46.787201" lon="9.279772"><ele>804.8</ele></trkpt>
      <trkpt lat="46.787118" lon="9.279418"><ele>804.0</ele></trkpt>
      <trkpt lat="46.787056" lon="9.278986"><ele>802.7</ele></trkpt>
      <trkpt lat="46.787023" lon="9.278210"><ele>800.2</ele></trkpt>
      <trkpt lat="46.786994" lon="9.277683"><ele>798.5</ele></trkpt>
      <trkpt lat="46.786929" lon="9.276279"><ele>794.7</ele></trkpt>
      <trkpt lat="46.786693" lon="9.272007"><ele>787.5</ele></trkpt>
      <trkpt lat="46.786670" lon="9.271853"><ele>787.3</ele></trkpt>
      <trkpt lat="46.786583" lon="9.271675"><ele>787.0</ele></trkpt>
      <trkpt lat="46.786296" lon="9.271223"><ele>785.1</ele></trkpt>
      <trkpt lat="46.786251" lon="9.271047"><ele>784.5</ele></trkpt>
      <trkpt lat="46.786256" lon="9.270805"><ele>783.7</ele></trkpt>
      <trkpt lat="46.786389" lon="9.270325"><ele>782.0</ele></trkpt>
      <trkpt lat="46.786470" lon="9.269704"><ele>779.8</ele></trkpt>
      <trkpt lat="46.786466" lon="9.269144"><ele>778.0</ele></trkpt>
      <trkpt lat="46.786431" lon="9.268657"><ele>775.7</ele></trkpt>
      <trkpt lat="46.786256" lon="9.268033"><ele>772.6</ele></trkpt>
      <trkpt lat="46.786020" lon="9.267542"><ele>769.8</ele></trkpt>
      <trkpt lat="46.785906" lon="9.267028"><ele>767.2</ele></trkpt>
      <trkpt lat="46.785501" lon="9.266128"><ele>763.1</ele></trkpt>
      <trkpt lat="46.785385" lon="9.265943"><ele>762.3</ele></trkpt>
      <trkpt lat="46.784928" lon="9.265604"><ele>759.7</ele></trkpt>
      <trkpt lat="46.784742" lon="9.265416"><ele>758.5</ele></trkpt>
      <trkpt lat="46.784592" lon="9.265128"><ele>757.3</ele></trkpt>
      <trkpt lat="46.784537" lon="9.264840"><ele>756.4</ele></trkpt>
      <trkpt lat="46.784498" lon="9.264355"><ele>755.2</ele></trkpt>
      <trkpt lat="46.784329" lon="9.263813"><ele>753.8</ele></trkpt>
      <trkpt lat="46.784094" lon="9.263514"><ele>752.7</ele></trkpt>
      <trkpt lat="46.783287" lon="9.262664"><ele>749.7</ele></trkpt>
      <trkpt lat="46.782303" lon="9.261499"><ele>747.5</ele></trkpt>
      <trkpt lat="46.782132" lon="9.261202"><ele>746.7</ele></trkpt>
      <trkpt lat="46.782041" lon="9.260913"><ele>745.2</ele></trkpt>
      <trkpt lat="46.781850" lon="9.259692"><ele>739.1</ele></trkpt>
      <trkpt lat="46.781828" lon="9.259052"><ele>735.9</ele></trkpt>
      <trkpt lat="46.781787" lon="9.258693"><ele>734.2</ele></trkpt>
      <trkpt lat="46.781539" lon="9.257811"><ele>732.2</ele></trkpt>
      <trkpt lat="46.781456" lon="9.257566"><ele>731.7</ele></trkpt>
      <trkpt lat="46.781370" lon="9.257402"><ele>731.2</ele></trkpt>
      <trkpt lat="46.781027" lon="9.256944"><ele>729.8</ele></trkpt>
      <trkpt lat="46.780907" lon="9.256711"><ele>729.2</ele></trkpt>
      <trkpt lat="46.780820" lon="9.256368"><ele>729.3</ele></trkpt>
      <trkpt lat="46.780598" lon="9.254584"><ele>734.5</ele></trkpt>
      <trkpt lat="46.780553" lon="9.253590"><ele>736.7</ele></trkpt>
      <trkpt lat="46.780564" lon="9.252170"><ele>738.3</ele></trkpt>
      <trkpt lat="46.780543" lon="9.251968"><ele>738.6</ele></trkpt>
      <trkpt lat="46.780483" lon="9.251605"><ele>739.0</ele></trkpt>
      <trkpt lat="46.780392" lon="9.251319"><ele>739.1</ele></trkpt>
      <trkpt lat="46.780044" lon="9.250419"><ele>735.0</ele></trkpt>
      <trkpt lat="46.779886" lon="9.249683"><ele>732.0</ele></trkpt>
      <trkpt lat="46.779714" lon="9.248692"><ele>729.0</ele></trkpt>
      <trkpt lat="46.779305" lon="9.246333"><ele>728.2</ele></trkpt>
      <trkpt lat="46.779271" lon="9.246136"><ele>727.6</ele></trkpt>
      <trkpt lat="46.779189" lon="9.245452"><ele>725.6</ele></trkpt>
      <trkpt lat="46.779188" lon="9.245096"><ele>724.5</ele></trkpt>
      <trkpt lat="46.779279" lon="9.243273"><ele>719.8</ele></trkpt>
      <trkpt lat="46.779241" lon="9.242809"><ele>718.9</ele></trkpt>
      <trkpt lat="46.779144" lon="9.242350"><ele>718.1</ele></trkpt>
      <trkpt lat="46.779043" lon="9.242046"><ele>717.5</ele></trkpt>
      <trkpt lat="46.778805" lon="9.241564"><ele>716.5</ele></trkpt>
      <trkpt lat="46.778663" lon="9.241369"><ele>716.0</ele></trkpt>
      <trkpt lat="46.777989" lon="9.240662"><ele>713.4</ele></trkpt>
      <trkpt lat="46.778259" lon="9.239731"><ele>711.2</ele></trkpt>
      <trkpt lat="46.778291" lon="9.239662"><ele>711.0</ele></trkpt>
      <trkpt lat="46.778507" lon="9.239442"><ele>710.3</ele></trkpt>
      <trkpt lat="46.778552" lon="9.239350"><ele>710.1</ele></trkpt>
      <trkpt lat="46.778517" lon="9.239146"><ele>709.7</ele></trkpt>
      <trkpt lat="46.778074" lon="9.237396"><ele>706.4</ele></trkpt>
      <trkpt lat="46.777717" lon="9.236207"><ele>706.7</ele></trkpt>
      <trkpt lat="46.777656" lon="9.235886"><ele>707.0</ele></trkpt>
      <trkpt lat="46.777525" lon="9.234703"><ele>708.1</ele></trkpt>
      <trkpt lat="46.777332" lon="9.233519"><ele>712.5</ele></trkpt>
      <trkpt lat="46.777236" lon="9.233149"><ele>714.1</ele></trkpt>
      <trkpt lat="46.777082" lon="9.232747"><ele>715.9</ele></trkpt>
      <trkpt lat="46.777068" lon="9.232641"><ele>716.3</ele></trkpt>
      <trkpt lat="46.777064" lon="9.232027"><ele>718.6</ele></trkpt>
      <trkpt lat="46.777039" lon="9.231785"><ele>719.2</ele></trkpt>
      <trkpt lat="46.776984" lon="9.231768"><ele>719.4</ele></trkpt>
      <trkpt lat="46.776808" lon="9.231546"><ele>720.2</ele></trkpt>
      <trkpt lat="46.776791" lon="9.231523"><ele>720.3</ele></trkpt>
      <trkpt lat="46.776347" lon="9.231288"><ele>721.9</ele></trkpt>
      <trkpt lat="46.776212" lon="9.231239"><ele>722.4</ele></trkpt>
      <trkpt lat="46.776139" lon="9.231155"><ele>722.7</ele></trkpt>
      <trkpt lat="46.775926" lon="9.230949"><ele>723.6</ele></trkpt>
      <trkpt lat="46.775792" lon="9.230736"><ele>724.3</ele></trkpt>
      <trkpt lat="46.775681" lon="9.230451"><ele>724.6</ele></trkpt>
      <trkpt lat="46.775308" lon="9.229179"><ele>723.0</ele></trkpt>
      <trkpt lat="46.775104" lon="9.228344"><ele>721.9</ele></trkpt>
      <trkpt lat="46.774962" lon="9.227914"><ele>721.4</ele></trkpt>
      <trkpt lat="46.774946" lon="9.227877"><ele>721.3</ele></trkpt>
      <trkpt lat="46.774856" lon="9.227665"><ele>721.0</ele></trkpt>
      <trkpt lat="46.774783" lon="9.227514"><ele>720.8</ele></trkpt>
      <trkpt lat="46.774478" lon="9.226965"><ele>719.9</ele></trkpt>
      <trkpt lat="46.774486" lon="9.226856"><ele>719.8</ele></trkpt>
      <trkpt lat="46.774203" lon="9.226352"><ele>718.9</ele></trkpt>
      <trkpt lat="46.773668" lon="9.225520"><ele>717.6</ele></trkpt>
      <trkpt lat="46.773588" lon="9.225341"><ele>717.4</ele></trkpt>
      <trkpt lat="46.773516" lon="9.225033"><ele>717.0</ele></trkpt>
      <trkpt lat="46.773490" lon="9.224526"><ele>716.4</ele></trkpt>
      <trkpt lat="46.773475" lon="9.222326"><ele>713.4</ele></trkpt>
      <trkpt lat="46.773449" lon="9.221551"><ele>712.3</ele></trkpt>
      <trkpt lat="46.773399" lon="9.221253"><ele>711.8</ele></trkpt>
      <trkpt lat="46.773310" lon="9.220999"><ele>711.4</ele></trkpt>
      <trkpt lat="46.772990" lon="9.220525"><ele>710.6</ele></trkpt>
      <trkpt lat="46.772866" lon="9.220278"><ele>710.2</ele></trkpt>
      <trkpt lat="46.772765" lon="9.219996"><ele>709.8</ele></trkpt>
      <trkpt lat="46.772717" lon="9.219621"><ele>709.3</ele></trkpt>
      <trkpt lat="46.772726" lon="9.219347"><ele>708.9</ele></trkpt>
      <trkpt lat="46.772767" lon="9.219127"><ele>708.6</ele></trkpt>
      <trkpt lat="46.772849" lon="9.218870"><ele>708.3</ele></trkpt>
      <trkpt lat="46.772983" lon="9.218599"><ele>707.8</ele></trkpt>
      <trkpt lat="46.774310" lon="9.216913"><ele>704.7</ele></trkpt>
      <trkpt lat="46.774457" lon="9.216646"><ele>704.2</ele></trkpt>
      <trkpt lat="46.774564" lon="9.216071"><ele>703.3</ele></trkpt>
      <trkpt lat="46.774573" lon="9.215798"><ele>702.9</ele></trkpt>
      <trkpt lat="46.774545" lon="9.214807"><ele>701.4</ele></trkpt>
      <trkpt lat="46.774514" lon="9.214217"><ele>700.7</ele></trkpt>
      <trkpt lat="46.774524" lon="9.213934"><ele>700.4</ele></trkpt>
      <trkpt lat="46.774469" lon="9.211752"><ele>698.7</ele></trkpt>
      <trkpt lat="46.774411" lon="9.211744"><ele>698.7</ele></trkpt>
      <trkpt lat="46.774391" lon="9.211262"><ele>698.9</ele></trkpt>
      <trkpt lat="46.774386" lon="9.211146"><ele>698.9</ele></trkpt>
      <trkpt lat="46.774385" lon="9.211105"><ele>699.0</ele></trkpt>
      <trkpt lat="46.774366" lon="9.210546"><ele>699.2</ele></trkpt>
      <trkpt lat="46.774366" lon="9.210531"><ele>699.2</ele></trkpt>
      <trkpt lat="46.774363" lon="9.210441"><ele>699.2</ele></trkpt>
      <trkpt lat="46.774358" lon="9.210306"><ele>699.3</ele></trkpt>
      <trkpt lat="46.774326" lon="9.209195"><ele>699.7</ele></trkpt>
      <trkpt lat="46.774321" lon="9.209005"><ele>699.9</ele></trkpt>
      <trkpt lat="46.774315" lon="9.208777"><ele>700.0</ele></trkpt>
      <trkpt lat="46.774312" lon="9.208644"><ele>700.1</ele></trkpt>
      <trkpt lat="46.774308" lon="9.208499"><ele>700.2</ele></trkpt>
      <trkpt lat="46.774298" lon="9.208060"><ele>700.5</ele></trkpt>
      <trkpt lat="46.774278" lon="9.207553"><ele>700.8</ele></trkpt>
      <trkpt lat="46.774270" lon="9.207343"><ele>700.9</ele></trkpt>
      <trkpt lat="46.774267" lon="9.207174"><ele>701.0</ele></trkpt>
      <trkpt lat="46.774261" lon="9.206978"><ele>701.2</ele></trkpt>
      <trkpt lat="46.774252" lon="9.206720"><ele>701.3</ele></trkpt>
      <trkpt lat="46.774248" lon="9.206604"><ele>701.4</ele></trkpt>
      <trkpt lat="46.774240" lon="9.206319"><ele>701.6</ele></trkpt>
      <trkpt lat="46.774233" lon="9.206066"><ele>701.7</ele></trkpt>
      <trkpt lat="46.774231" lon="9.205995"><ele>701.8</ele></trkpt>
      <trkpt lat="46.774224" lon="9.205739"><ele>701.9</ele></trkpt>
      <trkpt lat="46.774222" lon="9.205633"><ele>702.0</ele></trkpt>
      <trkpt lat="46.774218" lon="9.205492"><ele>702.1</ele></trkpt>
      <trkpt lat="46.774208" lon="9.205120"><ele>702.3</ele></trkpt>
      <trkpt lat="46.774207" lon="9.204998"><ele>702.4</ele></trkpt>
      <trkpt lat="46.774225" lon="9.204855"><ele>702.5</ele></trkpt>
      <trkpt lat="46.774267" lon="9.204745"><ele>702.6</ele></trkpt>
      <trkpt lat="46.774196" lon="9.204681"><ele>702.6</ele></trkpt>
      <trkpt lat="46.774028" lon="9.204600"><ele>702.8</ele></trkpt>
      <trkpt lat="46.774024" lon="9.204535"><ele>702.9</ele></trkpt>
      <trkpt lat="46.774150" lon="9.203598"><ele>702.0</ele></trkpt>
      <trkpt lat="46.774197" lon="9.203262"><ele>701.7</ele></trkpt>
      <trkpt lat="46.774242" lon="9.202995"><ele>701.4</ele></trkpt>
      <trkpt lat="46.774151" lon="9.202542"><ele>700.9</ele></trkpt>
      <trkpt lat="46.774152" lon="9.202429"><ele>700.7</ele></trkpt>
      <trkpt lat="46.774194" lon="9.202335"><ele>700.6</ele></trkpt>
      <trkpt lat="46.774222" lon="9.202293"><ele>700.6</ele></trkpt>
      <trkpt lat="46.774246" lon="9.202249"><ele>700.5</ele></trkpt>
      <trkpt lat="46.774503" lon="9.201768"><ele>700.0</ele></trkpt>
      <trkpt lat="46.774649" lon="9.201645"><ele>699.9</ele></trkpt>
      <trkpt lat="46.774678" lon="9.201518"><ele>699.8</ele></trkpt>
      <trkpt lat="46.774523" lon="9.200806"><ele>699.5</ele></trkpt>
      <trkpt lat="46.774054" lon="9.198286"><ele>699.2</ele></trkpt>
      <trkpt lat="46.773939" lon="9.197691"><ele>699.3</ele></trkpt>
      <trkpt lat="46.773822" lon="9.197189"><ele>699.3</ele></trkpt>
      <trkpt lat="46.773709" lon="9.196706"><ele>699.4</ele></trkpt>
      <trkpt lat="46.773429" lon="9.195392"><ele>699.7</ele></trkpt>
      <trkpt lat="46.772939" lon="9.193982"><ele>701.3</ele></trkpt>
      <trkpt lat="46.771955" lon="9.191416"><ele>707.4</ele></trkpt>
      <trkpt lat="46.771871" lon="9.191149"><ele>708.1</ele></trkpt>
      <trkpt lat="46.771676" lon="9.190970"><ele>708.9</ele></trkpt>
      <trkpt lat="46.771676" lon="9.190843"><ele>709.2</ele></trkpt>
      <trkpt lat="46.771546" lon="9.190277"><ele>710.7</ele></trkpt>
      <trkpt lat="46.771020" lon="9.188718"><ele>713.8</ele></trkpt>
      <trkpt lat="46.769813" lon="9.184840"><ele>721.5</ele></trkpt>
      <trkpt lat="46.769792" lon="9.184105"><ele>722.8</ele></trkpt>
      <trkpt lat="46.769883" lon="9.183338"><ele>724.1</ele></trkpt>
      <trkpt lat="46.769888" lon="9.183078"><ele>724.5</ele></trkpt>
      <trkpt lat="46.769797" lon="9.182338"><ele>726.2</ele></trkpt>
      <trkpt lat="46.769817" lon="9.182050"><ele>727.0</ele></trkpt>
      <trkpt lat="46.769898" lon="9.181703"><ele>728.0</ele></trkpt>
      <trkpt lat="46.770010" lon="9.181387"><ele>729.0</ele></trkpt>
      <trkpt lat="46.770221" lon="9.180928"><ele>730.5</ele></trkpt>
      <trkpt lat="46.770322" lon="9.180599"><ele>731.5</ele></trkpt>
      <trkpt lat="46.770333" lon="9.180214"><ele>732.2</ele></trkpt>
      <trkpt lat="46.770304" lon="9.179365"><ele>731.7</ele></trkpt>
      <trkpt lat="46.770409" lon="9.178638"><ele>731.2</ele></trkpt>
      <trkpt lat="46.770509" lon="9.178306"><ele>731.0</ele></trkpt>
      <trkpt lat="46.770544" lon="9.178218"><ele>730.9</ele></trkpt>
      <trkpt lat="46.770990" lon="9.177387"><ele>730.2</ele></trkpt>
      <trkpt lat="46.771206" lon="9.176848"><ele>729.8</ele></trkpt>
      <trkpt lat="46.771231" lon="9.176694"><ele>729.6</ele></trkpt>
      <trkpt lat="46.771225" lon="9.175824"><ele>729.0</ele></trkpt>
      <trkpt lat="46.771217" lon="9.175428"><ele>728.8</ele></trkpt>
      <trkpt lat="46.771242" lon="9.175178"><ele>729.1</ele></trkpt>
      <trkpt lat="46.771646" lon="9.173812"><ele>731.0</ele></trkpt>
      <trkpt lat="46.771707" lon="9.173510"><ele>731.4</ele></trkpt>
      <trkpt lat="46.771650" lon="9.172792"><ele>732.2</ele></trkpt>
      <trkpt lat="46.771662" lon="9.172602"><ele>732.5</ele></trkpt>
      <trkpt lat="46.771975" lon="9.171735"><ele>733.6</ele></trkpt>
      <trkpt lat="46.772037" lon="9.171439"><ele>734.0</ele></trkpt>
      <trkpt lat="46.772141" lon="9.170704"><ele>734.9</ele></trkpt>
      <trkpt lat="46.772291" lon="9.170405"><ele>734.9</ele></trkpt>
      <trkpt lat="46.772509" lon="9.170068"><ele>734.0</ele></trkpt>
      <trkpt lat="46.772665" lon="9.169641"><ele>733.1</ele></trkpt>
      <trkpt lat="46.772771" lon="9.169245"><ele>732.3</ele></trkpt>
      <trkpt lat="46.772835" lon="9.168817"><ele>731.5</ele></trkpt>
      <trkpt lat="46.772939" lon="9.167441"><ele>731.9</ele></trkpt>
      <trkpt lat="46.772987" lon="9.167081"><ele>732.7</ele></trkpt>
      <trkpt lat="46.773263" lon="9.166276"><ele>734.7</ele></trkpt>
      <trkpt lat="46.773323" lon="9.165997"><ele>735.3</ele></trkpt>
      <trkpt lat="46.773350" lon="9.165627"><ele>736.2</ele></trkpt>
      <trkpt lat="46.773353" lon="9.165026"><ele>738.0</ele></trkpt>
      <trkpt lat="46.773272" lon="9.163853"><ele>741.6</ele></trkpt>
      <trkpt lat="46.773273" lon="9.163173"><ele>743.7</ele></trkpt>
      <trkpt lat="46.773372" lon="9.161481"><ele>746.3</ele></trkpt>
      <trkpt lat="46.773382" lon="9.160435"><ele>747.8</ele></trkpt>
      <trkpt lat="46.773580" lon="9.159288"><ele>746.8</ele></trkpt>
      <trkpt lat="46.773695" lon="9.158817"><ele>746.4</ele></trkpt>
      <trkpt lat="46.773883" lon="9.157299"><ele>745.7</ele></trkpt>
      <trkpt lat="46.773908" lon="9.156815"><ele>745.9</ele></trkpt>
      <trkpt lat="46.774021" lon="9.156382"><ele>746.0</ele></trkpt>
      <trkpt lat="46.774385" lon="9.155290"><ele>746.4</ele></trkpt>
      <trkpt lat="46.774504" lon="9.154875"><ele>746.7</ele></trkpt>
      <trkpt lat="46.774532" lon="9.154385"><ele>747.1</ele></trkpt>
      <trkpt lat="46.774436" lon="9.153827"><ele>747.5</ele></trkpt>
      <trkpt lat="46.774360" lon="9.152773"><ele>748.3</ele></trkpt>
      <trkpt lat="46.774381" lon="9.152543"><ele>748.7</ele></trkpt>
      <trkpt lat="46.774560" lon="9.151492"><ele>750.8</ele></trkpt>
      <trkpt lat="46.774565" lon="9.151260"><ele>751.2</ele></trkpt>
      <trkpt lat="46.774407" lon="9.150367"><ele>752.9</ele></trkpt>
      <trkpt lat="46.774253" lon="9.149025"><ele>756.9</ele></trkpt>
      <trkpt lat="46.774174" lon="9.148741"><ele>757.9</ele></trkpt>
      <trkpt lat="46.773930" lon="9.148181"><ele>759.9</ele></trkpt>
      <trkpt lat="46.773888" lon="9.147948"><ele>760.6</ele></trkpt>
      <trkpt lat="46.773889" lon="9.147896"><ele>760.8</ele></trkpt>
      <trkpt lat="46.773891" lon="9.147647"><ele>761.1</ele></trkpt>
      <trkpt lat="46.773809" lon="9.147178"><ele>761.3</ele></trkpt>
      <trkpt lat="46.773717" lon="9.146764"><ele>761.4</ele></trkpt>
      <trkpt lat="46.773691" lon="9.146141"><ele>761.5</ele></trkpt>
      <trkpt lat="46.773558" lon="9.145316"><ele>761.7</ele></trkpt>
      <trkpt lat="46.773440" lon="9.144798"><ele>761.4</ele></trkpt>
      <trkpt lat="46.773467" lon="9.144013"><ele>760.9</ele></trkpt>
      <trkpt lat="46.773361" lon="9.142787"><ele>760.1</ele></trkpt>
      <trkpt lat="46.773047" lon="9.141609"><ele>758.6</ele></trkpt>
      <trkpt lat="46.773027" lon="9.141471"><ele>758.4</ele></trkpt>
      <trkpt lat="46.772999" lon="9.141083"><ele>758.0</ele></trkpt>
      <trkpt lat="46.773027" lon="9.140436"><ele>757.2</ele></trkpt>
      <trkpt lat="46.773000" lon="9.140075"><ele>756.8</ele></trkpt>
      <trkpt lat="46.772814" lon="9.139233"><ele>758.5</ele></trkpt>
      <trkpt lat="46.772705" lon="9.138852"><ele>759.2</ele></trkpt>
      <trkpt lat="46.772337" lon="9.138106"><ele>760.9</ele></trkpt>
      <trkpt lat="46.772272" lon="9.137901"><ele>761.4</ele></trkpt>
      <trkpt lat="46.772070" lon="9.136819"><ele>762.5</ele></trkpt>
      <trkpt lat="46.772008" lon="9.136616"><ele>762.7</ele></trkpt>
      <trkpt lat="46.771747" lon="9.136101"><ele>763.2</ele></trkpt>
      <trkpt lat="46.771636" lon="9.135766"><ele>763.5</ele></trkpt>
      <trkpt lat="46.771565" lon="9.135405"><ele>763.8</ele></trkpt>
      <trkpt lat="46.771543" lon="9.135073"><ele>763.6</ele></trkpt>
      <trkpt lat="46.771619" lon="9.134371"><ele>762.7</ele></trkpt>
      <trkpt lat="46.771564" lon="9.133323"><ele>761.5</ele></trkpt>
      <trkpt lat="46.771393" lon="9.132812"><ele>760.9</ele></trkpt>
      <trkpt lat="46.771317" lon="9.132407"><ele>760.4</ele></trkpt>
      <trkpt lat="46.771231" lon="9.132198"><ele>760.1</ele></trkpt>
      <trkpt lat="46.770993" lon="9.131819"><ele>759.4</ele></trkpt>
      <trkpt lat="46.770873" lon="9.131291"><ele>758.7</ele></trkpt>
      <trkpt lat="46.770836" lon="9.130813"><ele>758.1</ele></trkpt>
      <trkpt lat="46.770905" lon="9.130465"><ele>757.7</ele></trkpt>
      <trkpt lat="46.771041" lon="9.130133"><ele>758.5</ele></trkpt>
      <trkpt lat="46.771067" lon="9.129993"><ele>758.9</ele></trkpt>
      <trkpt lat="46.771062" lon="9.129875"><ele>759.2</ele></trkpt>
      <trkpt lat="46.770973" lon="9.129396"><ele>760.5</ele></trkpt>
      <trkpt lat="46.770866" lon="9.129026"><ele>761.6</ele></trkpt>
      <trkpt lat="46.770808" lon="9.128860"><ele>762.1</ele></trkpt>
      <trkpt lat="46.770611" lon="9.128567"><ele>763.2</ele></trkpt>
      <trkpt lat="46.770548" lon="9.128460"><ele>763.5</ele></trkpt>
      <trkpt lat="46.770113" lon="9.127768"><ele>765.4</ele></trkpt>
      <trkpt lat="46.769987" lon="9.127034"><ele>766.4</ele></trkpt>
      <trkpt lat="46.769973" lon="9.126734"><ele>766.8</ele></trkpt>
      <trkpt lat="46.770046" lon="9.126201"><ele>767.6</ele></trkpt>
      <trkpt lat="46.770016" lon="9.125687"><ele>768.3</ele></trkpt>
      <trkpt lat="46.769930" lon="9.125253"><ele>768.1</ele></trkpt>
      <trkpt lat="46.769781" lon="9.124750"><ele>767.9</ele></trkpt>
      <trkpt lat="46.769631" lon="9.124504"><ele>767.8</ele></trkpt>
      <trkpt lat="46.769099" lon="9.123913"><ele>767.4</ele></trkpt>
      <trkpt lat="46.768734" lon="9.123102"><ele>766.3</ele></trkpt>
      <trkpt lat="46.768449" lon="9.121924"><ele>764.4</ele></trkpt>
      <trkpt lat="46.768234" lon="9.120824"><ele>763.2</ele></trkpt>
      <trkpt lat="46.768121" lon="9.119874"><ele>762.7</ele></trkpt>
      <trkpt lat="46.768057" lon="9.119673"><ele>762.5</ele></trkpt>
      <trkpt lat="46.767542" lon="9.118911"><ele>762.0</ele></trkpt>
      <trkpt lat="46.767229" lon="9.118265"><ele>761.7</ele></trkpt>
      <trkpt lat="46.766795" lon="9.117085"><ele>761.3</ele></trkpt>
      <trkpt lat="46.766610" lon="9.116703"><ele>761.1</ele></trkpt>
      <trkpt lat="46.766484" lon="9.116216"><ele>760.9</ele></trkpt>
      <trkpt lat="46.766464" lon="9.116018"><ele>760.9</ele></trkpt>
      <trkpt lat="46.766472" lon="9.115649"><ele>760.8</ele></trkpt>
      <trkpt lat="46.766320" lon="9.115316"><ele>760.6</ele></trkpt>
      <trkpt lat="46.765974" lon="9.114921"><ele>760.4</ele></trkpt>
      <trkpt lat="46.765519" lon="9.114667"><ele>761.1</ele></trkpt>
      <trkpt lat="46.765262" lon="9.114441"><ele>762.4</ele></trkpt>
      <trkpt lat="46.765037" lon="9.113781"><ele>764.6</ele></trkpt>
      <trkpt lat="46.764892" lon="9.113424"><ele>765.8</ele></trkpt>
      <trkpt lat="46.764398" lon="9.112469"><ele>769.3</ele></trkpt>
      <trkpt lat="46.764063" lon="9.112020"><ele>771.2</ele></trkpt>
      <trkpt lat="46.763947" lon="9.111666"><ele>772.3</ele></trkpt>
      <trkpt lat="46.763877" lon="9.111084"><ele>773.9</ele></trkpt>
      <trkpt lat="46.763863" lon="9.110699"><ele>775.0</ele></trkpt>
      <trkpt lat="46.763976" lon="9.109610"><ele>773.8</ele></trkpt>
      <trkpt lat="46.763849" lon="9.108381"><ele>771.6</ele></trkpt>
      <trkpt lat="46.763406" lon="9.106768"><ele>770.7</ele></trkpt>
      <trkpt lat="46.763184" lon="9.106087"><ele>770.6</ele></trkpt>
      <trkpt lat="46.762811" lon="9.105530"><ele>771.1</ele></trkpt>
      <trkpt lat="46.762496" lon="9.104966"><ele>773.5</ele></trkpt>
      <trkpt lat="46.762029" lon="9.103746"><ele>778.0</ele></trkpt>
      <trkpt lat="46.761928" lon="9.103332"><ele>779.1</ele></trkpt>
      <trkpt lat="46.761743" lon="9.102846"><ele>779.6</ele></trkpt>
      <trkpt lat="46.761602" lon="9.102677"><ele>779.8</ele></trkpt>
      <trkpt lat="46.761474" lon="9.102245"><ele>780.3</ele></trkpt>
      <trkpt lat="46.761282" lon="9.101826"><ele>780.7</ele></trkpt>
      <trkpt lat="46.760618" lon="9.101005"><ele>782.3</ele></trkpt>
      <trkpt lat="46.760208" lon="9.100064"><ele>784.0</ele></trkpt>
      <trkpt lat="46.759929" lon="9.099511"><ele>785.0</ele></trkpt>
      <trkpt lat="46.759766" lon="9.099334"><ele>785.4</ele></trkpt>
      <trkpt lat="46.759631" lon="9.099257"><ele>785.4</ele></trkpt>
      <trkpt lat="46.759320" lon="9.098895"><ele>785.5</ele></trkpt>
      <trkpt lat="46.759226" lon="9.098728"><ele>785.6</ele></trkpt>
      <trkpt lat="46.759147" lon="9.098304"><ele>785.6</ele></trkpt>
      <trkpt lat="46.759089" lon="9.097755"><ele>785.7</ele></trkpt>
      <trkpt lat="46.759083" lon="9.096774"><ele>785.3</ele></trkpt>
      <trkpt lat="46.758823" lon="9.095197"><ele>783.3</ele></trkpt>
      <trkpt lat="46.758661" lon="9.094927"><ele>782.8</ele></trkpt>
      <trkpt lat="46.758348" lon="9.094632"><ele>783.0</ele></trkpt>
      <trkpt lat="46.758177" lon="9.094307"><ele>783.6</ele></trkpt>
      <trkpt lat="46.757535" lon="9.093697"><ele>785.4</ele></trkpt>
      <trkpt lat="46.757381" lon="9.093479"><ele>785.9</ele></trkpt>
      <trkpt lat="46.757232" lon="9.093073"><ele>786.6</ele></trkpt>
      <trkpt lat="46.757180" lon="9.092820"><ele>786.5</ele></trkpt>
      <trkpt lat="46.757144" lon="9.092623"><ele>786.3</ele></trkpt>
      <trkpt lat="46.757122" lon="9.092453"><ele>786.2</ele></trkpt>
      <trkpt lat="46.756976" lon="9.092126"><ele>785.8</ele></trkpt>
      <trkpt lat="46.756672" lon="9.091689"><ele>785.3</ele></trkpt>
      <trkpt lat="46.756584" lon="9.091335"><ele>785.0</ele></trkpt>
      <trkpt lat="46.756539" lon="9.089112"><ele>781.9</ele></trkpt>
      <trkpt lat="46.756409" lon="9.087994"><ele>780.0</ele></trkpt>
      <trkpt lat="46.756368" lon="9.087061"><ele>778.1</ele></trkpt>
      <trkpt lat="46.756371" lon="9.086832"><ele>777.6</ele></trkpt>
      <trkpt lat="46.756445" lon="9.086209"><ele>776.4</ele></trkpt>
      <trkpt lat="46.756423" lon="9.085787"><ele>775.5</ele></trkpt>
      <trkpt lat="46.756230" lon="9.084042"><ele>775.2</ele></trkpt>
      <trkpt lat="46.756174" lon="9.082208"><ele>776.1</ele></trkpt>
      <trkpt lat="46.756118" lon="9.081436"><ele>776.8</ele></trkpt>
      <trkpt lat="46.756015" lon="9.080500"><ele>777.6</ele></trkpt>
      <trkpt lat="46.756062" lon="9.080334"><ele>777.7</ele></trkpt>
      <trkpt lat="46.756129" lon="9.080305"><ele>777.8</ele></trkpt>
      <trkpt lat="46.756184" lon="9.080295"><ele>777.9</ele></trkpt>
      <trkpt lat="46.756258" lon="9.080267"><ele>777.9</ele></trkpt>
      <trkpt lat="46.756305" lon="9.080174"><ele>778.0</ele></trkpt>
      <trkpt lat="46.756357" lon="9.079253"><ele>778.6</ele></trkpt>
      <trkpt lat="46.756189" lon="9.077303"><ele>781.1</ele></trkpt>
      <trkpt lat="46.756100" lon="9.076561"><ele>783.0</ele></trkpt>
      <trkpt lat="46.755760" lon="9.075205"><ele>786.4</ele></trkpt>
      <trkpt lat="46.755416" lon="9.074322"><ele>787.7</ele></trkpt>
      <trkpt lat="46.755134" lon="9.073214"><ele>789.3</ele></trkpt>
      <trkpt lat="46.754808" lon="9.071371"><ele>788.3</ele></trkpt>
      <trkpt lat="46.754647" lon="9.070762"><ele>787.9</ele></trkpt>
      <trkpt lat="46.754648" lon="9.070346"><ele>787.4</ele></trkpt>
      <trkpt lat="46.754740" lon="9.069958"><ele>786.6</ele></trkpt>
      <trkpt lat="46.754899" lon="9.069296"><ele>785.3</ele></trkpt>
      <trkpt lat="46.754956" lon="9.068784"><ele>784.3</ele></trkpt>
      <trkpt lat="46.755005" lon="9.068536"><ele>783.9</ele></trkpt>
      <trkpt lat="46.755024" lon="9.068354"><ele>783.5</ele></trkpt>
      <trkpt lat="46.755053" lon="9.068147"><ele>783.1</ele></trkpt>
      <trkpt lat="46.755072" lon="9.068066"><ele>782.9</ele></trkpt>
      <trkpt lat="46.755431" lon="9.067602"><ele>784.3</ele></trkpt>
      <trkpt lat="46.755538" lon="9.067426"><ele>784.9</ele></trkpt>
      <trkpt lat="46.755702" lon="9.067024"><ele>786.1</ele></trkpt>
      <trkpt lat="46.755422" lon="9.066840"><ele>787.3</ele></trkpt>
      <trkpt lat="46.755150" lon="9.066691"><ele>788.4</ele></trkpt>
      <trkpt lat="46.754795" lon="9.066685"><ele>789.9</ele></trkpt>
      <trkpt lat="46.754707" lon="9.066583"><ele>790.4</ele></trkpt>
      <trkpt lat="46.754249" lon="9.063442"><ele>800.2</ele></trkpt>
      <trkpt lat="46.754251" lon="9.063139"><ele>800.7</ele></trkpt>
      <trkpt lat="46.754319" lon="9.062274"><ele>802.2</ele></trkpt>
      <trkpt lat="46.754002" lon="9.060985"><ele>802.0</ele></trkpt>
      <trkpt lat="46.753825" lon="9.060439"><ele>801.0</ele></trkpt>
      <trkpt lat="46.753806" lon="9.060383"><ele>800.9</ele></trkpt>
      <trkpt lat="46.753746" lon="9.060209"><ele>800.5</ele></trkpt>
      <trkpt lat="46.753483" lon="9.059749"><ele>799.5</ele></trkpt>
      <trkpt lat="46.753540" lon="9.059660"><ele>799.3</ele></trkpt>
      <trkpt lat="46.754064" lon="9.058893"><ele>796.9</ele></trkpt>
      <trkpt lat="46.754084" lon="9.058857"><ele>796.8</ele></trkpt>
      <trkpt lat="46.753983" lon="9.058757"><ele>796.3</ele></trkpt>
      <trkpt lat="46.753850" lon="9.058542"><ele>795.6</ele></trkpt>
      <trkpt lat="46.753902" lon="9.058731"><ele>795.1</ele></trkpt>
      <trkpt lat="46.753978" lon="9.058890"><ele>794.6</ele></trkpt>
      <trkpt lat="46.754119" lon="9.059093"><ele>793.9</ele></trkpt>
      <trkpt lat="46.753890" lon="9.059007"><ele>793.1</ele></trkpt>
      <trkpt lat="46.753798" lon="9.058846"><ele>792.6</ele></trkpt>
      <trkpt lat="46.753749" lon="9.058696"><ele>792.4</ele></trkpt>
      <trkpt lat="46.753586" lon="9.057756"><ele>794.0</ele></trkpt>
      <trkpt lat="46.753537" lon="9.056553"><ele>796.1</ele></trkpt>
      <trkpt lat="46.753455" lon="9.055817"><ele>796.6</ele></trkpt>
      <trkpt lat="46.753245" lon="9.055073"><ele>796.4</ele></trkpt>
      <trkpt lat="46.752816" lon="9.053252"><ele>795.7</ele></trkpt>
      <trkpt lat="46.752743" lon="9.052465"><ele>795.0</ele></trkpt>
      <trkpt lat="46.752603" lon="9.051248"><ele>793.9</ele></trkpt>
      <trkpt lat="46.752390" lon="9.048851"><ele>792.9</ele></trkpt>
      <trkpt lat="46.752248" lon="9.047793"><ele>793.5</ele></trkpt>
      <trkpt lat="46.751963" lon="9.046589"><ele>794.9</ele></trkpt>
      <trkpt lat="46.751732" lon="9.045804"><ele>795.9</ele></trkpt>
      <trkpt lat="46.751629" lon="9.045643"><ele>796.3</ele></trkpt>
      <trkpt lat="46.751114" lon="9.044408"><ele>798.5</ele></trkpt>
      <trkpt lat="46.750734" lon="9.043598"><ele>799.7</ele></trkpt>
      <trkpt lat="46.750508" lon="9.042702"><ele>800.5</ele></trkpt>
      <trkpt lat="46.750399" lon="9.042070"><ele>800.9</ele></trkpt>
      <trkpt lat="46.750113" lon="9.038699"><ele>804.2</ele></trkpt>
      <trkpt lat="46.749977" lon="9.037847"><ele>806.3</ele></trkpt>
      <trkpt lat="46.749943" lon="9.037606"><ele>806.9</ele></trkpt>
      <trkpt lat="46.749956" lon="9.037272"><ele>807.7</ele></trkpt>
      <trkpt lat="46.749534" lon="9.036908"><ele>809.5</ele></trkpt>
      <trkpt lat="46.748992" lon="9.035965"><ele>811.7</ele></trkpt>
      <trkpt lat="46.748884" lon="9.035697"><ele>812.2</ele></trkpt>
      <trkpt lat="46.748580" lon="9.034751"><ele>813.7</ele></trkpt>
      <trkpt lat="46.748283" lon="9.033951"><ele>815.1</ele></trkpt>
      <trkpt lat="46.747684" lon="9.032799"><ele>817.6</ele></trkpt>
      <trkpt lat="46.747656" lon="9.032712"><ele>817.8</ele></trkpt>
      <trkpt lat="46.747679" lon="9.032482"><ele>818.2</ele></trkpt>
      <trkpt lat="46.747652" lon="9.032404"><ele>818.3</ele></trkpt>
      <trkpt lat="46.747624" lon="9.032399"><ele>818.4</ele></trkpt>
      <trkpt lat="46.747577" lon="9.032442"><ele>818.5</ele></trkpt>
      <trkpt lat="46.747506" lon="9.032433"><ele>818.7</ele></trkpt>
      <trkpt lat="46.747446" lon="9.032315"><ele>818.9</ele></trkpt>
      <trkpt lat="46.747412" lon="9.032176"><ele>818.8</ele></trkpt>
      <trkpt lat="46.747380" lon="9.031778"><ele>818.6</ele></trkpt>
      <trkpt lat="46.747390" lon="9.031588"><ele>818.5</ele></trkpt>
      <trkpt lat="46.747450" lon="9.031383"><ele>818.4</ele></trkpt>
      <trkpt lat="46.747449" lon="9.031140"><ele>818.3</ele></trkpt>
      <trkpt lat="46.746997" lon="9.030160"><ele>817.7</ele></trkpt>
      <trkpt lat="46.746877" lon="9.029447"><ele>817.6</ele></trkpt>
      <trkpt lat="46.746816" lon="9.028406"><ele>817.5</ele></trkpt>
      <trkpt lat="46.746974" lon="9.027946"><ele>817.5</ele></trkpt>
      <trkpt lat="46.746713" lon="9.026661"><ele>818.1</ele></trkpt>
      <trkpt lat="46.746488" lon="9.025277"><ele>819.2</ele></trkpt>
      <trkpt lat="46.746464" lon="9.025065"><ele>819.4</ele></trkpt>
      <trkpt lat="46.746477" lon="9.024873"><ele>819.6</ele></trkpt>
      <trkpt lat="46.746442" lon="9.024598"><ele>819.7</ele></trkpt>
      <trkpt lat="46.746381" lon="9.024368"><ele>819.9</ele></trkpt>
      <trkpt lat="46.746317" lon="9.023759"><ele>820.3</ele></trkpt>
      <trkpt lat="46.746316" lon="9.023224"><ele>820.6</ele></trkpt>
      <trkpt lat="46.745972" lon="9.019937"><ele>823.3</ele></trkpt>
      <trkpt lat="46.745934" lon="9.018676"><ele>825.5</ele></trkpt>
      <trkpt lat="46.746007" lon="9.017593"><ele>827.7</ele></trkpt>
      <trkpt lat="46.746013" lon="9.016302"><ele>830.2</ele></trkpt>
      <trkpt lat="46.745981" lon="9.015825"><ele>831.2</ele></trkpt>
      <trkpt lat="46.745890" lon="9.015249"><ele>832.4</ele></trkpt>
      <trkpt lat="46.745748" lon="9.015039"><ele>833.0</ele></trkpt>
      <trkpt lat="46.745706" lon="9.014937"><ele>833.2</ele></trkpt>
      <trkpt lat="46.745631" lon="9.014357"><ele>834.3</ele></trkpt>
      <trkpt lat="46.745618" lon="9.014242"><ele>834.5</ele></trkpt>
      <trkpt lat="46.745515" lon="9.014073"><ele>834.8</ele></trkpt>
      <trkpt lat="46.745440" lon="9.013819"><ele>835.2</ele></trkpt>
      <trkpt lat="46.745416" lon="9.013644"><ele>835.5</ele></trkpt>
      <trkpt lat="46.745421" lon="9.013472"><ele>835.8</ele></trkpt>
      <trkpt lat="46.745573" lon="9.012460"><ele>837.4</ele></trkpt>
      <trkpt lat="46.745773" lon="9.012072"><ele>838.2</ele></trkpt>
      <trkpt lat="46.745813" lon="9.011867"><ele>838.5</ele></trkpt>
      <trkpt lat="46.745766" lon="9.011255"><ele>839.4</ele></trkpt>
      <trkpt lat="46.745693" lon="9.010796"><ele>840.1</ele></trkpt>
      <trkpt lat="46.745686" lon="9.010532"><ele>840.4</ele></trkpt>
      <trkpt lat="46.745761" lon="9.010157"><ele>841.0</ele></trkpt>
      <trkpt lat="46.745915" lon="9.009725"><ele>841.7</ele></trkpt>
      <trkpt lat="46.745957" lon="9.009522"><ele>842.0</ele></trkpt>
      <trkpt lat="46.746008" lon="9.008216"><ele>843.7</ele></trkpt>
      <trkpt lat="46.746083" lon="9.007898"><ele>844.1</ele></trkpt>
      <trkpt lat="46.746090" lon="9.007446"><ele>844.7</ele></trkpt>
      <trkpt lat="46.746068" lon="9.007193"><ele>845.0</ele></trkpt>
      <trkpt lat="46.745943" lon="9.006734"><ele>845.2</ele></trkpt>
      <trkpt lat="46.745848" lon="9.006240"><ele>845.1</ele></trkpt>
      <trkpt lat="46.745636" lon="9.005863"><ele>845.1</ele></trkpt>
      <trkpt lat="46.745441" lon="9.005478"><ele>845.0</ele></trkpt>
      <trkpt lat="46.745370" lon="9.005413"><ele>845.0</ele></trkpt>
      <trkpt lat="46.745261" lon="9.005330"><ele>845.0</ele></trkpt>
      <trkpt lat="46.745231" lon="9.005301"><ele>845.0</ele></trkpt>
      <trkpt lat="46.745163" lon="9.005208"><ele>845.0</ele></trkpt>
      <trkpt lat="46.745056" lon="9.004966"><ele>845.0</ele></trkpt>
      <trkpt lat="46.744927" lon="9.004928"><ele>845.0</ele></trkpt>
      <trkpt lat="46.744888" lon="9.004017"><ele>845.4</ele></trkpt>
      <trkpt lat="46.744943" lon="9.003596"><ele>845.5</ele></trkpt>
      <trkpt lat="46.745002" lon="9.003282"><ele>845.7</ele></trkpt>
      <trkpt lat="46.745062" lon="9.003091"><ele>845.7</ele></trkpt>
      <trkpt lat="46.745352" lon="9.002331"><ele>846.7</ele></trkpt>
      <trkpt lat="46.745420" lon="9.002083"><ele>847.4</ele></trkpt>
      <trkpt lat="46.745439" lon="9.001794"><ele>848.2</ele></trkpt>
      <trkpt lat="46.745411" lon="9.001475"><ele>849.0</ele></trkpt>
      <trkpt lat="46.745336" lon="9.001166"><ele>849.8</ele></trkpt>
      <trkpt lat="46.745246" lon="9.000911"><ele>850.6</ele></trkpt>
      <trkpt lat="46.745437" lon="9.000636"><ele>851.6</ele></trkpt>
      <trkpt lat="46.745547" lon="9.000332"><ele>852.5</ele></trkpt>
      <trkpt lat="46.745631" lon="8.999851"><ele>853.5</ele></trkpt>
      <trkpt lat="46.745699" lon="8.999392"><ele>854.5</ele></trkpt>
      <trkpt lat="46.745738" lon="8.999031"><ele>855.2</ele></trkpt>
      <trkpt lat="46.745522" lon="8.998739"><ele>856.1</ele></trkpt>
      <trkpt lat="46.745275" lon="8.998295"><ele>857.2</ele></trkpt>
      <trkpt lat="46.745165" lon="8.998152"><ele>857.7</ele></trkpt>
      <trkpt lat="46.744948" lon="8.997828"><ele>857.7</ele></trkpt>
      <trkpt lat="46.744516" lon="8.997653"><ele>857.1</ele></trkpt>
      <trkpt lat="46.744413" lon="8.997571"><ele>857.0</ele></trkpt>
      <trkpt lat="46.744356" lon="8.997516"><ele>856.9</ele></trkpt>
      <trkpt lat="46.744234" lon="8.997355"><ele>856.6</ele></trkpt>
      <trkpt lat="46.744160" lon="8.997181"><ele>856.5</ele></trkpt>
      <trkpt lat="46.743768" lon="8.995479"><ele>854.4</ele></trkpt>
      <trkpt lat="46.743603" lon="8.995111"><ele>853.9</ele></trkpt>
      <trkpt lat="46.743407" lon="8.994828"><ele>853.3</ele></trkpt>
      <trkpt lat="46.743359" lon="8.994523"><ele>852.9</ele></trkpt>
      <trkpt lat="46.743339" lon="8.994365"><ele>852.7</ele></trkpt>
      <trkpt lat="46.743298" lon="8.994286"><ele>852.6</ele></trkpt>
      <trkpt lat="46.743249" lon="8.994266"><ele>852.5</ele></trkpt>
      <trkpt lat="46.743248" lon="8.994218"><ele>852.4</ele></trkpt>
      <trkpt lat="46.743217" lon="8.993129"><ele>851.1</ele></trkpt>
      <trkpt lat="46.743124" lon="8.993132"><ele>850.9</ele></trkpt>
      <trkpt lat="46.742878" lon="8.993204"><ele>850.5</ele></trkpt>
      <trkpt lat="46.742382" lon="8.993434"><ele>849.6</ele></trkpt>
      <trkpt lat="46.742253" lon="8.993495"><ele>849.3</ele></trkpt>
      <trkpt lat="46.742160" lon="8.993540"><ele>849.1</ele></trkpt>
      <trkpt lat="46.742082" lon="8.993568"><ele>849.0</ele></trkpt>
      <trkpt lat="46.741989" lon="8.993526"><ele>848.9</ele></trkpt>
      <trkpt lat="46.741923" lon="8.993424"><ele>848.8</ele></trkpt>
      <trkpt lat="46.741680" lon="8.992655"><ele>848.6</ele></trkpt>
      <trkpt lat="46.741326" lon="8.991563"><ele>848.3</ele></trkpt>
      <trkpt lat="46.740993" lon="8.990639"><ele>848.8</ele></trkpt>
      <trkpt lat="46.740474" lon="8.989332"><ele>850.2</ele></trkpt>
      <trkpt lat="46.740430" lon="8.989208"><ele>850.3</ele></trkpt>
      <trkpt lat="46.740242" lon="8.988636"><ele>850.8</ele></trkpt>
      <trkpt lat="46.740261" lon="8.988562"><ele>850.8</ele></trkpt>
      <trkpt lat="46.740700" lon="8.988010"><ele>851.3</ele></trkpt>
      <trkpt lat="46.740122" lon="8.986706"><ele>852.3</ele></trkpt>
      <trkpt lat="46.739716" lon="8.985559"><ele>852.9</ele></trkpt>
      <trkpt lat="46.739590" lon="8.985245"><ele>853.1</ele></trkpt>
      <trkpt lat="46.739371" lon="8.984801"><ele>853.4</ele></trkpt>
      <trkpt lat="46.739319" lon="8.984544"><ele>853.6</ele></trkpt>
      <trkpt lat="46.739284" lon="8.983627"><ele>854.2</ele></trkpt>
      <trkpt lat="46.739291" lon="8.983574"><ele>854.2</ele></trkpt>
      <trkpt lat="46.738876" lon="8.982926"><ele>854.8</ele></trkpt>
      <trkpt lat="46.738225" lon="8.981731"><ele>856.0</ele></trkpt>
      <trkpt lat="46.737939" lon="8.981091"><ele>856.7</ele></trkpt>
      <trkpt lat="46.737054" lon="8.978846"><ele>859.2</ele></trkpt>
      <trkpt lat="46.736984" lon="8.978516"><ele>859.6</ele></trkpt>
      <trkpt lat="46.736910" lon="8.978125"><ele>860.1</ele></trkpt>
      <trkpt lat="46.736830" lon="8.977362"><ele>860.8</ele></trkpt>
      <trkpt lat="46.736769" lon="8.976781"><ele>861.3</ele></trkpt>
      <trkpt lat="46.736641" lon="8.976598"><ele>861.5</ele></trkpt>
      <trkpt lat="46.736217" lon="8.976711"><ele>862.0</ele></trkpt>
      <trkpt lat="46.735873" lon="8.976760"><ele>862.4</ele></trkpt>
      <trkpt lat="46.735051" lon="8.976278"><ele>863.2</ele></trkpt>
      <trkpt lat="46.735012" lon="8.975983"><ele>863.4</ele></trkpt>
      <trkpt lat="46.735043" lon="8.975793"><ele>863.5</ele></trkpt>
      <trkpt lat="46.735131" lon="8.975579"><ele>863.7</ele></trkpt>
      <trkpt lat="46.735124" lon="8.975388"><ele>863.8</ele></trkpt>
      <trkpt lat="46.734738" lon="8.974706"><ele>864.6</ele></trkpt>
      <trkpt lat="46.734308" lon="8.973600"><ele>867.1</ele></trkpt>
      <trkpt lat="46.734269" lon="8.973375"><ele>867.5</ele></trkpt>
      <trkpt lat="46.734026" lon="8.972786"><ele>868.8</ele></trkpt>
      <trkpt lat="46.733785" lon="8.972378"><ele>869.5</ele></trkpt>
      <trkpt lat="46.733573" lon="8.972129"><ele>870.0</ele></trkpt>
      <trkpt lat="46.733438" lon="8.971851"><ele>870.3</ele></trkpt>
      <trkpt lat="46.733311" lon="8.970994"><ele>871.3</ele></trkpt>
      <trkpt lat="46.733254" lon="8.970776"><ele>871.5</ele></trkpt>
      <trkpt lat="46.732680" lon="8.969789"><ele>872.8</ele></trkpt>
      <trkpt lat="46.732384" lon="8.969067"><ele>873.7</ele></trkpt>
      <trkpt lat="46.731621" lon="8.968396"><ele>875.8</ele></trkpt>
      <trkpt lat="46.731385" lon="8.968236"><ele>876.9</ele></trkpt>
      <trkpt lat="46.730752" lon="8.967952"><ele>879.8</ele></trkpt>
      <trkpt lat="46.730329" lon="8.967808"><ele>881.7</ele></trkpt>
      <trkpt lat="46.730100" lon="8.967585"><ele>883.0</ele></trkpt>
      <trkpt lat="46.729836" lon="8.967386"><ele>884.6</ele></trkpt>
      <trkpt lat="46.729613" lon="8.967128"><ele>886.1</ele></trkpt>
      <trkpt lat="46.729527" lon="8.967065"><ele>886.7</ele></trkpt>
      <trkpt lat="46.729278" lon="8.967057"><ele>888.0</ele></trkpt>
      <trkpt lat="46.729153" lon="8.966986"><ele>888.7</ele></trkpt>
      <trkpt lat="46.728896" lon="8.966752"><ele>890.4</ele></trkpt>
      <trkpt lat="46.728704" lon="8.966482"><ele>891.8</ele></trkpt>
      <trkpt lat="46.728566" lon="8.966351"><ele>892.1</ele></trkpt>
      <trkpt lat="46.728311" lon="8.965817"><ele>892.3</ele></trkpt>
      <trkpt lat="46.728163" lon="8.965442"><ele>892.4</ele></trkpt>
      <trkpt lat="46.727734" lon="8.964474"><ele>892.8</ele></trkpt>
      <trkpt lat="46.727699" lon="8.964377"><ele>892.8</ele></trkpt>
      <trkpt lat="46.727628" lon="8.964122"><ele>892.8</ele></trkpt>
      <trkpt lat="46.727551" lon="8.963583"><ele>892.6</ele></trkpt>
      <trkpt lat="46.727451" lon="8.963335"><ele>892.5</ele></trkpt>
      <trkpt lat="46.727373" lon="8.963216"><ele>892.5</ele></trkpt>
      <trkpt lat="46.727273" lon="8.963124"><ele>892.4</ele></trkpt>
      <trkpt lat="46.726921" lon="8.963015"><ele>892.3</ele></trkpt>
      <trkpt lat="46.726783" lon="8.962872"><ele>892.2</ele></trkpt>
      <trkpt lat="46.726722" lon="8.962735"><ele>892.2</ele></trkpt>
      <trkpt lat="46.726644" lon="8.962413"><ele>892.1</ele></trkpt>
      <trkpt lat="46.726612" lon="8.962173"><ele>892.0</ele></trkpt>
      <trkpt lat="46.726299" lon="8.961515"><ele>892.0</ele></trkpt>
      <trkpt lat="46.726176" lon="8.961068"><ele>892.0</ele></trkpt>
      <trkpt lat="46.725639" lon="8.960380"><ele>891.9</ele></trkpt>
      <trkpt lat="46.725359" lon="8.959587"><ele>892.7</ele></trkpt>
      <trkpt lat="46.725190" lon="8.958761"><ele>893.5</ele></trkpt>
      <trkpt lat="46.724835" lon="8.957536"><ele>895.0</ele></trkpt>
      <trkpt lat="46.724559" lon="8.957188"><ele>895.8</ele></trkpt>
      <trkpt lat="46.724528" lon="8.957085"><ele>896.0</ele></trkpt>
      <trkpt lat="46.724532" lon="8.957001"><ele>896.1</ele></trkpt>
      <trkpt lat="46.724583" lon="8.956876"><ele>896.4</ele></trkpt>
      <trkpt lat="46.724723" lon="8.956540"><ele>897.0</ele></trkpt>
      <trkpt lat="46.724842" lon="8.956236"><ele>897.5</ele></trkpt>
      <trkpt lat="46.724820" lon="8.956042"><ele>897.8</ele></trkpt>
      <trkpt lat="46.724680" lon="8.956113"><ele>898.1</ele></trkpt>
      <trkpt lat="46.724567" lon="8.956110"><ele>898.4</ele></trkpt>
      <trkpt lat="46.724221" lon="8.955801"><ele>899.9</ele></trkpt>
      <trkpt lat="46.723661" lon="8.955388"><ele>902.4</ele></trkpt>
      <trkpt lat="46.723636" lon="8.955377"><ele>902.5</ele></trkpt>
      <trkpt lat="46.722965" lon="8.955061"><ele>905.2</ele></trkpt>
      <trkpt lat="46.722181" lon="8.954009"><ele>907.8</ele></trkpt>
      <trkpt lat="46.722120" lon="8.953873"><ele>908.1</ele></trkpt>
      <trkpt lat="46.722106" lon="8.953655"><ele>908.5</ele></trkpt>
      <trkpt lat="46.722260" lon="8.952993"><ele>909.6</ele></trkpt>
      <trkpt lat="46.722290" lon="8.952172"><ele>907.4</ele></trkpt>
      <trkpt lat="46.722390" lon="8.951564"><ele>905.4</ele></trkpt>
      <trkpt lat="46.722364" lon="8.951464"><ele>905.1</ele></trkpt>
      <trkpt lat="46.722146" lon="8.950999"><ele>903.3</ele></trkpt>
      <trkpt lat="46.722135" lon="8.950901"><ele>902.9</ele></trkpt>
      <trkpt lat="46.722153" lon="8.950786"><ele>902.6</ele></trkpt>
      <trkpt lat="46.722200" lon="8.950689"><ele>902.2</ele></trkpt>
      <trkpt lat="46.722745" lon="8.950144"><ele>900.3</ele></trkpt>
      <trkpt lat="46.722813" lon="8.950120"><ele>900.1</ele></trkpt>
      <trkpt lat="46.722888" lon="8.949809"><ele>899.6</ele></trkpt>
      <trkpt lat="46.722915" lon="8.949720"><ele>899.4</ele></trkpt>
      <trkpt lat="46.723020" lon="8.949435"><ele>898.9</ele></trkpt>
      <trkpt lat="46.723076" lon="8.949346"><ele>898.7</ele></trkpt>
      <trkpt lat="46.723271" lon="8.949068"><ele>898.1</ele></trkpt>
      <trkpt lat="46.723198" lon="8.949023"><ele>897.9</ele></trkpt>
      <trkpt lat="46.723111" lon="8.948916"><ele>897.6</ele></trkpt>
      <trkpt lat="46.722961" lon="8.948637"><ele>897.3</ele></trkpt>
      <trkpt lat="46.722870" lon="8.948472"><ele>897.6</ele></trkpt>
      <trkpt lat="46.722440" lon="8.947695"><ele>898.6</ele></trkpt>
      <trkpt lat="46.722338" lon="8.947506"><ele>898.8</ele></trkpt>
      <trkpt lat="46.721999" lon="8.946879"><ele>899.6</ele></trkpt>
      <trkpt lat="46.721912" lon="8.946719"><ele>899.8</ele></trkpt>
      <trkpt lat="46.721887" lon="8.946673"><ele>899.9</ele></trkpt>
      <trkpt lat="46.721260" lon="8.945513"><ele>903.4</ele></trkpt>
      <trkpt lat="46.720834" lon="8.944694"><ele>905.8</ele></trkpt>
      <trkpt lat="46.720758" lon="8.944534"><ele>906.3</ele></trkpt>
      <trkpt lat="46.720570" lon="8.943860"><ele>907.8</ele></trkpt>
      <trkpt lat="46.720379" lon="8.943148"><ele>909.4</ele></trkpt>
      <trkpt lat="46.720341" lon="8.942855"><ele>910.0</ele></trkpt>
      <trkpt lat="46.720360" lon="8.942088"><ele>911.7</ele></trkpt>
      <trkpt lat="46.720287" lon="8.941373"><ele>912.2</ele></trkpt>
      <trkpt lat="46.720240" lon="8.940081"><ele>913.3</ele></trkpt>
      <trkpt lat="46.720136" lon="8.939076"><ele>913.5</ele></trkpt>
      <trkpt lat="46.720147" lon="8.938632"><ele>913.2</ele></trkpt>
      <trkpt lat="46.720204" lon="8.938203"><ele>912.9</ele></trkpt>
      <trkpt lat="46.720217" lon="8.937846"><ele>912.6</ele></trkpt>
      <trkpt lat="46.720218" lon="8.937236"><ele>912.2</ele></trkpt>
      <trkpt lat="46.720219" lon="8.936271"><ele>912.1</ele></trkpt>
      <trkpt lat="46.720220" lon="8.935942"><ele>912.2</ele></trkpt>
      <trkpt lat="46.720220" lon="8.935780"><ele>912.3</ele></trkpt>
      <trkpt lat="46.720244" lon="8.934035"><ele>913.0</ele></trkpt>
      <trkpt lat="46.720369" lon="8.932923"><ele>914.3</ele></trkpt>
      <trkpt lat="46.720484" lon="8.930854"><ele>917.5</ele></trkpt>
      <trkpt lat="46.720497" lon="8.929590"><ele>920.3</ele></trkpt>
      <trkpt lat="46.720460" lon="8.928283"><ele>924.4</ele></trkpt>
      <trkpt lat="46.720421" lon="8.928153"><ele>924.9</ele></trkpt>
      <trkpt lat="46.720294" lon="8.928016"><ele>925.8</ele></trkpt>
      <trkpt lat="46.720307" lon="8.927653"><ele>927.2</ele></trkpt>
      <trkpt lat="46.720344" lon="8.927509"><ele>927.8</ele></trkpt>
      <trkpt lat="46.720413" lon="8.927362"><ele>928.4</ele></trkpt>
      <trkpt lat="46.720144" lon="8.926589"><ele>931.6</ele></trkpt>
      <trkpt lat="46.720000" lon="8.926072"><ele>932.5</ele></trkpt>
      <trkpt lat="46.719904" lon="8.925197"><ele>933.9</ele></trkpt>
      <trkpt lat="46.719958" lon="8.924378"><ele>935.2</ele></trkpt>
      <trkpt lat="46.720094" lon="8.923619"><ele>936.4</ele></trkpt>
      <trkpt lat="46.720389" lon="8.922937"><ele>937.7</ele></trkpt>
      <trkpt lat="46.720421" lon="8.922515"><ele>938.3</ele></trkpt>
      <trkpt lat="46.720377" lon="8.921907"><ele>939.3</ele></trkpt>
      <trkpt lat="46.720048" lon="8.919750"><ele>946.1</ele></trkpt>
      <trkpt lat="46.720064" lon="8.919584"><ele>946.7</ele></trkpt>
      <trkpt lat="46.720115" lon="8.919404"><ele>947.4</ele></trkpt>
      <trkpt lat="46.720170" lon="8.918559"><ele>946.6</ele></trkpt>
      <trkpt lat="46.720358" lon="8.917995"><ele>944.1</ele></trkpt>
      <trkpt lat="46.720378" lon="8.917924"><ele>943.8</ele></trkpt>
      <trkpt lat="46.720488" lon="8.917554"><ele>942.2</ele></trkpt>
      <trkpt lat="46.720488" lon="8.917337"><ele>941.4</ele></trkpt>
      <trkpt lat="46.720463" lon="8.917202"><ele>940.8</ele></trkpt>
      <trkpt lat="46.720506" lon="8.916960"><ele>939.8</ele></trkpt>
      <trkpt lat="46.720777" lon="8.916045"><ele>938.9</ele></trkpt>
      <trkpt lat="46.720830" lon="8.915640"><ele>939.5</ele></trkpt>
      <trkpt lat="46.720832" lon="8.914823"><ele>940.5</ele></trkpt>
      <trkpt lat="46.720494" lon="8.914416"><ele>941.4</ele></trkpt>
      <trkpt lat="46.720228" lon="8.914008"><ele>944.8</ele></trkpt>
      <trkpt lat="46.719693" lon="8.913073"><ele>954.9</ele></trkpt>
      <trkpt lat="46.719557" lon="8.912750"><ele>958.0</ele></trkpt>
      <trkpt lat="46.719135" lon="8.911419"><ele>968.7</ele></trkpt>
      <trkpt lat="46.719012" lon="8.910865"><ele>972.4</ele></trkpt>
      <trkpt lat="46.718896" lon="8.910530"><ele>974.8</ele></trkpt>
      <trkpt lat="46.718869" lon="8.910343"><ele>976.1</ele></trkpt>
      <trkpt lat="46.718866" lon="8.909623"><ele>980.3</ele></trkpt>
      <trkpt lat="46.718838" lon="8.909472"><ele>980.3</ele></trkpt>
      <trkpt lat="46.718794" lon="8.909375"><ele>980.4</ele></trkpt>
      <trkpt lat="46.718635" lon="8.908968"><ele>980.6</ele></trkpt>
      <trkpt lat="46.718761" lon="8.908716"><ele>980.7</ele></trkpt>
      <trkpt lat="46.718954" lon="8.908468"><ele>980.9</ele></trkpt>
      <trkpt lat="46.719255" lon="8.908282"><ele>981.1</ele></trkpt>
      <trkpt lat="46.719350" lon="8.907739"><ele>981.3</ele></trkpt>
      <trkpt lat="46.719389" lon="8.907540"><ele>981.6</ele></trkpt>
      <trkpt lat="46.719432" lon="8.907150"><ele>982.2</ele></trkpt>
      <trkpt lat="46.719403" lon="8.907001"><ele>982.5</ele></trkpt>
      <trkpt lat="46.719325" lon="8.906852"><ele>982.8</ele></trkpt>
      <trkpt lat="46.719153" lon="8.906261"><ele>983.8</ele></trkpt>
      <trkpt lat="46.719133" lon="8.906121"><ele>984.1</ele></trkpt>
      <trkpt lat="46.719054" lon="8.905774"><ele>984.7</ele></trkpt>
      <trkpt lat="46.718866" lon="8.905413"><ele>985.4</ele></trkpt>
      <trkpt lat="46.718820" lon="8.905206"><ele>985.9</ele></trkpt>
      <trkpt lat="46.718766" lon="8.904378"><ele>987.8</ele></trkpt>
      <trkpt lat="46.718705" lon="8.904105"><ele>988.5</ele></trkpt>
      <trkpt lat="46.718686" lon="8.904023"><ele>988.7</ele></trkpt>
      <trkpt lat="46.718491" lon="8.903154"><ele>990.8</ele></trkpt>
      <trkpt lat="46.718419" lon="8.902494"><ele>992.1</ele></trkpt>
      <trkpt lat="46.718359" lon="8.902176"><ele>992.4</ele></trkpt>
      <trkpt lat="46.718266" lon="8.901924"><ele>992.7</ele></trkpt>
      <trkpt lat="46.717968" lon="8.901565"><ele>993.3</ele></trkpt>
      <trkpt lat="46.717878" lon="8.901374"><ele>993.5</ele></trkpt>
      <trkpt lat="46.717763" lon="8.900967"><ele>993.9</ele></trkpt>
      <trkpt lat="46.717814" lon="8.900877"><ele>994.0</ele></trkpt>
      <trkpt lat="46.717847" lon="8.900749"><ele>994.2</ele></trkpt>
      <trkpt lat="46.717822" lon="8.900247"><ele>993.9</ele></trkpt>
      <trkpt lat="46.717790" lon="8.899810"><ele>992.6</ele></trkpt>
      <trkpt lat="46.717662" lon="8.899245"><ele>990.9</ele></trkpt>
      <trkpt lat="46.717609" lon="8.899102"><ele>990.4</ele></trkpt>
      <trkpt lat="46.717118" lon="8.898244"><ele>987.2</ele></trkpt>
      <trkpt lat="46.716915" lon="8.897884"><ele>985.2</ele></trkpt>
      <trkpt lat="46.716578" lon="8.897134"><ele>981.1</ele></trkpt>
      <trkpt lat="46.716463" lon="8.896772"><ele>979.3</ele></trkpt>
      <trkpt lat="46.716428" lon="8.896554"><ele>978.3</ele></trkpt>
      <trkpt lat="46.716386" lon="8.895871"><ele>975.2</ele></trkpt>
      <trkpt lat="46.716396" lon="8.895777"><ele>974.8</ele></trkpt>
      <trkpt lat="46.716452" lon="8.895612"><ele>974.6</ele></trkpt>
      <trkpt lat="46.716542" lon="8.895498"><ele>974.3</ele></trkpt>
      <trkpt lat="46.717021" lon="8.894991"><ele>973.1</ele></trkpt>
      <trkpt lat="46.717234" lon="8.894740"><ele>972.6</ele></trkpt>
      <trkpt lat="46.717344" lon="8.894569"><ele>972.2</ele></trkpt>
      <trkpt lat="46.717469" lon="8.894292"><ele>971.8</ele></trkpt>
      <trkpt lat="46.717568" lon="8.893909"><ele>971.3</ele></trkpt>
      <trkpt lat="46.717595" lon="8.893438"><ele>973.3</ele></trkpt>
      <trkpt lat="46.717574" lon="8.893184"><ele>974.4</ele></trkpt>
      <trkpt lat="46.717541" lon="8.893015"><ele>975.1</ele></trkpt>
      <trkpt lat="46.717430" lon="8.892685"><ele>976.7</ele></trkpt>
      <trkpt lat="46.717302" lon="8.892470"><ele>977.9</ele></trkpt>
      <trkpt lat="46.717006" lon="8.892148"><ele>980.2</ele></trkpt>
      <trkpt lat="46.716971" lon="8.892042"><ele>980.7</ele></trkpt>
      <trkpt lat="46.716985" lon="8.892002"><ele>980.9</ele></trkpt>
      <trkpt lat="46.716782" lon="8.891625"><ele>982.8</ele></trkpt>
      <trkpt lat="46.716390" lon="8.890654"><ele>985.9</ele></trkpt>
      <trkpt lat="46.716201" lon="8.890184"><ele>987.5</ele></trkpt>
      <trkpt lat="46.715901" lon="8.889548"><ele>989.6</ele></trkpt>
      <trkpt lat="46.715671" lon="8.889227"><ele>989.7</ele></trkpt>
      <trkpt lat="46.715552" lon="8.888940"><ele>989.6</ele></trkpt>
      <trkpt lat="46.715373" lon="8.888386"><ele>989.5</ele></trkpt>
      <trkpt lat="46.715329" lon="8.887972"><ele>989.4</ele></trkpt>
      <trkpt lat="46.715234" lon="8.887533"><ele>989.3</ele></trkpt>
      <trkpt lat="46.714887" lon="8.886648"><ele>990.4</ele></trkpt>
      <trkpt lat="46.714825" lon="8.886368"><ele>991.0</ele></trkpt>
      <trkpt lat="46.714835" lon="8.886282"><ele>991.2</ele></trkpt>
      <trkpt lat="46.714915" lon="8.886083"><ele>991.6</ele></trkpt>
      <trkpt lat="46.714915" lon="8.885834"><ele>992.1</ele></trkpt>
      <trkpt lat="46.714694" lon="8.885340"><ele>993.3</ele></trkpt>
      <trkpt lat="46.714669" lon="8.884965"><ele>994.0</ele></trkpt>
      <trkpt lat="46.714640" lon="8.884840"><ele>994.3</ele></trkpt>
      <trkpt lat="46.714508" lon="8.884513"><ele>995.7</ele></trkpt>
      <trkpt lat="46.714452" lon="8.884250"><ele>996.8</ele></trkpt>
      <trkpt lat="46.714461" lon="8.883963"><ele>997.9</ele></trkpt>
      <trkpt lat="46.714569" lon="8.883430"><ele>1000.1</ele></trkpt>
      <trkpt lat="46.714575" lon="8.883188"><ele>1001.0</ele></trkpt>
      <trkpt lat="46.714451" lon="8.882583"><ele>1003.5</ele></trkpt>
      <trkpt lat="46.714360" lon="8.882270"><ele>1004.6</ele></trkpt>
      <trkpt lat="46.714304" lon="8.881488"><ele>1005.0</ele></trkpt>
      <trkpt lat="46.714202" lon="8.881067"><ele>1005.2</ele></trkpt>
      <trkpt lat="46.714055" lon="8.880741"><ele>1005.4</ele></trkpt>
      <trkpt lat="46.713798" lon="8.880344"><ele>1005.6</ele></trkpt>
      <trkpt lat="46.713425" lon="8.880030"><ele>1006.0</ele></trkpt>
      <trkpt lat="46.713288" lon="8.879889"><ele>1006.3</ele></trkpt>
      <trkpt lat="46.713176" lon="8.879675"><ele>1006.5</ele></trkpt>
      <trkpt lat="46.712839" lon="8.879382"><ele>1007.0</ele></trkpt>
      <trkpt lat="46.712667" lon="8.879054"><ele>1007.4</ele></trkpt>
      <trkpt lat="46.712573" lon="8.878715"><ele>1007.7</ele></trkpt>
      <trkpt lat="46.712474" lon="8.878505"><ele>1008.0</ele></trkpt>
      <trkpt lat="46.712292" lon="8.878288"><ele>1008.2</ele></trkpt>
      <trkpt lat="46.712002" lon="8.877837"><ele>1008.5</ele></trkpt>
      <trkpt lat="46.711832" lon="8.877519"><ele>1008.7</ele></trkpt>
      <trkpt lat="46.711618" lon="8.877186"><ele>1009.0</ele></trkpt>
      <trkpt lat="46.711511" lon="8.876918"><ele>1009.1</ele></trkpt>
      <trkpt lat="46.711238" lon="8.876783"><ele>1009.3</ele></trkpt>
      <trkpt lat="46.711073" lon="8.876806"><ele>1009.5</ele></trkpt>
      <trkpt lat="46.710982" lon="8.876981"><ele>1009.1</ele></trkpt>
      <trkpt lat="46.710902" lon="8.877083"><ele>1008.7</ele></trkpt>
      <trkpt lat="46.710853" lon="8.877099"><ele>1008.4</ele></trkpt>
      <trkpt lat="46.710772" lon="8.877019"><ele>1008.0</ele></trkpt>
      <trkpt lat="46.710519" lon="8.876958"><ele>1006.9</ele></trkpt>
      <trkpt lat="46.710256" lon="8.876834"><ele>1005.6</ele></trkpt>
      <trkpt lat="46.709648" lon="8.876532"><ele>1002.7</ele></trkpt>
      <trkpt lat="46.709260" lon="8.876297"><ele>1001.8</ele></trkpt>
      <trkpt lat="46.709137" lon="8.876116"><ele>1002.3</ele></trkpt>
      <trkpt lat="46.709089" lon="8.875962"><ele>1002.6</ele></trkpt>
      <trkpt lat="46.709061" lon="8.875757"><ele>1002.9</ele></trkpt>
      <trkpt lat="46.709066" lon="8.875010"><ele>1004.3</ele></trkpt>
      <trkpt lat="46.709105" lon="8.874271"><ele>1005.6</ele></trkpt>
      <trkpt lat="46.709033" lon="8.873978"><ele>1006.1</ele></trkpt>
      <trkpt lat="46.708966" lon="8.873832"><ele>1006.6</ele></trkpt>
      <trkpt lat="46.708823" lon="8.873651"><ele>1007.4</ele></trkpt>
      <trkpt lat="46.708325" lon="8.873108"><ele>1009.9</ele></trkpt>
      <trkpt lat="46.708127" lon="8.872977"><ele>1010.8</ele></trkpt>
      <trkpt lat="46.707895" lon="8.872755"><ele>1011.9</ele></trkpt>
      <trkpt lat="46.707681" lon="8.872430"><ele>1013.1</ele></trkpt>
      <trkpt lat="46.707337" lon="8.871774"><ele>1015.0</ele></trkpt>
      <trkpt lat="46.707246" lon="8.871550"><ele>1015.5</ele></trkpt>
      <trkpt lat="46.707173" lon="8.871281"><ele>1016.1</ele></trkpt>
      <trkpt lat="46.707139" lon="8.871079"><ele>1016.6</ele></trkpt>
      <trkpt lat="46.707083" lon="8.870115"><ele>1018.6</ele></trkpt>
      <trkpt lat="46.706944" lon="8.869706"><ele>1019.4</ele></trkpt>
      <trkpt lat="46.706747" lon="8.869351"><ele>1020.0</ele></trkpt>
      <trkpt lat="46.706131" lon="8.868462"><ele>1021.9</ele></trkpt>
      <trkpt lat="46.706002" lon="8.868371"><ele>1022.2</ele></trkpt>
      <trkpt lat="46.705728" lon="8.868346"><ele>1022.7</ele></trkpt>
      <trkpt lat="46.705636" lon="8.868296"><ele>1023.2</ele></trkpt>
      <trkpt lat="46.705164" lon="8.868023"><ele>1025.3</ele></trkpt>
      <trkpt lat="46.704939" lon="8.867878"><ele>1026.4</ele></trkpt>
      <trkpt lat="46.704900" lon="8.867776"><ele>1026.7</ele></trkpt>
      <trkpt lat="46.704910" lon="8.867707"><ele>1026.9</ele></trkpt>
      <trkpt lat="46.705072" lon="8.867487"><ele>1027.9</ele></trkpt>
      <trkpt lat="46.705127" lon="8.867349"><ele>1028.4</ele></trkpt>
      <trkpt lat="46.705085" lon="8.867341"><ele>1028.5</ele></trkpt>
      <trkpt lat="46.704959" lon="8.867206"><ele>1029.2</ele></trkpt>
      <trkpt lat="46.704874" lon="8.867164"><ele>1029.6</ele></trkpt>
      <trkpt lat="46.704755" lon="8.867171"><ele>1030.1</ele></trkpt>
      <trkpt lat="46.704649" lon="8.867256"><ele>1030.6</ele></trkpt>
      <trkpt lat="46.704238" lon="8.867874"><ele>1032.5</ele></trkpt>
      <trkpt lat="46.704213" lon="8.867914"><ele>1032.6</ele></trkpt>
      <trkpt lat="46.704157" lon="8.867828"><ele>1032.9</ele></trkpt>
      <trkpt lat="46.704099" lon="8.867612"><ele>1033.4</ele></trkpt>
      <trkpt lat="46.704011" lon="8.867088"><ele>1034.7</ele></trkpt>
      <trkpt lat="46.703876" lon="8.866439"><ele>1036.2</ele></trkpt>
      <trkpt lat="46.703620" lon="8.865520"><ele>1036.8</ele></trkpt>
      <trkpt lat="46.703547" lon="8.865330"><ele>1036.9</ele></trkpt>
      <trkpt lat="46.703378" lon="8.865035"><ele>1037.1</ele></trkpt>
      <trkpt lat="46.703051" lon="8.864654"><ele>1037.4</ele></trkpt>
      <trkpt lat="46.702612" lon="8.864300"><ele>1037.8</ele></trkpt>
      <trkpt lat="46.702343" lon="8.864016"><ele>1038.1</ele></trkpt>
      <trkpt lat="46.701946" lon="8.863747"><ele>1038.6</ele></trkpt>
      <trkpt lat="46.701606" lon="8.863790"><ele>1038.9</ele></trkpt>
      <trkpt lat="46.701194" lon="8.863771"><ele>1039.3</ele></trkpt>
      <trkpt lat="46.700987" lon="8.863707"><ele>1039.6</ele></trkpt>
      <trkpt lat="46.700411" lon="8.863679"><ele>1040.8</ele></trkpt>
      <trkpt lat="46.700320" lon="8.863646"><ele>1041.0</ele></trkpt>
      <trkpt lat="46.699807" lon="8.863288"><ele>1042.1</ele></trkpt>
      <trkpt lat="46.699433" lon="8.862955"><ele>1043.0</ele></trkpt>
      <trkpt lat="46.699255" lon="8.862761"><ele>1042.9</ele></trkpt>
      <trkpt lat="46.698910" lon="8.862261"><ele>1042.7</ele></trkpt>
      <trkpt lat="46.698707" lon="8.861934"><ele>1042.5</ele></trkpt>
      <trkpt lat="46.698686" lon="8.861838"><ele>1042.4</ele></trkpt>
      <trkpt lat="46.698724" lon="8.861720"><ele>1042.4</ele></trkpt>
      <trkpt lat="46.698738" lon="8.861687"><ele>1042.4</ele></trkpt>
      <trkpt lat="46.698965" lon="8.861298"><ele>1042.2</ele></trkpt>
      <trkpt lat="46.699056" lon="8.861157"><ele>1042.1</ele></trkpt>
      <trkpt lat="46.699124" lon="8.861026"><ele>1042.1</ele></trkpt>
      <trkpt lat="46.699162" lon="8.860869"><ele>1042.1</ele></trkpt>
      <trkpt lat="46.699205" lon="8.860492"><ele>1042.3</ele></trkpt>
      <trkpt lat="46.699052" lon="8.858890"><ele>1043.2</ele></trkpt>
      <trkpt lat="46.699037" lon="8.858747"><ele>1043.3</ele></trkpt>
      <trkpt lat="46.698939" lon="8.858324"><ele>1043.7</ele></trkpt>
      <trkpt lat="46.698976" lon="8.858017"><ele>1044.4</ele></trkpt>
      <trkpt lat="46.698887" lon="8.857212"><ele>1046.3</ele></trkpt>
      <trkpt lat="46.698877" lon="8.856945"><ele>1046.9</ele></trkpt>
      <trkpt lat="46.698797" lon="8.856703"><ele>1047.5</ele></trkpt>
      <trkpt lat="46.698647" lon="8.856214"><ele>1048.7</ele></trkpt>
      <trkpt lat="46.698617" lon="8.855859"><ele>1049.5</ele></trkpt>
      <trkpt lat="46.698408" lon="8.855259"><ele>1051.7</ele></trkpt>
      <trkpt lat="46.698118" lon="8.854687"><ele>1054.0</ele></trkpt>
      <trkpt lat="46.697970" lon="8.854596"><ele>1054.8</ele></trkpt>
      <trkpt lat="46.697933" lon="8.854488"><ele>1055.1</ele></trkpt>
      <trkpt lat="46.698023" lon="8.854213"><ele>1056.1</ele></trkpt>
      <trkpt lat="46.698088" lon="8.854032"><ele>1056.8</ele></trkpt>
      <trkpt lat="46.698064" lon="8.853842"><ele>1057.4</ele></trkpt>
      <trkpt lat="46.697958" lon="8.853732"><ele>1058.1</ele></trkpt>
      <trkpt lat="46.697620" lon="8.853356"><ele>1061.7</ele></trkpt>
      <trkpt lat="46.697354" lon="8.853181"><ele>1064.2</ele></trkpt>
      <trkpt lat="46.697146" lon="8.853056"><ele>1066.2</ele></trkpt>
      <trkpt lat="46.697029" lon="8.853095"><ele>1067.2</ele></trkpt>
      <trkpt lat="46.696640" lon="8.853076"><ele>1070.5</ele></trkpt>
      <trkpt lat="46.696512" lon="8.853116"><ele>1071.6</ele></trkpt>
      <trkpt lat="46.696405" lon="8.853248"><ele>1072.8</ele></trkpt>
      <trkpt lat="46.696238" lon="8.853621"><ele>1075.1</ele></trkpt>
      <trkpt lat="46.696089" lon="8.853724"><ele>1076.3</ele></trkpt>
      <trkpt lat="46.696042" lon="8.853712"><ele>1076.7</ele></trkpt>
      <trkpt lat="46.696002" lon="8.853673"><ele>1077.1</ele></trkpt>
      <trkpt lat="46.695953" lon="8.853559"><ele>1077.7</ele></trkpt>
      <trkpt lat="46.695944" lon="8.853411"><ele>1078.5</ele></trkpt>
      <trkpt lat="46.696019" lon="8.852976"><ele>1080.8</ele></trkpt>
      <trkpt lat="46.696131" lon="8.852717"><ele>1082.3</ele></trkpt>
      <trkpt lat="46.696297" lon="8.852567"><ele>1083.7</ele></trkpt>
      <trkpt lat="46.696329" lon="8.852507"><ele>1084.1</ele></trkpt>
      <trkpt lat="46.696334" lon="8.852443"><ele>1084.4</ele></trkpt>
      <trkpt lat="46.696291" lon="8.852321"><ele>1085.1</ele></trkpt>
      <trkpt lat="46.696173" lon="8.852496"><ele>1086.4</ele></trkpt>
      <trkpt lat="46.696009" lon="8.852823"><ele>1085.8</ele></trkpt>
      <trkpt lat="46.695663" lon="8.853685"><ele>1083.9</ele></trkpt>
      <trkpt lat="46.695161" lon="8.854759"><ele>1082.0</ele></trkpt>
      <trkpt lat="46.695129" lon="8.854812"><ele>1082.6</ele></trkpt>
      <trkpt lat="46.694652" lon="8.855323"><ele>1089.7</ele></trkpt>
      <trkpt lat="46.694503" lon="8.855378"><ele>1091.5</ele></trkpt>
      <trkpt lat="46.694386" lon="8.855339"><ele>1093.0</ele></trkpt>
      <trkpt lat="46.693744" lon="8.854776"><ele>1101.9</ele></trkpt>
      <trkpt lat="46.693512" lon="8.854632"><ele>1104.1</ele></trkpt>
      <trkpt lat="46.693367" lon="8.854606"><ele>1105.0</ele></trkpt>
      <trkpt lat="46.693211" lon="8.854623"><ele>1106.0</ele></trkpt>
      <trkpt lat="46.692777" lon="8.854797"><ele>1108.9</ele></trkpt>
      <trkpt lat="46.692541" lon="8.854901"><ele>1110.5</ele></trkpt>
      <trkpt lat="46.692360" lon="8.855035"><ele>1111.8</ele></trkpt>
      <trkpt lat="46.692161" lon="8.855276"><ele>1113.5</ele></trkpt>
      <trkpt lat="46.692015" lon="8.855385"><ele>1114.5</ele></trkpt>
      <trkpt lat="46.691876" lon="8.855410"><ele>1115.7</ele></trkpt>
      <trkpt lat="46.691725" lon="8.855369"><ele>1117.1</ele></trkpt>
      <trkpt lat="46.691552" lon="8.855210"><ele>1118.9</ele></trkpt>
      <trkpt lat="46.691274" lon="8.854775"><ele>1122.6</ele></trkpt>
      <trkpt lat="46.691073" lon="8.854538"><ele>1124.9</ele></trkpt>
      <trkpt lat="46.690524" lon="8.854175"><ele>1130.4</ele></trkpt>
      <trkpt lat="46.690065" lon="8.854028"><ele>1134.8</ele></trkpt>
      <trkpt lat="46.689470" lon="8.853909"><ele>1140.5</ele></trkpt>
      <trkpt lat="46.689316" lon="8.853816"><ele>1142.0</ele></trkpt>
      <trkpt lat="46.689135" lon="8.853629"><ele>1144.1</ele></trkpt>
      <trkpt lat="46.688875" lon="8.853338"><ele>1147.2</ele></trkpt>
      <trkpt lat="46.688690" lon="8.853248"><ele>1149.7</ele></trkpt>
      <trkpt lat="46.688412" lon="8.853267"><ele>1153.6</ele></trkpt>
      <trkpt lat="46.688053" lon="8.853361"><ele>1158.7</ele></trkpt>
      <trkpt lat="46.687823" lon="8.853426"><ele>1162.0</ele></trkpt>
      <trkpt lat="46.687595" lon="8.853507"><ele>1165.3</ele></trkpt>
      <trkpt lat="46.687425" lon="8.853569"><ele>1167.8</ele></trkpt>
      <trkpt lat="46.687345" lon="8.853609"><ele>1169.0</ele></trkpt>
      <trkpt lat="46.686357" lon="8.854324"><ele>1185.0</ele></trkpt>
      <trkpt lat="46.686052" lon="8.854592"><ele>1190.2</ele></trkpt>
      <trkpt lat="46.685568" lon="8.855222"><ele>1199.5</ele></trkpt>
      <trkpt lat="46.685462" lon="8.855318"><ele>1200.5</ele></trkpt>
      <trkpt lat="46.685260" lon="8.855415"><ele>1202.2</ele></trkpt>
      <trkpt lat="46.684306" lon="8.855382"><ele>1209.8</ele></trkpt>
      <trkpt lat="46.684119" lon="8.855280"><ele>1211.4</ele></trkpt>
      <trkpt lat="46.683741" lon="8.854937"><ele>1215.0</ele></trkpt>
      <trkpt lat="46.683583" lon="8.854853"><ele>1216.4</ele></trkpt>
      <trkpt lat="46.683432" lon="8.854821"><ele>1217.6</ele></trkpt>
      <trkpt lat="46.682244" lon="8.855002"><ele>1227.5</ele></trkpt>
    </trkseg>
  </trk>
</gpx>
