<?xml version="1.0" encoding="UTF-8"?>
<gpx version="1.1" creator="Radtouren-split" xmlns="http://www.topografix.com/GPX/1/1" xmlns:xsi="http://www.w3.org/2001/XMLSchema-instance" xsi:schemaLocation="http://www.topografix.com/GPX/1/1 http://www.topografix.com/GPX/1/1/gpx.xsd">
  <metadata><name>KN-GE Tag 5 Formazza (Ponte)</name></metadata>
  <wpt lat="46.487382" lon="8.476426">
    <ele>1597.7</ele>
    <name>H Capanna Piansecco</name>
    <cmt>alpine_hut 0.9 km off</cmt>
    <sym>Lodge</sym>
  </wpt>
  <wpt lat="46.471714" lon="8.446077">
    <ele>1922.5</ele>
    <name>PUSH start 3.3km</name>
    <sym>Flag, Red</sym>
  </wpt>
  <wpt lat="46.458700" lon="8.450752">
    <ele>2296.5</ele>
    <name>H Ex caserma della fin</name>
    <cmt>alpine_hut 0.0 km off</cmt>
    <sym>Lodge</sym>
  </wpt>
  <wpt lat="46.458700" lon="8.450752">
    <ele>2296.5</ele>
    <name>P.SanGiacomo 2313</name>
    <sym>Summit</sym>
  </wpt>
  <wpt lat="46.434815" lon="8.428273">
    <ele>2157.6</ele>
    <name>H Rifugio Maria Luisa</name>
    <cmt>alpine_hut 0.0 km off</cmt>
    <sym>Lodge</sym>
  </wpt>
  <wpt lat="46.420277" lon="8.416307">
    <ele>1728.9</ele>
    <name>H Rifugio Bim Se al La</name>
    <cmt>alpine_hut 1.0 km off</cmt>
    <sym>Lodge</sym>
  </wpt>
  <wpt lat="46.420277" lon="8.416307">
    <ele>1728.9</ele>
    <name>Riale</name>
    <sym>Flag, Blue</sym>
  </wpt>
  <wpt lat="46.402248" lon="8.417949">
    <ele>1510.9</ele>
    <name>H Soggiorno Alpino del</name>
    <cmt>wilderness_hut 0.0 km off</cmt>
    <sym>Lodging</sym>
  </wpt>
  <wpt lat="46.376581" lon="8.424589">
    <ele>1291.4</ele>
    <name>H Edelweiss</name>
    <cmt>hotel 0.1 km off</cmt>
    <sym>Lodging</sym>
  </wpt>
  <wpt lat="46.374793" lon="8.425875">
    <ele>1283.0</ele>
    <name>Z Sagersboden</name>
    <cmt>campsite 0.1 km off route</cmt>
    <sym>Campground</sym>
  </wpt>
  <wpt lat="46.374312" lon="8.426627">
    <ele>1279.8</ele>
    <name>H Monte Giove</name>
    <cmt>hotel 0.1 km off</cmt>
    <sym>Lodging</sym>
  </wpt>
  <wpt lat="46.374312" lon="8.426627">
    <ele>1279.8</ele>
    <name>H Albergo Risorante Ro</name>
    <cmt>hotel 0.1 km off</cmt>
    <sym>Lodging</sym>
  </wpt>
  <trk>
    <name>KN-GE Tag 5 Formazza (Ponte)</name>
    <trkseg>
      <trkpt lat="46.528774" lon="8.675007"><ele>1777.8</ele></trkpt>
      <trkpt lat="46.528642" lon="8.674792"><ele>1776.1</ele></trkpt>
      <trkpt lat="46.528559" lon="8.674589"><ele>1774.6</ele></trkpt>
      <trkpt lat="46.528336" lon="8.674316"><ele>1772.1</ele></trkpt>
      <trkpt lat="46.528057" lon="8.674193"><ele>1769.5</ele></trkpt>
      <trkpt lat="46.527752" lon="8.673769"><ele>1765.7</ele></trkpt>
      <trkpt lat="46.527442" lon="8.672941"><ele>1758.9</ele></trkpt>
      <trkpt lat="46.527332" lon="8.672504"><ele>1755.0</ele></trkpt>
      <trkpt lat="46.527286" lon="8.672345"><ele>1753.5</ele></trkpt>
      <trkpt lat="46.527178" lon="8.671683"><ele>1747.9</ele></trkpt>
      <trkpt lat="46.527136" lon="8.670987"><ele>1742.0</ele></trkpt>
      <trkpt lat="46.527056" lon="8.670508"><ele>1737.8</ele></trkpt>
      <trkpt lat="46.526427" lon="8.668082"><ele>1716.0</ele></trkpt>
      <trkpt lat="46.526313" lon="8.667449"><ele>1711.4</ele></trkpt>
      <trkpt lat="46.526301" lon="8.667255"><ele>1710.0</ele></trkpt>
      <trkpt lat="46.526329" lon="8.667093"><ele>1708.8</ele></trkpt>
      <trkpt lat="46.526324" lon="8.666922"><ele>1707.6</ele></trkpt>
      <trkpt lat="46.526245" lon="8.666771"><ele>1706.3</ele></trkpt>
      <trkpt lat="46.525897" lon="8.666396"><ele>1701.9</ele></trkpt>
      <trkpt lat="46.525827" lon="8.666277"><ele>1700.8</ele></trkpt>
      <trkpt lat="46.525765" lon="8.665271"><ele>1696.1</ele></trkpt>
      <trkpt lat="46.525797" lon="8.664955"><ele>1694.7</ele></trkpt>
      <trkpt lat="46.525993" lon="8.664435"><ele>1692.1</ele></trkpt>
      <trkpt lat="46.526068" lon="8.662898"><ele>1684.0</ele></trkpt>
      <trkpt lat="46.526148" lon="8.662402"><ele>1680.8</ele></trkpt>
      <trkpt lat="46.526741" lon="8.660299"><ele>1665.0</ele></trkpt>
      <trkpt lat="46.526995" lon="8.659568"><ele>1658.4</ele></trkpt>
      <trkpt lat="46.527060" lon="8.659261"><ele>1655.8</ele></trkpt>
      <trkpt lat="46.527078" lon="8.658883"><ele>1652.7</ele></trkpt>
      <trkpt lat="46.526980" lon="8.657654"><ele>1641.3</ele></trkpt>
      <trkpt lat="46.526983" lon="8.654801"><ele>1615.6</ele></trkpt>
      <trkpt lat="46.526949" lon="8.654692"><ele>1614.6</ele></trkpt>
      <trkpt lat="46.526881" lon="8.654699"><ele>1613.7</ele></trkpt>
      <trkpt lat="46.526846" lon="8.654787"><ele>1612.8</ele></trkpt>
      <trkpt lat="46.526815" lon="8.655352"><ele>1607.9</ele></trkpt>
      <trkpt lat="46.526244" lon="8.657184"><ele>1593.0</ele></trkpt>
      <trkpt lat="46.525990" lon="8.658935"><ele>1579.7</ele></trkpt>
      <trkpt lat="46.525849" lon="8.659330"><ele>1576.2</ele></trkpt>
      <trkpt lat="46.525530" lon="8.659922"><ele>1570.3</ele></trkpt>
      <trkpt lat="46.525382" lon="8.660257"><ele>1567.2</ele></trkpt>
      <trkpt lat="46.524963" lon="8.661373"><ele>1554.8</ele></trkpt>
      <trkpt lat="46.524856" lon="8.661845"><ele>1549.7</ele></trkpt>
      <trkpt lat="46.524632" lon="8.662546"><ele>1541.8</ele></trkpt>
      <trkpt lat="46.524288" lon="8.663064"><ele>1536.1</ele></trkpt>
      <trkpt lat="46.524088" lon="8.663442"><ele>1533.1</ele></trkpt>
      <trkpt lat="46.523980" lon="8.663587"><ele>1531.8</ele></trkpt>
      <trkpt lat="46.523975" lon="8.663471"><ele>1531.1</ele></trkpt>
      <trkpt lat="46.524108" lon="8.662963"><ele>1527.7</ele></trkpt>
      <trkpt lat="46.524330" lon="8.662379"><ele>1523.6</ele></trkpt>
      <trkpt lat="46.524373" lon="8.662214"><ele>1522.5</ele></trkpt>
      <trkpt lat="46.524414" lon="8.661141"><ele>1520.2</ele></trkpt>
      <trkpt lat="46.524570" lon="8.660542"><ele>1519.0</ele></trkpt>
      <trkpt lat="46.524592" lon="8.660180"><ele>1518.2</ele></trkpt>
      <trkpt lat="46.524725" lon="8.659904"><ele>1517.6</ele></trkpt>
      <trkpt lat="46.524866" lon="8.659035"><ele>1516.4</ele></trkpt>
      <trkpt lat="46.524989" lon="8.658817"><ele>1516.1</ele></trkpt>
      <trkpt lat="46.525002" lon="8.658409"><ele>1515.7</ele></trkpt>
      <trkpt lat="46.525071" lon="8.657915"><ele>1515.1</ele></trkpt>
      <trkpt lat="46.525018" lon="8.657332"><ele>1514.5</ele></trkpt>
      <trkpt lat="46.525124" lon="8.656352"><ele>1510.0</ele></trkpt>
      <trkpt lat="46.525087" lon="8.656133"><ele>1508.8</ele></trkpt>
      <trkpt lat="46.525048" lon="8.655542"><ele>1505.7</ele></trkpt>
      <trkpt lat="46.525071" lon="8.655431"><ele>1505.1</ele></trkpt>
      <trkpt lat="46.525226" lon="8.655092"><ele>1503.0</ele></trkpt>
      <trkpt lat="46.525250" lon="8.654936"><ele>1502.1</ele></trkpt>
      <trkpt lat="46.525249" lon="8.654650"><ele>1500.6</ele></trkpt>
      <trkpt lat="46.525189" lon="8.654038"><ele>1494.3</ele></trkpt>
      <trkpt lat="46.525160" lon="8.653911"><ele>1492.9</ele></trkpt>
      <trkpt lat="46.525086" lon="8.653766"><ele>1491.0</ele></trkpt>
      <trkpt lat="46.525071" lon="8.653755"><ele>1490.8</ele></trkpt>
      <trkpt lat="46.524948" lon="8.653693"><ele>1488.9</ele></trkpt>
      <trkpt lat="46.524774" lon="8.653723"><ele>1486.2</ele></trkpt>
      <trkpt lat="46.524728" lon="8.653649"><ele>1485.2</ele></trkpt>
      <trkpt lat="46.524684" lon="8.653432"><ele>1482.9</ele></trkpt>
      <trkpt lat="46.524696" lon="8.653118"><ele>1479.7</ele></trkpt>
      <trkpt lat="46.524635" lon="8.652795"><ele>1476.2</ele></trkpt>
      <trkpt lat="46.524633" lon="8.652617"><ele>1474.4</ele></trkpt>
      <trkpt lat="46.524694" lon="8.652298"><ele>1472.3</ele></trkpt>
      <trkpt lat="46.524833" lon="8.652195"><ele>1470.9</ele></trkpt>
      <trkpt lat="46.524878" lon="8.652131"><ele>1470.4</ele></trkpt>
      <trkpt lat="46.524917" lon="8.651564"><ele>1467.1</ele></trkpt>
      <trkpt lat="46.524637" lon="8.650396"><ele>1460.0</ele></trkpt>
      <trkpt lat="46.524580" lon="8.650204"><ele>1458.7</ele></trkpt>
      <trkpt lat="46.524562" lon="8.650054"><ele>1457.8</ele></trkpt>
      <trkpt lat="46.524586" lon="8.649601"><ele>1455.2</ele></trkpt>
      <trkpt lat="46.524842" lon="8.648652"><ele>1449.1</ele></trkpt>
      <trkpt lat="46.524937" lon="8.647984"><ele>1445.1</ele></trkpt>
      <trkpt lat="46.525093" lon="8.647585"><ele>1442.5</ele></trkpt>
      <trkpt lat="46.525102" lon="8.646980"><ele>1439.5</ele></trkpt>
      <trkpt lat="46.525234" lon="8.646395"><ele>1436.5</ele></trkpt>
      <trkpt lat="46.525303" lon="8.645981"><ele>1434.4</ele></trkpt>
      <trkpt lat="46.525322" lon="8.645622"><ele>1432.6</ele></trkpt>
      <trkpt lat="46.525257" lon="8.644982"><ele>1428.9</ele></trkpt>
      <trkpt lat="46.525236" lon="8.644885"><ele>1428.1</ele></trkpt>
      <trkpt lat="46.525271" lon="8.644535"><ele>1425.3</ele></trkpt>
      <trkpt lat="46.525250" lon="8.644394"><ele>1424.1</ele></trkpt>
      <trkpt lat="46.525173" lon="8.644352"><ele>1423.2</ele></trkpt>
      <trkpt lat="46.525125" lon="8.644414"><ele>1422.4</ele></trkpt>
      <trkpt lat="46.525079" lon="8.644793"><ele>1419.4</ele></trkpt>
      <trkpt lat="46.525108" lon="8.645117"><ele>1416.8</ele></trkpt>
      <trkpt lat="46.525084" lon="8.645548"><ele>1413.4</ele></trkpt>
      <trkpt lat="46.524937" lon="8.646232"><ele>1408.0</ele></trkpt>
      <trkpt lat="46.524792" lon="8.646565"><ele>1405.4</ele></trkpt>
      <trkpt lat="46.524676" lon="8.646685"><ele>1404.0</ele></trkpt>
      <trkpt lat="46.524375" lon="8.647231"><ele>1399.3</ele></trkpt>
      <trkpt lat="46.524290" lon="8.647430"><ele>1397.7</ele></trkpt>
      <trkpt lat="46.524191" lon="8.647724"><ele>1395.5</ele></trkpt>
      <trkpt lat="46.524049" lon="8.648048"><ele>1393.0</ele></trkpt>
      <trkpt lat="46.523969" lon="8.648457"><ele>1390.3</ele></trkpt>
      <trkpt lat="46.523595" lon="8.649485"><ele>1383.2</ele></trkpt>
      <trkpt lat="46.523531" lon="8.649775"><ele>1381.3</ele></trkpt>
      <trkpt lat="46.523312" lon="8.650159"><ele>1378.2</ele></trkpt>
      <trkpt lat="46.523216" lon="8.650401"><ele>1376.5</ele></trkpt>
      <trkpt lat="46.523151" lon="8.650670"><ele>1374.1</ele></trkpt>
      <trkpt lat="46.523111" lon="8.650853"><ele>1372.4</ele></trkpt>
      <trkpt lat="46.523075" lon="8.650896"><ele>1371.7</ele></trkpt>
      <trkpt lat="46.522749" lon="8.650920"><ele>1367.4</ele></trkpt>
      <trkpt lat="46.522848" lon="8.650182"><ele>1360.6</ele></trkpt>
      <trkpt lat="46.523062" lon="8.649280"><ele>1352.0</ele></trkpt>
      <trkpt lat="46.523287" lon="8.648608"><ele>1346.7</ele></trkpt>
      <trkpt lat="46.523419" lon="8.648010"><ele>1342.1</ele></trkpt>
      <trkpt lat="46.523687" lon="8.647188"><ele>1335.6</ele></trkpt>
      <trkpt lat="46.523798" lon="8.645965"><ele>1325.5</ele></trkpt>
      <trkpt lat="46.523828" lon="8.645816"><ele>1324.2</ele></trkpt>
      <trkpt lat="46.523913" lon="8.645600"><ele>1322.0</ele></trkpt>
      <trkpt lat="46.523920" lon="8.644856"><ele>1315.7</ele></trkpt>
      <trkpt lat="46.523970" lon="8.644320"><ele>1311.2</ele></trkpt>
      <trkpt lat="46.524020" lon="8.644092"><ele>1309.7</ele></trkpt>
      <trkpt lat="46.524074" lon="8.643580"><ele>1306.3</ele></trkpt>
      <trkpt lat="46.524085" lon="8.642494"><ele>1299.2</ele></trkpt>
      <trkpt lat="46.524127" lon="8.642195"><ele>1297.3</ele></trkpt>
      <trkpt lat="46.524476" lon="8.641542"><ele>1293.2</ele></trkpt>
      <trkpt lat="46.525036" lon="8.639957"><ele>1287.5</ele></trkpt>
      <trkpt lat="46.525092" lon="8.639717"><ele>1286.7</ele></trkpt>
      <trkpt lat="46.525162" lon="8.639188"><ele>1284.6</ele></trkpt>
      <trkpt lat="46.525271" lon="8.638813"><ele>1283.0</ele></trkpt>
      <trkpt lat="46.525456" lon="8.638344"><ele>1280.8</ele></trkpt>
      <trkpt lat="46.525556" lon="8.637716"><ele>1278.2</ele></trkpt>
      <trkpt lat="46.525833" lon="8.637052"><ele>1274.9</ele></trkpt>
      <trkpt lat="46.525989" lon="8.636546"><ele>1272.2</ele></trkpt>
      <trkpt lat="46.526339" lon="8.635661"><ele>1267.2</ele></trkpt>
      <trkpt lat="46.526393" lon="8.635406"><ele>1265.9</ele></trkpt>
      <trkpt lat="46.526452" lon="8.634712"><ele>1262.4</ele></trkpt>
      <trkpt lat="46.526498" lon="8.634559"><ele>1261.2</ele></trkpt>
      <trkpt lat="46.526710" lon="8.634121"><ele>1257.3</ele></trkpt>
      <trkpt lat="46.526849" lon="8.633312"><ele>1251.1</ele></trkpt>
      <trkpt lat="46.527463" lon="8.631979"><ele>1239.2</ele></trkpt>
      <trkpt lat="46.527609" lon="8.631419"><ele>1234.6</ele></trkpt>
      <trkpt lat="46.527957" lon="8.630849"><ele>1228.8</ele></trkpt>
      <trkpt lat="46.527980" lon="8.630764"><ele>1228.1</ele></trkpt>
      <trkpt lat="46.527950" lon="8.630706"><ele>1227.6</ele></trkpt>
      <trkpt lat="46.527905" lon="8.630717"><ele>1227.1</ele></trkpt>
      <trkpt lat="46.527639" lon="8.631073"><ele>1223.2</ele></trkpt>
      <trkpt lat="46.527460" lon="8.631209"><ele>1221.5</ele></trkpt>
      <trkpt lat="46.527170" lon="8.631376"><ele>1218.8</ele></trkpt>
      <trkpt lat="46.526749" lon="8.631735"><ele>1214.7</ele></trkpt>
      <trkpt lat="46.526219" lon="8.632659"><ele>1207.5</ele></trkpt>
      <trkpt lat="46.525876" lon="8.633024"><ele>1203.0</ele></trkpt>
      <trkpt lat="46.525808" lon="8.633131"><ele>1201.9</ele></trkpt>
      <trkpt lat="46.525447" lon="8.633935"><ele>1194.9</ele></trkpt>
      <trkpt lat="46.525273" lon="8.634206"><ele>1192.2</ele></trkpt>
      <trkpt lat="46.525228" lon="8.634224"><ele>1191.7</ele></trkpt>
      <trkpt lat="46.525191" lon="8.634182"><ele>1191.2</ele></trkpt>
      <trkpt lat="46.525194" lon="8.634101"><ele>1190.6</ele></trkpt>
      <trkpt lat="46.525429" lon="8.633670"><ele>1186.5</ele></trkpt>
      <trkpt lat="46.525488" lon="8.633448"><ele>1184.7</ele></trkpt>
      <trkpt lat="46.525439" lon="8.632741"><ele>1179.4</ele></trkpt>
      <trkpt lat="46.525447" lon="8.632108"><ele>1174.7</ele></trkpt>
      <trkpt lat="46.525472" lon="8.631910"><ele>1173.2</ele></trkpt>
      <trkpt lat="46.525554" lon="8.631704"><ele>1171.4</ele></trkpt>
      <trkpt lat="46.525740" lon="8.631517"><ele>1169.2</ele></trkpt>
      <trkpt lat="46.525791" lon="8.631419"><ele>1168.7</ele></trkpt>
      <trkpt lat="46.525816" lon="8.630868"><ele>1166.2</ele></trkpt>
      <trkpt lat="46.525924" lon="8.630216"><ele>1163.3</ele></trkpt>
      <trkpt lat="46.526287" lon="8.629312"><ele>1158.6</ele></trkpt>
      <trkpt lat="46.526371" lon="8.629196"><ele>1157.8</ele></trkpt>
      <trkpt lat="46.526577" lon="8.629071"><ele>1155.9</ele></trkpt>
      <trkpt lat="46.526666" lon="8.628955"><ele>1154.9</ele></trkpt>
      <trkpt lat="46.526797" lon="8.628537"><ele>1152.2</ele></trkpt>
      <trkpt lat="46.526844" lon="8.628339"><ele>1151.0</ele></trkpt>
      <trkpt lat="46.526943" lon="8.628064"><ele>1149.2</ele></trkpt>
      <trkpt lat="46.526993" lon="8.627929"><ele>1148.3</ele></trkpt>
      <trkpt lat="46.527067" lon="8.627871"><ele>1147.6</ele></trkpt>
      <trkpt lat="46.527324" lon="8.627786"><ele>1145.3</ele></trkpt>
      <trkpt lat="46.527956" lon="8.627427"><ele>1139.9</ele></trkpt>
      <trkpt lat="46.528190" lon="8.627170"><ele>1137.7</ele></trkpt>
      <trkpt lat="46.528248" lon="8.626999"><ele>1136.7</ele></trkpt>
      <trkpt lat="46.528264" lon="8.626859"><ele>1136.0</ele></trkpt>
      <trkpt lat="46.528240" lon="8.626672"><ele>1135.0</ele></trkpt>
      <trkpt lat="46.528168" lon="8.626493"><ele>1133.9</ele></trkpt>
      <trkpt lat="46.528065" lon="8.626341"><ele>1132.8</ele></trkpt>
      <trkpt lat="46.527939" lon="8.626003"><ele>1130.8</ele></trkpt>
      <trkpt lat="46.527890" lon="8.625868"><ele>1130.0</ele></trkpt>
      <trkpt lat="46.527864" lon="8.625590"><ele>1128.6</ele></trkpt>
      <trkpt lat="46.527873" lon="8.625528"><ele>1128.3</ele></trkpt>
      <trkpt lat="46.527675" lon="8.625472"><ele>1127.0</ele></trkpt>
      <trkpt lat="46.527486" lon="8.625469"><ele>1125.7</ele></trkpt>
      <trkpt lat="46.527358" lon="8.625176"><ele>1124.1</ele></trkpt>
      <trkpt lat="46.526671" lon="8.623921"><ele>1116.9</ele></trkpt>
      <trkpt lat="46.526775" lon="8.623719"><ele>1116.5</ele></trkpt>
      <trkpt lat="46.526774" lon="8.623452"><ele>1116.1</ele></trkpt>
      <trkpt lat="46.526887" lon="8.623150"><ele>1115.6</ele></trkpt>
      <trkpt lat="46.526964" lon="8.622901"><ele>1115.2</ele></trkpt>
      <trkpt lat="46.526956" lon="8.622736"><ele>1114.9</ele></trkpt>
      <trkpt lat="46.526880" lon="8.622542"><ele>1114.6</ele></trkpt>
      <trkpt lat="46.526839" lon="8.622459"><ele>1114.4</ele></trkpt>
      <trkpt lat="46.526799" lon="8.622062"><ele>1113.8</ele></trkpt>
      <trkpt lat="46.526741" lon="8.620999"><ele>1114.5</ele></trkpt>
      <trkpt lat="46.526723" lon="8.620218"><ele>1116.5</ele></trkpt>
      <trkpt lat="46.526723" lon="8.620125"><ele>1116.8</ele></trkpt>
      <trkpt lat="46.526655" lon="8.618882"><ele>1119.9</ele></trkpt>
      <trkpt lat="46.526558" lon="8.618101"><ele>1120.8</ele></trkpt>
      <trkpt lat="46.526505" lon="8.616888"><ele>1122.2</ele></trkpt>
      <trkpt lat="46.526637" lon="8.615900"><ele>1123.6</ele></trkpt>
      <trkpt lat="46.526570" lon="8.615985"><ele>1123.8</ele></trkpt>
      <trkpt lat="46.526346" lon="8.616730"><ele>1125.0</ele></trkpt>
      <trkpt lat="46.526283" lon="8.617125"><ele>1125.6</ele></trkpt>
      <trkpt lat="46.526283" lon="8.617460"><ele>1126.1</ele></trkpt>
      <trkpt lat="46.525986" lon="8.617493"><ele>1126.8</ele></trkpt>
      <trkpt lat="46.525793" lon="8.617499"><ele>1127.4</ele></trkpt>
      <trkpt lat="46.525593" lon="8.617511"><ele>1128.0</ele></trkpt>
      <trkpt lat="46.525600" lon="8.617185"><ele>1128.7</ele></trkpt>
      <trkpt lat="46.525645" lon="8.617043"><ele>1129.0</ele></trkpt>
      <trkpt lat="46.525577" lon="8.614153"><ele>1132.6</ele></trkpt>
      <trkpt lat="46.525435" lon="8.612630"><ele>1133.4</ele></trkpt>
      <trkpt lat="46.525450" lon="8.612227"><ele>1134.2</ele></trkpt>
      <trkpt lat="46.525518" lon="8.611508"><ele>1135.6</ele></trkpt>
      <trkpt lat="46.525625" lon="8.610986"><ele>1136.7</ele></trkpt>
      <trkpt lat="46.525730" lon="8.610548"><ele>1137.6</ele></trkpt>
      <trkpt lat="46.525922" lon="8.610020"><ele>1139.9</ele></trkpt>
      <trkpt lat="46.525927" lon="8.609789"><ele>1141.1</ele></trkpt>
      <trkpt lat="46.525771" lon="8.610112"><ele>1143.2</ele></trkpt>
      <trkpt lat="46.525416" lon="8.610623"><ele>1147.1</ele></trkpt>
      <trkpt lat="46.525325" lon="8.610865"><ele>1148.5</ele></trkpt>
      <trkpt lat="46.525253" lon="8.610908"><ele>1149.1</ele></trkpt>
      <trkpt lat="46.525200" lon="8.610843"><ele>1149.7</ele></trkpt>
      <trkpt lat="46.525205" lon="8.610371"><ele>1152.2</ele></trkpt>
      <trkpt lat="46.525119" lon="8.609549"><ele>1156.7</ele></trkpt>
      <trkpt lat="46.525199" lon="8.609076"><ele>1159.3</ele></trkpt>
      <trkpt lat="46.525177" lon="8.608803"><ele>1160.8</ele></trkpt>
      <trkpt lat="46.524862" lon="8.607480"><ele>1167.0</ele></trkpt>
      <trkpt lat="46.524747" lon="8.607241"><ele>1167.7</ele></trkpt>
      <trkpt lat="46.524559" lon="8.607022"><ele>1168.5</ele></trkpt>
      <trkpt lat="46.524486" lon="8.606634"><ele>1169.4</ele></trkpt>
      <trkpt lat="46.524492" lon="8.605829"><ele>1171.2</ele></trkpt>
      <trkpt lat="46.524462" lon="8.605637"><ele>1171.6</ele></trkpt>
      <trkpt lat="46.524405" lon="8.605565"><ele>1171.9</ele></trkpt>
      <trkpt lat="46.524472" lon="8.605211"><ele>1172.6</ele></trkpt>
      <trkpt lat="46.524379" lon="8.605124"><ele>1172.9</ele></trkpt>
      <trkpt lat="46.524354" lon="8.604840"><ele>1173.4</ele></trkpt>
      <trkpt lat="46.524319" lon="8.604716"><ele>1173.7</ele></trkpt>
      <trkpt lat="46.524242" lon="8.604593"><ele>1174.0</ele></trkpt>
      <trkpt lat="46.524107" lon="8.604456"><ele>1174.5</ele></trkpt>
      <trkpt lat="46.524099" lon="8.604342"><ele>1174.7</ele></trkpt>
      <trkpt lat="46.524163" lon="8.602989"><ele>1177.9</ele></trkpt>
      <trkpt lat="46.524171" lon="8.602820"><ele>1178.7</ele></trkpt>
      <trkpt lat="46.524198" lon="8.602041"><ele>1182.8</ele></trkpt>
      <trkpt lat="46.524205" lon="8.601835"><ele>1183.8</ele></trkpt>
      <trkpt lat="46.524186" lon="8.601522"><ele>1185.5</ele></trkpt>
      <trkpt lat="46.524082" lon="8.601396"><ele>1186.5</ele></trkpt>
      <trkpt lat="46.524078" lon="8.601387"><ele>1186.5</ele></trkpt>
      <trkpt lat="46.524054" lon="8.601304"><ele>1187.0</ele></trkpt>
      <trkpt lat="46.523919" lon="8.600563"><ele>1191.0</ele></trkpt>
      <trkpt lat="46.523889" lon="8.600500"><ele>1191.4</ele></trkpt>
      <trkpt lat="46.523840" lon="8.600493"><ele>1191.8</ele></trkpt>
      <trkpt lat="46.523747" lon="8.600137"><ele>1193.8</ele></trkpt>
      <trkpt lat="46.523683" lon="8.599530"><ele>1197.1</ele></trkpt>
      <trkpt lat="46.523762" lon="8.598959"><ele>1200.1</ele></trkpt>
      <trkpt lat="46.523806" lon="8.598319"><ele>1203.6</ele></trkpt>
      <trkpt lat="46.523871" lon="8.597960"><ele>1205.7</ele></trkpt>
      <trkpt lat="46.524097" lon="8.597488"><ele>1209.2</ele></trkpt>
      <trkpt lat="46.524250" lon="8.596879"><ele>1213.1</ele></trkpt>
      <trkpt lat="46.524272" lon="8.596712"><ele>1214.1</ele></trkpt>
      <trkpt lat="46.524253" lon="8.596535"><ele>1215.2</ele></trkpt>
      <trkpt lat="46.524051" lon="8.595866"><ele>1219.6</ele></trkpt>
      <trkpt lat="46.523990" lon="8.595424"><ele>1222.4</ele></trkpt>
      <trkpt lat="46.523824" lon="8.594804"><ele>1226.5</ele></trkpt>
      <trkpt lat="46.523553" lon="8.593238"><ele>1236.5</ele></trkpt>
      <trkpt lat="46.523547" lon="8.592904"><ele>1237.7</ele></trkpt>
      <trkpt lat="46.523376" lon="8.592060"><ele>1240.8</ele></trkpt>
      <trkpt lat="46.523250" lon="8.591188"><ele>1244.0</ele></trkpt>
      <trkpt lat="46.523235" lon="8.590416"><ele>1247.1</ele></trkpt>
      <trkpt lat="46.523176" lon="8.589815"><ele>1250.1</ele></trkpt>
      <trkpt lat="46.523036" lon="8.589246"><ele>1253.1</ele></trkpt>
      <trkpt lat="46.522925" lon="8.588184"><ele>1258.4</ele></trkpt>
      <trkpt lat="46.522574" lon="8.587231"><ele>1261.3</ele></trkpt>
      <trkpt lat="46.522460" lon="8.586623"><ele>1262.9</ele></trkpt>
      <trkpt lat="46.522417" lon="8.586205"><ele>1264.0</ele></trkpt>
      <trkpt lat="46.522275" lon="8.585502"><ele>1266.5</ele></trkpt>
      <trkpt lat="46.522297" lon="8.585212"><ele>1268.1</ele></trkpt>
      <trkpt lat="46.522249" lon="8.584906"><ele>1269.7</ele></trkpt>
      <trkpt lat="46.522141" lon="8.584590"><ele>1271.6</ele></trkpt>
      <trkpt lat="46.521912" lon="8.584077"><ele>1274.8</ele></trkpt>
      <trkpt lat="46.521775" lon="8.583532"><ele>1277.8</ele></trkpt>
      <trkpt lat="46.521665" lon="8.583329"><ele>1279.2</ele></trkpt>
      <trkpt lat="46.521534" lon="8.583190"><ele>1280.2</ele></trkpt>
      <trkpt lat="46.521158" lon="8.583010"><ele>1282.6</ele></trkpt>
      <trkpt lat="46.521112" lon="8.582940"><ele>1283.0</ele></trkpt>
      <trkpt lat="46.521071" lon="8.582806"><ele>1283.6</ele></trkpt>
      <trkpt lat="46.521097" lon="8.582625"><ele>1284.4</ele></trkpt>
      <trkpt lat="46.521167" lon="8.582431"><ele>1285.4</ele></trkpt>
      <trkpt lat="46.521160" lon="8.582209"><ele>1286.3</ele></trkpt>
      <trkpt lat="46.521086" lon="8.581935"><ele>1287.6</ele></trkpt>
      <trkpt lat="46.521092" lon="8.581689"><ele>1288.6</ele></trkpt>
      <trkpt lat="46.521174" lon="8.581381"><ele>1290.0</ele></trkpt>
      <trkpt lat="46.521233" lon="8.581000"><ele>1290.3</ele></trkpt>
      <trkpt lat="46.521238" lon="8.580719"><ele>1290.4</ele></trkpt>
      <trkpt lat="46.521184" lon="8.580293"><ele>1290.5</ele></trkpt>
      <trkpt lat="46.521010" lon="8.579703"><ele>1290.7</ele></trkpt>
      <trkpt lat="46.520837" lon="8.579338"><ele>1290.8</ele></trkpt>
      <trkpt lat="46.520843" lon="8.579248"><ele>1290.9</ele></trkpt>
      <trkpt lat="46.520887" lon="8.579183"><ele>1290.9</ele></trkpt>
      <trkpt lat="46.520922" lon="8.578879"><ele>1291.0</ele></trkpt>
      <trkpt lat="46.520902" lon="8.577852"><ele>1291.3</ele></trkpt>
      <trkpt lat="46.520695" lon="8.575556"><ele>1292.4</ele></trkpt>
      <trkpt lat="46.520599" lon="8.574966"><ele>1292.9</ele></trkpt>
      <trkpt lat="46.520393" lon="8.574215"><ele>1293.4</ele></trkpt>
      <trkpt lat="46.520216" lon="8.573367"><ele>1293.3</ele></trkpt>
      <trkpt lat="46.520171" lon="8.572874"><ele>1292.8</ele></trkpt>
      <trkpt lat="46.520216" lon="8.572187"><ele>1292.1</ele></trkpt>
      <trkpt lat="46.520289" lon="8.571715"><ele>1291.6</ele></trkpt>
      <trkpt lat="46.520282" lon="8.571469"><ele>1291.4</ele></trkpt>
      <trkpt lat="46.520120" lon="8.570765"><ele>1291.7</ele></trkpt>
      <trkpt lat="46.520091" lon="8.570333"><ele>1292.2</ele></trkpt>
      <trkpt lat="46.519957" lon="8.569752"><ele>1292.9</ele></trkpt>
      <trkpt lat="46.519925" lon="8.569283"><ele>1293.5</ele></trkpt>
      <trkpt lat="46.519754" lon="8.568805"><ele>1294.2</ele></trkpt>
      <trkpt lat="46.519661" lon="8.568267"><ele>1295.5</ele></trkpt>
      <trkpt lat="46.519647" lon="8.567971"><ele>1296.2</ele></trkpt>
      <trkpt lat="46.519566" lon="8.567605"><ele>1297.2</ele></trkpt>
      <trkpt lat="46.519238" lon="8.566725"><ele>1299.7</ele></trkpt>
      <trkpt lat="46.519134" lon="8.566153"><ele>1301.0</ele></trkpt>
      <trkpt lat="46.518922" lon="8.565193"><ele>1301.8</ele></trkpt>
      <trkpt lat="46.519038" lon="8.564969"><ele>1302.0</ele></trkpt>
      <trkpt lat="46.518992" lon="8.564878"><ele>1302.1</ele></trkpt>
      <trkpt lat="46.518796" lon="8.564803"><ele>1302.4</ele></trkpt>
      <trkpt lat="46.518745" lon="8.564720"><ele>1302.4</ele></trkpt>
      <trkpt lat="46.518755" lon="8.564437"><ele>1302.7</ele></trkpt>
      <trkpt lat="46.518672" lon="8.564104"><ele>1303.0</ele></trkpt>
      <trkpt lat="46.518662" lon="8.563966"><ele>1302.4</ele></trkpt>
      <trkpt lat="46.518725" lon="8.563692"><ele>1300.8</ele></trkpt>
      <trkpt lat="46.518777" lon="8.563092"><ele>1297.5</ele></trkpt>
      <trkpt lat="46.518692" lon="8.562751"><ele>1295.5</ele></trkpt>
      <trkpt lat="46.518698" lon="8.562416"><ele>1293.7</ele></trkpt>
      <trkpt lat="46.518734" lon="8.562311"><ele>1293.1</ele></trkpt>
      <trkpt lat="46.518778" lon="8.562286"><ele>1292.7</ele></trkpt>
      <trkpt lat="46.519053" lon="8.562577"><ele>1290.0</ele></trkpt>
      <trkpt lat="46.519164" lon="8.562546"><ele>1289.1</ele></trkpt>
      <trkpt lat="46.518915" lon="8.562145"><ele>1286.9</ele></trkpt>
      <trkpt lat="46.518700" lon="8.561640"><ele>1284.7</ele></trkpt>
      <trkpt lat="46.518517" lon="8.561192"><ele>1282.8</ele></trkpt>
      <trkpt lat="46.518498" lon="8.561142"><ele>1282.6</ele></trkpt>
      <trkpt lat="46.518730" lon="8.560949"><ele>1281.1</ele></trkpt>
      <trkpt lat="46.518819" lon="8.560820"><ele>1280.4</ele></trkpt>
      <trkpt lat="46.518592" lon="8.560215"><ele>1278.9</ele></trkpt>
      <trkpt lat="46.518409" lon="8.559886"><ele>1278.9</ele></trkpt>
      <trkpt lat="46.518326" lon="8.559774"><ele>1278.9</ele></trkpt>
      <trkpt lat="46.518253" lon="8.559482"><ele>1278.9</ele></trkpt>
      <trkpt lat="46.518010" lon="8.558891"><ele>1278.9</ele></trkpt>
      <trkpt lat="46.517965" lon="8.558703"><ele>1278.9</ele></trkpt>
      <trkpt lat="46.517844" lon="8.558373"><ele>1278.9</ele></trkpt>
      <trkpt lat="46.517353" lon="8.555972"><ele>1281.7</ele></trkpt>
      <trkpt lat="46.517307" lon="8.555441"><ele>1282.5</ele></trkpt>
      <trkpt lat="46.517307" lon="8.554934"><ele>1283.5</ele></trkpt>
      <trkpt lat="46.517124" lon="8.553712"><ele>1286.0</ele></trkpt>
      <trkpt lat="46.517107" lon="8.552964"><ele>1287.5</ele></trkpt>
      <trkpt lat="46.516989" lon="8.552448"><ele>1288.7</ele></trkpt>
      <trkpt lat="46.516945" lon="8.552074"><ele>1289.5</ele></trkpt>
      <trkpt lat="46.516752" lon="8.551258"><ele>1291.4</ele></trkpt>
      <trkpt lat="46.516537" lon="8.550507"><ele>1293.4</ele></trkpt>
      <trkpt lat="46.516343" lon="8.549930"><ele>1295.5</ele></trkpt>
      <trkpt lat="46.516290" lon="8.549904"><ele>1295.8</ele></trkpt>
      <trkpt lat="46.516047" lon="8.549214"><ele>1298.3</ele></trkpt>
      <trkpt lat="46.515364" lon="8.547846"><ele>1303.6</ele></trkpt>
      <trkpt lat="46.515194" lon="8.547282"><ele>1305.3</ele></trkpt>
      <trkpt lat="46.515041" lon="8.546509"><ele>1307.5</ele></trkpt>
      <trkpt lat="46.514922" lon="8.546159"><ele>1308.6</ele></trkpt>
      <trkpt lat="46.514748" lon="8.545822"><ele>1309.1</ele></trkpt>
      <trkpt lat="46.514207" lon="8.544971"><ele>1310.2</ele></trkpt>
      <trkpt lat="46.514125" lon="8.544763"><ele>1310.4</ele></trkpt>
      <trkpt lat="46.514031" lon="8.544406"><ele>1310.8</ele></trkpt>
      <trkpt lat="46.513458" lon="8.541644"><ele>1312.9</ele></trkpt>
      <trkpt lat="46.513421" lon="8.541016"><ele>1312.8</ele></trkpt>
      <trkpt lat="46.513449" lon="8.540439"><ele>1312.6</ele></trkpt>
      <trkpt lat="46.513434" lon="8.540163"><ele>1312.4</ele></trkpt>
      <trkpt lat="46.513371" lon="8.539823"><ele>1312.3</ele></trkpt>
      <trkpt lat="46.513222" lon="8.539436"><ele>1312.1</ele></trkpt>
      <trkpt lat="46.512425" lon="8.538015"><ele>1313.2</ele></trkpt>
      <trkpt lat="46.512391" lon="8.537944"><ele>1313.3</ele></trkpt>
      <trkpt lat="46.512322" lon="8.537800"><ele>1313.5</ele></trkpt>
      <trkpt lat="46.512112" lon="8.537202"><ele>1314.2</ele></trkpt>
      <trkpt lat="46.511941" lon="8.536447"><ele>1315.6</ele></trkpt>
      <trkpt lat="46.511773" lon="8.535656"><ele>1317.6</ele></trkpt>
      <trkpt lat="46.511678" lon="8.535325"><ele>1318.5</ele></trkpt>
      <trkpt lat="46.511582" lon="8.535077"><ele>1319.2</ele></trkpt>
      <trkpt lat="46.511261" lon="8.534430"><ele>1321.2</ele></trkpt>
      <trkpt lat="46.511185" lon="8.534209"><ele>1321.9</ele></trkpt>
      <trkpt lat="46.511132" lon="8.533955"><ele>1322.6</ele></trkpt>
      <trkpt lat="46.511110" lon="8.533669"><ele>1323.4</ele></trkpt>
      <trkpt lat="46.511130" lon="8.533092"><ele>1325.0</ele></trkpt>
      <trkpt lat="46.511119" lon="8.532717"><ele>1326.1</ele></trkpt>
      <trkpt lat="46.511035" lon="8.531520"><ele>1329.9</ele></trkpt>
      <trkpt lat="46.510952" lon="8.530979"><ele>1332.2</ele></trkpt>
      <trkpt lat="46.510786" lon="8.530511"><ele>1334.4</ele></trkpt>
      <trkpt lat="46.510621" lon="8.530133"><ele>1336.2</ele></trkpt>
      <trkpt lat="46.510094" lon="8.529093"><ele>1340.0</ele></trkpt>
      <trkpt lat="46.509984" lon="8.528827"><ele>1340.4</ele></trkpt>
      <trkpt lat="46.509753" lon="8.528111"><ele>1341.6</ele></trkpt>
      <trkpt lat="46.509473" lon="8.526995"><ele>1342.2</ele></trkpt>
      <trkpt lat="46.509257" lon="8.526332"><ele>1339.8</ele></trkpt>
      <trkpt lat="46.509190" lon="8.526063"><ele>1338.9</ele></trkpt>
      <trkpt lat="46.509154" lon="8.525739"><ele>1337.9</ele></trkpt>
      <trkpt lat="46.509151" lon="8.525547"><ele>1337.3</ele></trkpt>
      <trkpt lat="46.509157" lon="8.524800"><ele>1334.9</ele></trkpt>
      <trkpt lat="46.509155" lon="8.524699"><ele>1334.7</ele></trkpt>
      <trkpt lat="46.509135" lon="8.524280"><ele>1335.2</ele></trkpt>
      <trkpt lat="46.509077" lon="8.523899"><ele>1335.7</ele></trkpt>
      <trkpt lat="46.509019" lon="8.523668"><ele>1336.0</ele></trkpt>
      <trkpt lat="46.508891" lon="8.523295"><ele>1336.4</ele></trkpt>
      <trkpt lat="46.507689" lon="8.520253"><ele>1344.5</ele></trkpt>
      <trkpt lat="46.506861" lon="8.518332"><ele>1351.8</ele></trkpt>
      <trkpt lat="46.506788" lon="8.518163"><ele>1352.4</ele></trkpt>
      <trkpt lat="46.506406" lon="8.517232"><ele>1356.0</ele></trkpt>
      <trkpt lat="46.506271" lon="8.516688"><ele>1357.9</ele></trkpt>
      <trkpt lat="46.506253" lon="8.516600"><ele>1358.2</ele></trkpt>
      <trkpt lat="46.506216" lon="8.516405"><ele>1358.8</ele></trkpt>
      <trkpt lat="46.505797" lon="8.514097"><ele>1366.4</ele></trkpt>
      <trkpt lat="46.505699" lon="8.513681"><ele>1367.7</ele></trkpt>
      <trkpt lat="46.505592" lon="8.513344"><ele>1368.9</ele></trkpt>
      <trkpt lat="46.503961" lon="8.509765"><ele>1380.8</ele></trkpt>
      <trkpt lat="46.503557" lon="8.508820"><ele>1384.0</ele></trkpt>
      <trkpt lat="46.503522" lon="8.508737"><ele>1384.3</ele></trkpt>
      <trkpt lat="46.503459" lon="8.508771"><ele>1384.6</ele></trkpt>
      <trkpt lat="46.503117" lon="8.508999"><ele>1386.8</ele></trkpt>
      <trkpt lat="46.502899" lon="8.509105"><ele>1388.2</ele></trkpt>
      <trkpt lat="46.502683" lon="8.509268"><ele>1389.6</ele></trkpt>
      <trkpt lat="46.502550" lon="8.509263"><ele>1390.4</ele></trkpt>
      <trkpt lat="46.502489" lon="8.509209"><ele>1390.8</ele></trkpt>
      <trkpt lat="46.502093" lon="8.508558"><ele>1394.4</ele></trkpt>
      <trkpt lat="46.501689" lon="8.507658"><ele>1398.5</ele></trkpt>
      <trkpt lat="46.500985" lon="8.506561"><ele>1404.1</ele></trkpt>
      <trkpt lat="46.500807" lon="8.506348"><ele>1405.4</ele></trkpt>
      <trkpt lat="46.500471" lon="8.505759"><ele>1409.3</ele></trkpt>
      <trkpt lat="46.499888" lon="8.504481"><ele>1417.3</ele></trkpt>
      <trkpt lat="46.499275" lon="8.503906"><ele>1424.0</ele></trkpt>
      <trkpt lat="46.498936" lon="8.503063"><ele>1430.4</ele></trkpt>
      <trkpt lat="46.498642" lon="8.502881"><ele>1433.5</ele></trkpt>
      <trkpt lat="46.498488" lon="8.502732"><ele>1435.3</ele></trkpt>
      <trkpt lat="46.498303" lon="8.502495"><ele>1437.8</ele></trkpt>
      <trkpt lat="46.497932" lon="8.501847"><ele>1443.9</ele></trkpt>
      <trkpt lat="46.497616" lon="8.501150"><ele>1450.0</ele></trkpt>
      <trkpt lat="46.497521" lon="8.500880"><ele>1452.2</ele></trkpt>
      <trkpt lat="46.497405" lon="8.500297"><ele>1456.3</ele></trkpt>
      <trkpt lat="46.497381" lon="8.499928"><ele>1458.4</ele></trkpt>
      <trkpt lat="46.497384" lon="8.499317"><ele>1461.8</ele></trkpt>
      <trkpt lat="46.497364" lon="8.498848"><ele>1464.5</ele></trkpt>
      <trkpt lat="46.497310" lon="8.498498"><ele>1466.6</ele></trkpt>
      <trkpt lat="46.497149" lon="8.497962"><ele>1469.9</ele></trkpt>
      <trkpt lat="46.496871" lon="8.497348"><ele>1472.5</ele></trkpt>
      <trkpt lat="46.496684" lon="8.496962"><ele>1474.2</ele></trkpt>
      <trkpt lat="46.496645" lon="8.496870"><ele>1474.5</ele></trkpt>
      <trkpt lat="46.496535" lon="8.496606"><ele>1475.6</ele></trkpt>
      <trkpt lat="46.496320" lon="8.496065"><ele>1477.8</ele></trkpt>
      <trkpt lat="46.495890" lon="8.494972"><ele>1483.3</ele></trkpt>
      <trkpt lat="46.495635" lon="8.494316"><ele>1486.9</ele></trkpt>
      <trkpt lat="46.495302" lon="8.493760"><ele>1490.5</ele></trkpt>
      <trkpt lat="46.495223" lon="8.493635"><ele>1491.3</ele></trkpt>
      <trkpt lat="46.494578" lon="8.492636"><ele>1498.2</ele></trkpt>
      <trkpt lat="46.494437" lon="8.492468"><ele>1499.6</ele></trkpt>
      <trkpt lat="46.494169" lon="8.492215"><ele>1502.0</ele></trkpt>
      <trkpt lat="46.493879" lon="8.491934"><ele>1504.5</ele></trkpt>
      <trkpt lat="46.493708" lon="8.491705"><ele>1506.3</ele></trkpt>
      <trkpt lat="46.493342" lon="8.491015"><ele>1510.7</ele></trkpt>
      <trkpt lat="46.493107" lon="8.490646"><ele>1513.3</ele></trkpt>
      <trkpt lat="46.492973" lon="8.490494"><ele>1514.5</ele></trkpt>
      <trkpt lat="46.492181" lon="8.489768"><ele>1521.0</ele></trkpt>
      <trkpt lat="46.491932" lon="8.489505"><ele>1523.0</ele></trkpt>
      <trkpt lat="46.491796" lon="8.489315"><ele>1524.2</ele></trkpt>
      <trkpt lat="46.491633" lon="8.489023"><ele>1525.8</ele></trkpt>
      <trkpt lat="46.491518" lon="8.488751"><ele>1527.2</ele></trkpt>
      <trkpt lat="46.491292" lon="8.488008"><ele>1530.6</ele></trkpt>
      <trkpt lat="46.490395" lon="8.484943"><ele>1543.8</ele></trkpt>
      <trkpt lat="46.489958" lon="8.483463"><ele>1551.2</ele></trkpt>
      <trkpt lat="46.489401" lon="8.481545"><ele>1563.6</ele></trkpt>
      <trkpt lat="46.489272" lon="8.481195"><ele>1565.9</ele></trkpt>
      <trkpt lat="46.488728" lon="8.480141"><ele>1573.4</ele></trkpt>
      <trkpt lat="46.487901" lon="8.478568"><ele>1584.6</ele></trkpt>
      <trkpt lat="46.487676" lon="8.478038"><ele>1588.3</ele></trkpt>
      <trkpt lat="46.487582" lon="8.477657"><ele>1590.6</ele></trkpt>
      <trkpt lat="46.487508" lon="8.477149"><ele>1593.7</ele></trkpt>
      <trkpt lat="46.487470" lon="8.476869"><ele>1595.4</ele></trkpt>
      <trkpt lat="46.487382" lon="8.476426"><ele>1597.7</ele></trkpt>
      <trkpt lat="46.487284" lon="8.476098"><ele>1599.2</ele></trkpt>
      <trkpt lat="46.487082" lon="8.475609"><ele>1601.5</ele></trkpt>
      <trkpt lat="46.486917" lon="8.475321"><ele>1603.0</ele></trkpt>
      <trkpt lat="46.486742" lon="8.475078"><ele>1604.5</ele></trkpt>
      <trkpt lat="46.486708" lon="8.475034"><ele>1604.7</ele></trkpt>
      <trkpt lat="46.486511" lon="8.474787"><ele>1606.3</ele></trkpt>
      <trkpt lat="46.486124" lon="8.474301"><ele>1608.9</ele></trkpt>
      <trkpt lat="46.485863" lon="8.473863"><ele>1610.7</ele></trkpt>
      <trkpt lat="46.485703" lon="8.473438"><ele>1612.3</ele></trkpt>
      <trkpt lat="46.485628" lon="8.473152"><ele>1613.2</ele></trkpt>
      <trkpt lat="46.485604" lon="8.473061"><ele>1613.5</ele></trkpt>
      <trkpt lat="46.485321" lon="8.471939"><ele>1618.0</ele></trkpt>
      <trkpt lat="46.485008" lon="8.470729"><ele>1624.1</ele></trkpt>
      <trkpt lat="46.484884" lon="8.470415"><ele>1625.8</ele></trkpt>
      <trkpt lat="46.484655" lon="8.470044"><ele>1628.1</ele></trkpt>
      <trkpt lat="46.484565" lon="8.469941"><ele>1629.1</ele></trkpt>
      <trkpt lat="46.484184" lon="8.469612"><ele>1632.7</ele></trkpt>
      <trkpt lat="46.483620" lon="8.469199"><ele>1637.9</ele></trkpt>
      <trkpt lat="46.483343" lon="8.468930"><ele>1640.6</ele></trkpt>
      <trkpt lat="46.483180" lon="8.468713"><ele>1642.4</ele></trkpt>
      <trkpt lat="46.483048" lon="8.468471"><ele>1644.2</ele></trkpt>
      <trkpt lat="46.482911" lon="8.468097"><ele>1646.8</ele></trkpt>
      <trkpt lat="46.482848" lon="8.467790"><ele>1648.8</ele></trkpt>
      <trkpt lat="46.482817" lon="8.467455"><ele>1650.8</ele></trkpt>
      <trkpt lat="46.482843" lon="8.466329"><ele>1657.7</ele></trkpt>
      <trkpt lat="46.482825" lon="8.465784"><ele>1661.0</ele></trkpt>
      <trkpt lat="46.482747" lon="8.465358"><ele>1663.6</ele></trkpt>
      <trkpt lat="46.482589" lon="8.464922"><ele>1666.6</ele></trkpt>
      <trkpt lat="46.482339" lon="8.464525"><ele>1669.8</ele></trkpt>
      <trkpt lat="46.481593" lon="8.463651"><ele>1678.4</ele></trkpt>
      <trkpt lat="46.481357" lon="8.463267"><ele>1681.7</ele></trkpt>
      <trkpt lat="46.481152" lon="8.462727"><ele>1685.6</ele></trkpt>
      <trkpt lat="46.480866" lon="8.461647"><ele>1692.9</ele></trkpt>
      <trkpt lat="46.480748" lon="8.461318"><ele>1695.3</ele></trkpt>
      <trkpt lat="46.480583" lon="8.460993"><ele>1697.9</ele></trkpt>
      <trkpt lat="46.480254" lon="8.460587"><ele>1701.9</ele></trkpt>
      <trkpt lat="46.479240" lon="8.459751"><ele>1712.7</ele></trkpt>
      <trkpt lat="46.478915" lon="8.459317"><ele>1716.8</ele></trkpt>
      <trkpt lat="46.478762" lon="8.459017"><ele>1719.3</ele></trkpt>
      <trkpt lat="46.478631" lon="8.458670"><ele>1721.8</ele></trkpt>
      <trkpt lat="46.478257" lon="8.457146"><ele>1733.1</ele></trkpt>
      <trkpt lat="46.478121" lon="8.456773"><ele>1736.2</ele></trkpt>
      <trkpt lat="46.477983" lon="8.456475"><ele>1738.8</ele></trkpt>
      <trkpt lat="46.477089" lon="8.454994"><ele>1753.3</ele></trkpt>
      <trkpt lat="46.476945" lon="8.454718"><ele>1755.8</ele></trkpt>
      <trkpt lat="46.476782" lon="8.454313"><ele>1759.3</ele></trkpt>
      <trkpt lat="46.476545" lon="8.453427"><ele>1767.1</ele></trkpt>
      <trkpt lat="46.476393" lon="8.452966"><ele>1771.6</ele></trkpt>
      <trkpt lat="46.476208" lon="8.452594"><ele>1775.7</ele></trkpt>
      <trkpt lat="46.475988" lon="8.452284"><ele>1779.6</ele></trkpt>
      <trkpt lat="46.475538" lon="8.451795"><ele>1786.7</ele></trkpt>
      <trkpt lat="46.475255" lon="8.451429"><ele>1790.6</ele></trkpt>
      <trkpt lat="46.475111" lon="8.451163"><ele>1793.0</ele></trkpt>
      <trkpt lat="46.474839" lon="8.450549"><ele>1798.2</ele></trkpt>
      <trkpt lat="46.474664" lon="8.450271"><ele>1800.9</ele></trkpt>
      <trkpt lat="46.474491" lon="8.450109"><ele>1803.0</ele></trkpt>
      <trkpt lat="46.474237" lon="8.449944"><ele>1805.4</ele></trkpt>
      <trkpt lat="46.474170" lon="8.449822"><ele>1806.2</ele></trkpt>
      <trkpt lat="46.474195" lon="8.449694"><ele>1806.9</ele></trkpt>
      <trkpt lat="46.474289" lon="8.449638"><ele>1807.6</ele></trkpt>
      <trkpt lat="46.474839" lon="8.449846"><ele>1811.8</ele></trkpt>
      <trkpt lat="46.475115" lon="8.450005"><ele>1813.9</ele></trkpt>
      <trkpt lat="46.475414" lon="8.450366"><ele>1816.8</ele></trkpt>
      <trkpt lat="46.475496" lon="8.450427"><ele>1817.5</ele></trkpt>
      <trkpt lat="46.475581" lon="8.450388"><ele>1818.3</ele></trkpt>
      <trkpt lat="46.475614" lon="8.450317"><ele>1818.9</ele></trkpt>
      <trkpt lat="46.475614" lon="8.450227"><ele>1819.5</ele></trkpt>
      <trkpt lat="46.475570" lon="8.450118"><ele>1820.3</ele></trkpt>
      <trkpt lat="46.475324" lon="8.449732"><ele>1823.8</ele></trkpt>
      <trkpt lat="46.474758" lon="8.448530"><ele>1833.5</ele></trkpt>
      <trkpt lat="46.474041" lon="8.447400"><ele>1845.5</ele></trkpt>
      <trkpt lat="46.473776" lon="8.446905"><ele>1850.6</ele></trkpt>
      <trkpt lat="46.473643" lon="8.446552"><ele>1853.8</ele></trkpt>
      <trkpt lat="46.473525" lon="8.446034"><ele>1858.6</ele></trkpt>
      <trkpt lat="46.473488" lon="8.445652"><ele>1862.2</ele></trkpt>
      <trkpt lat="46.473491" lon="8.445268"><ele>1865.9</ele></trkpt>
      <trkpt lat="46.473450" lon="8.445200"><ele>1866.7</ele></trkpt>
      <trkpt lat="46.473446" lon="8.444760"><ele>1870.9</ele></trkpt>
      <trkpt lat="46.473397" lon="8.444716"><ele>1871.7</ele></trkpt>
      <trkpt lat="46.473397" lon="8.444569"><ele>1873.1</ele></trkpt>
      <trkpt lat="46.473206" lon="8.444551"><ele>1875.7</ele></trkpt>
      <trkpt lat="46.473081" lon="8.444667"><ele>1877.8</ele></trkpt>
      <trkpt lat="46.472773" lon="8.444983"><ele>1883.8</ele></trkpt>
      <trkpt lat="46.472632" lon="8.445063"><ele>1886.7</ele></trkpt>
      <trkpt lat="46.472466" lon="8.445036"><ele>1889.8</ele></trkpt>
      <trkpt lat="46.472275" lon="8.444895"><ele>1893.9</ele></trkpt>
      <trkpt lat="46.472189" lon="8.444744"><ele>1896.4</ele></trkpt>
      <trkpt lat="46.472157" lon="8.444633"><ele>1898.0</ele></trkpt>
      <trkpt lat="46.471977" lon="8.445412"><ele>1908.7</ele></trkpt>
      <trkpt lat="46.471795" lon="8.445375"><ele>1912.2</ele></trkpt>
      <trkpt lat="46.471696" lon="8.445420"><ele>1914.1</ele></trkpt>
      <trkpt lat="46.471714" lon="8.446077"><ele>1922.5</ele></trkpt>
      <trkpt lat="46.471653" lon="8.446184"><ele>1924.3</ele></trkpt>
      <trkpt lat="46.471524" lon="8.446123"><ele>1926.9</ele></trkpt>
      <trkpt lat="46.471415" lon="8.446221"><ele>1929.2</ele></trkpt>
      <trkpt lat="46.471381" lon="8.446312"><ele>1930.6</ele></trkpt>
      <trkpt lat="46.471312" lon="8.446306"><ele>1931.9</ele></trkpt>
      <trkpt lat="46.471169" lon="8.446547"><ele>1935.9</ele></trkpt>
      <trkpt lat="46.471121" lon="8.446684"><ele>1937.9</ele></trkpt>
      <trkpt lat="46.471060" lon="8.447027"><ele>1942.4</ele></trkpt>
      <trkpt lat="46.470994" lon="8.447216"><ele>1945.2</ele></trkpt>
      <trkpt lat="46.471035" lon="8.447284"><ele>1946.3</ele></trkpt>
      <trkpt lat="46.470991" lon="8.447443"><ele>1948.5</ele></trkpt>
      <trkpt lat="46.470901" lon="8.447591"><ele>1950.8</ele></trkpt>
      <trkpt lat="46.470850" lon="8.447863"><ele>1954.2</ele></trkpt>
      <trkpt lat="46.470845" lon="8.448011"><ele>1955.9</ele></trkpt>
      <trkpt lat="46.470721" lon="8.448384"><ele>1960.8</ele></trkpt>
      <trkpt lat="46.470482" lon="8.448628"><ele>1965.9</ele></trkpt>
      <trkpt lat="46.470463" lon="8.448910"><ele>1969.2</ele></trkpt>
      <trkpt lat="46.470513" lon="8.449246"><ele>1973.3</ele></trkpt>
      <trkpt lat="46.470484" lon="8.449410"><ele>1975.3</ele></trkpt>
      <trkpt lat="46.470387" lon="8.449648"><ele>1978.6</ele></trkpt>
      <trkpt lat="46.470356" lon="8.449808"><ele>1980.2</ele></trkpt>
      <trkpt lat="46.470404" lon="8.450083"><ele>1982.7</ele></trkpt>
      <trkpt lat="46.470436" lon="8.450985"><ele>1990.8</ele></trkpt>
      <trkpt lat="46.470541" lon="8.451550"><ele>1996.1</ele></trkpt>
      <trkpt lat="46.470494" lon="8.452082"><ele>2000.9</ele></trkpt>
      <trkpt lat="46.470484" lon="8.452450"><ele>2004.4</ele></trkpt>
      <trkpt lat="46.470328" lon="8.452607"><ele>2007.1</ele></trkpt>
      <trkpt lat="46.470326" lon="8.452639"><ele>2007.4</ele></trkpt>
      <trkpt lat="46.470503" lon="8.453147"><ele>2013.0</ele></trkpt>
      <trkpt lat="46.470484" lon="8.453252"><ele>2014.1</ele></trkpt>
      <trkpt lat="46.470459" lon="8.453271"><ele>2014.5</ele></trkpt>
      <trkpt lat="46.470433" lon="8.453248"><ele>2014.9</ele></trkpt>
      <trkpt lat="46.470433" lon="8.453133"><ele>2016.1</ele></trkpt>
      <trkpt lat="46.470211" lon="8.452563"><ele>2022.6</ele></trkpt>
      <trkpt lat="46.470148" lon="8.452704"><ele>2024.2</ele></trkpt>
      <trkpt lat="46.470198" lon="8.452824"><ele>2025.6</ele></trkpt>
      <trkpt lat="46.470230" lon="8.453067"><ele>2028.1</ele></trkpt>
      <trkpt lat="46.470150" lon="8.453242"><ele>2031.4</ele></trkpt>
      <trkpt lat="46.470108" lon="8.453036"><ele>2035.0</ele></trkpt>
      <trkpt lat="46.469954" lon="8.452658"><ele>2042.3</ele></trkpt>
      <trkpt lat="46.469893" lon="8.452601"><ele>2044.0</ele></trkpt>
      <trkpt lat="46.469908" lon="8.452780"><ele>2047.0</ele></trkpt>
      <trkpt lat="46.469961" lon="8.452893"><ele>2049.3</ele></trkpt>
      <trkpt lat="46.469940" lon="8.452901"><ele>2049.8</ele></trkpt>
      <trkpt lat="46.469754" lon="8.452626"><ele>2056.2</ele></trkpt>
      <trkpt lat="46.469837" lon="8.452345"><ele>2061.3</ele></trkpt>
      <trkpt lat="46.469837" lon="8.452239"><ele>2063.0</ele></trkpt>
      <trkpt lat="46.469797" lon="8.452222"><ele>2064.0</ele></trkpt>
      <trkpt lat="46.469633" lon="8.452500"><ele>2070.1</ele></trkpt>
      <trkpt lat="46.469479" lon="8.452628"><ele>2074.9</ele></trkpt>
      <trkpt lat="46.469412" lon="8.452748"><ele>2078.0</ele></trkpt>
      <trkpt lat="46.469309" lon="8.452979"><ele>2083.4</ele></trkpt>
      <trkpt lat="46.469311" lon="8.453030"><ele>2084.4</ele></trkpt>
      <trkpt lat="46.469259" lon="8.453116"><ele>2086.7</ele></trkpt>
      <trkpt lat="46.469267" lon="8.453154"><ele>2087.5</ele></trkpt>
      <trkpt lat="46.469217" lon="8.453297"><ele>2090.6</ele></trkpt>
      <trkpt lat="46.469103" lon="8.453122"><ele>2095.4</ele></trkpt>
      <trkpt lat="46.469084" lon="8.453032"><ele>2097.2</ele></trkpt>
      <trkpt lat="46.469042" lon="8.453118"><ele>2099.3</ele></trkpt>
      <trkpt lat="46.469017" lon="8.453095"><ele>2100.2</ele></trkpt>
      <trkpt lat="46.468941" lon="8.452656"><ele>2109.1</ele></trkpt>
      <trkpt lat="46.468954" lon="8.452527"><ele>2111.7</ele></trkpt>
      <trkpt lat="46.468935" lon="8.452374"><ele>2114.8</ele></trkpt>
      <trkpt lat="46.468863" lon="8.452323"><ele>2117.1</ele></trkpt>
      <trkpt lat="46.468828" lon="8.452340"><ele>2118.1</ele></trkpt>
      <trkpt lat="46.468760" lon="8.452550"><ele>2122.7</ele></trkpt>
      <trkpt lat="46.468493" lon="8.453015"><ele>2134.4</ele></trkpt>
      <trkpt lat="46.468491" lon="8.453055"><ele>2135.2</ele></trkpt>
      <trkpt lat="46.468411" lon="8.453149"><ele>2138.1</ele></trkpt>
      <trkpt lat="46.468288" lon="8.453381"><ele>2143.7</ele></trkpt>
      <trkpt lat="46.468256" lon="8.452750"><ele>2155.9</ele></trkpt>
      <trkpt lat="46.468309" lon="8.452462"><ele>2161.7</ele></trkpt>
      <trkpt lat="46.468271" lon="8.452433"><ele>2162.9</ele></trkpt>
      <trkpt lat="46.468266" lon="8.452321"><ele>2165.1</ele></trkpt>
      <trkpt lat="46.468023" lon="8.452319"><ele>2171.9</ele></trkpt>
      <trkpt lat="46.467842" lon="8.452416"><ele>2176.3</ele></trkpt>
      <trkpt lat="46.467735" lon="8.452658"><ele>2180.4</ele></trkpt>
      <trkpt lat="46.467648" lon="8.452975"><ele>2185.3</ele></trkpt>
      <trkpt lat="46.467573" lon="8.453030"><ele>2187.0</ele></trkpt>
      <trkpt lat="46.467554" lon="8.453076"><ele>2187.8</ele></trkpt>
      <trkpt lat="46.467550" lon="8.453179"><ele>2189.3</ele></trkpt>
      <trkpt lat="46.467583" lon="8.453254"><ele>2190.6</ele></trkpt>
      <trkpt lat="46.467560" lon="8.453332"><ele>2191.8</ele></trkpt>
      <trkpt lat="46.467487" lon="8.453395"><ele>2193.5</ele></trkpt>
      <trkpt lat="46.467451" lon="8.453536"><ele>2195.7</ele></trkpt>
      <trkpt lat="46.467403" lon="8.453563"><ele>2196.7</ele></trkpt>
      <trkpt lat="46.467392" lon="8.453694"><ele>2198.6</ele></trkpt>
      <trkpt lat="46.467312" lon="8.453803"><ele>2200.9</ele></trkpt>
      <trkpt lat="46.467310" lon="8.453858"><ele>2201.7</ele></trkpt>
      <trkpt lat="46.467226" lon="8.454003"><ele>2204.4</ele></trkpt>
      <trkpt lat="46.467094" lon="8.454186"><ele>2208.2</ele></trkpt>
      <trkpt lat="46.467144" lon="8.454244"><ele>2209.5</ele></trkpt>
      <trkpt lat="46.467041" lon="8.454318"><ele>2211.3</ele></trkpt>
      <trkpt lat="46.466843" lon="8.454352"><ele>2212.9</ele></trkpt>
      <trkpt lat="46.466631" lon="8.454441"><ele>2214.7</ele></trkpt>
      <trkpt lat="46.466531" lon="8.454550"><ele>2215.8</ele></trkpt>
      <trkpt lat="46.466496" lon="8.454701"><ele>2216.7</ele></trkpt>
      <trkpt lat="46.466538" lon="8.454837"><ele>2217.5</ele></trkpt>
      <trkpt lat="46.466706" lon="8.455021"><ele>2219.2</ele></trkpt>
      <trkpt lat="46.466735" lon="8.455147"><ele>2220.0</ele></trkpt>
      <trkpt lat="46.466812" lon="8.455318"><ele>2221.1</ele></trkpt>
      <trkpt lat="46.466851" lon="8.455660"><ele>2223.1</ele></trkpt>
      <trkpt lat="46.466840" lon="8.455691"><ele>2223.3</ele></trkpt>
      <trkpt lat="46.466944" lon="8.455969"><ele>2225.1</ele></trkpt>
      <trkpt lat="46.466964" lon="8.456192"><ele>2225.8</ele></trkpt>
      <trkpt lat="46.466952" lon="8.456777"><ele>2226.7</ele></trkpt>
      <trkpt lat="46.466791" lon="8.457162"><ele>2227.3</ele></trkpt>
      <trkpt lat="46.466515" lon="8.457516"><ele>2228.1</ele></trkpt>
      <trkpt lat="46.466307" lon="8.457896"><ele>2228.8</ele></trkpt>
      <trkpt lat="46.466153" lon="8.458447"><ele>2230.0</ele></trkpt>
      <trkpt lat="46.465958" lon="8.458690"><ele>2231.4</ele></trkpt>
      <trkpt lat="46.465999" lon="8.458803"><ele>2231.8</ele></trkpt>
      <trkpt lat="46.465910" lon="8.458987"><ele>2232.7</ele></trkpt>
      <trkpt lat="46.465839" lon="8.459242"><ele>2233.7</ele></trkpt>
      <trkpt lat="46.465465" lon="8.459799"><ele>2236.5</ele></trkpt>
      <trkpt lat="46.465418" lon="8.460007"><ele>2237.3</ele></trkpt>
      <trkpt lat="46.465287" lon="8.460191"><ele>2238.2</ele></trkpt>
      <trkpt lat="46.465175" lon="8.460475"><ele>2239.4</ele></trkpt>
      <trkpt lat="46.465086" lon="8.460600"><ele>2240.0</ele></trkpt>
      <trkpt lat="46.465053" lon="8.460824"><ele>2240.8</ele></trkpt>
      <trkpt lat="46.464937" lon="8.460745"><ele>2241.4</ele></trkpt>
      <trkpt lat="46.464682" lon="8.460797"><ele>2242.7</ele></trkpt>
      <trkpt lat="46.464623" lon="8.460756"><ele>2243.0</ele></trkpt>
      <trkpt lat="46.464613" lon="8.460690"><ele>2243.2</ele></trkpt>
      <trkpt lat="46.464335" lon="8.460230"><ele>2245.3</ele></trkpt>
      <trkpt lat="46.464207" lon="8.460073"><ele>2246.2</ele></trkpt>
      <trkpt lat="46.463946" lon="8.459434"><ele>2249.6</ele></trkpt>
      <trkpt lat="46.463714" lon="8.459017"><ele>2253.2</ele></trkpt>
      <trkpt lat="46.463359" lon="8.458468"><ele>2258.3</ele></trkpt>
      <trkpt lat="46.463096" lon="8.457755"><ele>2263.8</ele></trkpt>
      <trkpt lat="46.462777" lon="8.457192"><ele>2270.3</ele></trkpt>
      <trkpt lat="46.462365" lon="8.456565"><ele>2279.2</ele></trkpt>
      <trkpt lat="46.461627" lon="8.455952"><ele>2291.9</ele></trkpt>
      <trkpt lat="46.461260" lon="8.455721"><ele>2295.1</ele></trkpt>
      <trkpt lat="46.461075" lon="8.455497"><ele>2296.9</ele></trkpt>
      <trkpt lat="46.460954" lon="8.455303"><ele>2298.3</ele></trkpt>
      <trkpt lat="46.460802" lon="8.455153"><ele>2299.7</ele></trkpt>
      <trkpt lat="46.460704" lon="8.454855"><ele>2301.4</ele></trkpt>
      <trkpt lat="46.460560" lon="8.454146"><ele>2305.2</ele></trkpt>
      <trkpt lat="46.460349" lon="8.453810"><ele>2305.6</ele></trkpt>
      <trkpt lat="46.460154" lon="8.453646"><ele>2305.3</ele></trkpt>
      <trkpt lat="46.459961" lon="8.453412"><ele>2304.9</ele></trkpt>
      <trkpt lat="46.459128" lon="8.452125"><ele>2302.7</ele></trkpt>
      <trkpt lat="46.459112" lon="8.452116"><ele>2302.6</ele></trkpt>
      <trkpt lat="46.458861" lon="8.451588"><ele>2300.0</ele></trkpt>
      <trkpt lat="46.458810" lon="8.451162"><ele>2298.3</ele></trkpt>
      <trkpt lat="46.458700" lon="8.450752"><ele>2296.5</ele></trkpt>
      <trkpt lat="46.458688" lon="8.450469"><ele>2295.4</ele></trkpt>
      <trkpt lat="46.458426" lon="8.449134"><ele>2291.2</ele></trkpt>
      <trkpt lat="46.458434" lon="8.448963"><ele>2290.8</ele></trkpt>
      <trkpt lat="46.458578" lon="8.448791"><ele>2290.2</ele></trkpt>
      <trkpt lat="46.458597" lon="8.448728"><ele>2290.1</ele></trkpt>
      <trkpt lat="46.458462" lon="8.448077"><ele>2288.6</ele></trkpt>
      <trkpt lat="46.458403" lon="8.447652"><ele>2287.6</ele></trkpt>
      <trkpt lat="46.457924" lon="8.446514"><ele>2285.7</ele></trkpt>
      <trkpt lat="46.457686" lon="8.445667"><ele>2284.5</ele></trkpt>
      <trkpt lat="46.457391" lon="8.445043"><ele>2283.4</ele></trkpt>
      <trkpt lat="46.457188" lon="8.444673"><ele>2282.3</ele></trkpt>
      <trkpt lat="46.457037" lon="8.444143"><ele>2281.1</ele></trkpt>
      <trkpt lat="46.457012" lon="8.443902"><ele>2280.5</ele></trkpt>
      <trkpt lat="46.457120" lon="8.443678"><ele>2279.9</ele></trkpt>
      <trkpt lat="46.457133" lon="8.443265"><ele>2279.0</ele></trkpt>
      <trkpt lat="46.456842" lon="8.441662"><ele>2273.6</ele></trkpt>
      <trkpt lat="46.456764" lon="8.441355"><ele>2272.4</ele></trkpt>
      <trkpt lat="46.456555" lon="8.440957"><ele>2270.6</ele></trkpt>
      <trkpt lat="46.456533" lon="8.440877"><ele>2270.3</ele></trkpt>
      <trkpt lat="46.456532" lon="8.440577"><ele>2269.2</ele></trkpt>
      <trkpt lat="46.456472" lon="8.440515"><ele>2268.8</ele></trkpt>
      <trkpt lat="46.456285" lon="8.440553"><ele>2267.7</ele></trkpt>
      <trkpt lat="46.456218" lon="8.440504"><ele>2267.3</ele></trkpt>
      <trkpt lat="46.455783" lon="8.439875"><ele>2263.6</ele></trkpt>
      <trkpt lat="46.455416" lon="8.439488"><ele>2261.0</ele></trkpt>
      <trkpt lat="46.455288" lon="8.439148"><ele>2259.4</ele></trkpt>
      <trkpt lat="46.454523" lon="8.438480"><ele>2254.4</ele></trkpt>
      <trkpt lat="46.454368" lon="8.438298"><ele>2253.3</ele></trkpt>
      <trkpt lat="46.453876" lon="8.437855"><ele>2250.2</ele></trkpt>
      <trkpt lat="46.453579" lon="8.437650"><ele>2248.4</ele></trkpt>
      <trkpt lat="46.453216" lon="8.437467"><ele>2246.9</ele></trkpt>
      <trkpt lat="46.453139" lon="8.437392"><ele>2246.6</ele></trkpt>
      <trkpt lat="46.452983" lon="8.437202"><ele>2245.8</ele></trkpt>
      <trkpt lat="46.452423" lon="8.436772"><ele>2243.5</ele></trkpt>
      <trkpt lat="46.452240" lon="8.436494"><ele>2242.5</ele></trkpt>
      <trkpt lat="46.452090" lon="8.436375"><ele>2241.9</ele></trkpt>
      <trkpt lat="46.452007" lon="8.436268"><ele>2241.5</ele></trkpt>
      <trkpt lat="46.451956" lon="8.436180"><ele>2241.2</ele></trkpt>
      <trkpt lat="46.451954" lon="8.435847"><ele>2240.4</ele></trkpt>
      <trkpt lat="46.451894" lon="8.435745"><ele>2240.0</ele></trkpt>
      <trkpt lat="46.451584" lon="8.435754"><ele>2238.9</ele></trkpt>
      <trkpt lat="46.451446" lon="8.435671"><ele>2238.3</ele></trkpt>
      <trkpt lat="46.451287" lon="8.435669"><ele>2237.7</ele></trkpt>
      <trkpt lat="46.451157" lon="8.435581"><ele>2237.2</ele></trkpt>
      <trkpt lat="46.451050" lon="8.435318"><ele>2236.4</ele></trkpt>
      <trkpt lat="46.450988" lon="8.435255"><ele>2236.2</ele></trkpt>
      <trkpt lat="46.450659" lon="8.435163"><ele>2234.9</ele></trkpt>
      <trkpt lat="46.450550" lon="8.434993"><ele>2234.2</ele></trkpt>
      <trkpt lat="46.450510" lon="8.434786"><ele>2233.6</ele></trkpt>
      <trkpt lat="46.450473" lon="8.434695"><ele>2233.3</ele></trkpt>
      <trkpt lat="46.450422" lon="8.434674"><ele>2233.1</ele></trkpt>
      <trkpt lat="46.450329" lon="8.434739"><ele>2232.6</ele></trkpt>
      <trkpt lat="46.450256" lon="8.434891"><ele>2232.1</ele></trkpt>
      <trkpt lat="46.450188" lon="8.434949"><ele>2231.7</ele></trkpt>
      <trkpt lat="46.449937" lon="8.434942"><ele>2230.7</ele></trkpt>
      <trkpt lat="46.449760" lon="8.434803"><ele>2229.8</ele></trkpt>
      <trkpt lat="46.449700" lon="8.434679"><ele>2229.4</ele></trkpt>
      <trkpt lat="46.449624" lon="8.434605"><ele>2229.0</ele></trkpt>
      <trkpt lat="46.449525" lon="8.434554"><ele>2228.5</ele></trkpt>
      <trkpt lat="46.449275" lon="8.434322"><ele>2227.3</ele></trkpt>
      <trkpt lat="46.449176" lon="8.434311"><ele>2226.9</ele></trkpt>
      <trkpt lat="46.449018" lon="8.434379"><ele>2226.3</ele></trkpt>
      <trkpt lat="46.448822" lon="8.434279"><ele>2225.6</ele></trkpt>
      <trkpt lat="46.448642" lon="8.434303"><ele>2225.0</ele></trkpt>
      <trkpt lat="46.448351" lon="8.434255"><ele>2224.0</ele></trkpt>
      <trkpt lat="46.448279" lon="8.434221"><ele>2223.8</ele></trkpt>
      <trkpt lat="46.448039" lon="8.433908"><ele>2222.7</ele></trkpt>
      <trkpt lat="46.447894" lon="8.433802"><ele>2222.1</ele></trkpt>
      <trkpt lat="46.447456" lon="8.433656"><ele>2220.6</ele></trkpt>
      <trkpt lat="46.447413" lon="8.433594"><ele>2220.4</ele></trkpt>
      <trkpt lat="46.447416" lon="8.433428"><ele>2220.0</ele></trkpt>
      <trkpt lat="46.447361" lon="8.433336"><ele>2219.7</ele></trkpt>
      <trkpt lat="46.447233" lon="8.433301"><ele>2219.3</ele></trkpt>
      <trkpt lat="46.446922" lon="8.433334"><ele>2218.2</ele></trkpt>
      <trkpt lat="46.446797" lon="8.433283"><ele>2217.8</ele></trkpt>
      <trkpt lat="46.446711" lon="8.433226"><ele>2217.5</ele></trkpt>
      <trkpt lat="46.446456" lon="8.432929"><ele>2216.4</ele></trkpt>
      <trkpt lat="46.446343" lon="8.432887"><ele>2216.0</ele></trkpt>
      <trkpt lat="46.446160" lon="8.432945"><ele>2215.4</ele></trkpt>
      <trkpt lat="46.445852" lon="8.433150"><ele>2214.3</ele></trkpt>
      <trkpt lat="46.445540" lon="8.433145"><ele>2213.4</ele></trkpt>
      <trkpt lat="46.445435" lon="8.433065"><ele>2213.0</ele></trkpt>
      <trkpt lat="46.445330" lon="8.432846"><ele>2212.5</ele></trkpt>
      <trkpt lat="46.445178" lon="8.432653"><ele>2211.8</ele></trkpt>
      <trkpt lat="46.445088" lon="8.432467"><ele>2211.4</ele></trkpt>
      <trkpt lat="46.445045" lon="8.432313"><ele>2211.0</ele></trkpt>
      <trkpt lat="46.444901" lon="8.432095"><ele>2210.4</ele></trkpt>
      <trkpt lat="46.444629" lon="8.431959"><ele>2209.5</ele></trkpt>
      <trkpt lat="46.444459" lon="8.431837"><ele>2208.9</ele></trkpt>
      <trkpt lat="46.444192" lon="8.431760"><ele>2208.0</ele></trkpt>
      <trkpt lat="46.443980" lon="8.431622"><ele>2207.2</ele></trkpt>
      <trkpt lat="46.443730" lon="8.431543"><ele>2206.3</ele></trkpt>
      <trkpt lat="46.443512" lon="8.431547"><ele>2205.6</ele></trkpt>
      <trkpt lat="46.443288" lon="8.431422"><ele>2204.8</ele></trkpt>
      <trkpt lat="46.443063" lon="8.431383"><ele>2204.0</ele></trkpt>
      <trkpt lat="46.442827" lon="8.431261"><ele>2203.2</ele></trkpt>
      <trkpt lat="46.441833" lon="8.431037"><ele>2199.6</ele></trkpt>
      <trkpt lat="46.441276" lon="8.431029"><ele>2197.7</ele></trkpt>
      <trkpt lat="46.440980" lon="8.431093"><ele>2196.7</ele></trkpt>
      <trkpt lat="46.440506" lon="8.430948"><ele>2195.3</ele></trkpt>
      <trkpt lat="46.440021" lon="8.430964"><ele>2193.8</ele></trkpt>
      <trkpt lat="46.439608" lon="8.430786"><ele>2192.6</ele></trkpt>
      <trkpt lat="46.439195" lon="8.430745"><ele>2191.1</ele></trkpt>
      <trkpt lat="46.438950" lon="8.430786"><ele>2190.2</ele></trkpt>
      <trkpt lat="46.438714" lon="8.430765"><ele>2189.2</ele></trkpt>
      <trkpt lat="46.438550" lon="8.430655"><ele>2188.5</ele></trkpt>
      <trkpt lat="46.438210" lon="8.430707"><ele>2187.2</ele></trkpt>
      <trkpt lat="46.438014" lon="8.430552"><ele>2186.3</ele></trkpt>
      <trkpt lat="46.437886" lon="8.430405"><ele>2185.7</ele></trkpt>
      <trkpt lat="46.437584" lon="8.430350"><ele>2184.0</ele></trkpt>
      <trkpt lat="46.437413" lon="8.430334"><ele>2182.4</ele></trkpt>
      <trkpt lat="46.437295" lon="8.430517"><ele>2180.8</ele></trkpt>
      <trkpt lat="46.437146" lon="8.430617"><ele>2179.3</ele></trkpt>
      <trkpt lat="46.437056" lon="8.430563"><ele>2178.4</ele></trkpt>
      <trkpt lat="46.436829" lon="8.430347"><ele>2175.9</ele></trkpt>
      <trkpt lat="46.436695" lon="8.430347"><ele>2174.7</ele></trkpt>
      <trkpt lat="46.436544" lon="8.430436"><ele>2173.1</ele></trkpt>
      <trkpt lat="46.436421" lon="8.430408"><ele>2172.0</ele></trkpt>
      <trkpt lat="46.435989" lon="8.430171"><ele>2167.9</ele></trkpt>
      <trkpt lat="46.435860" lon="8.429998"><ele>2166.9</ele></trkpt>
      <trkpt lat="46.435769" lon="8.429813"><ele>2166.0</ele></trkpt>
      <trkpt lat="46.435531" lon="8.429161"><ele>2163.1</ele></trkpt>
      <trkpt lat="46.435249" lon="8.428552"><ele>2160.1</ele></trkpt>
      <trkpt lat="46.435046" lon="8.428315"><ele>2158.6</ele></trkpt>
      <trkpt lat="46.434954" lon="8.428284"><ele>2158.1</ele></trkpt>
      <trkpt lat="46.434815" lon="8.428273"><ele>2157.6</ele></trkpt>
      <trkpt lat="46.434697" lon="8.428287"><ele>2157.3</ele></trkpt>
      <trkpt lat="46.434617" lon="8.428314"><ele>2157.1</ele></trkpt>
      <trkpt lat="46.434549" lon="8.428451"><ele>2156.8</ele></trkpt>
      <trkpt lat="46.434520" lon="8.428617"><ele>2156.5</ele></trkpt>
      <trkpt lat="46.434576" lon="8.428814"><ele>2156.1</ele></trkpt>
      <trkpt lat="46.434685" lon="8.429152"><ele>2155.4</ele></trkpt>
      <trkpt lat="46.434906" lon="8.429604"><ele>2154.4</ele></trkpt>
      <trkpt lat="46.434914" lon="8.429852"><ele>2154.0</ele></trkpt>
      <trkpt lat="46.434907" lon="8.429961"><ele>2153.8</ele></trkpt>
      <trkpt lat="46.434825" lon="8.430088"><ele>2153.5</ele></trkpt>
      <trkpt lat="46.434650" lon="8.430154"><ele>2153.2</ele></trkpt>
      <trkpt lat="46.434548" lon="8.430252"><ele>2153.3</ele></trkpt>
      <trkpt lat="46.434444" lon="8.430426"><ele>2153.5</ele></trkpt>
      <trkpt lat="46.434390" lon="8.430492"><ele>2153.5</ele></trkpt>
      <trkpt lat="46.434007" lon="8.430438"><ele>2153.9</ele></trkpt>
      <trkpt lat="46.433261" lon="8.430399"><ele>2154.5</ele></trkpt>
      <trkpt lat="46.433065" lon="8.430421"><ele>2154.6</ele></trkpt>
      <trkpt lat="46.432929" lon="8.430469"><ele>2154.7</ele></trkpt>
      <trkpt lat="46.432854" lon="8.430540"><ele>2154.7</ele></trkpt>
      <trkpt lat="46.432736" lon="8.430638"><ele>2154.8</ele></trkpt>
      <trkpt lat="46.432640" lon="8.430676"><ele>2154.8</ele></trkpt>
      <trkpt lat="46.432555" lon="8.430661"><ele>2154.8</ele></trkpt>
      <trkpt lat="46.432488" lon="8.430616"><ele>2154.8</ele></trkpt>
      <trkpt lat="46.432408" lon="8.430508"><ele>2154.9</ele></trkpt>
      <trkpt lat="46.432120" lon="8.429946"><ele>2155.0</ele></trkpt>
      <trkpt lat="46.431823" lon="8.429541"><ele>2155.1</ele></trkpt>
      <trkpt lat="46.431665" lon="8.429067"><ele>2154.1</ele></trkpt>
      <trkpt lat="46.431640" lon="8.428801"><ele>2152.7</ele></trkpt>
      <trkpt lat="46.431426" lon="8.428469"><ele>2150.2</ele></trkpt>
      <trkpt lat="46.431235" lon="8.427992"><ele>2147.2</ele></trkpt>
      <trkpt lat="46.430910" lon="8.427823"><ele>2144.5</ele></trkpt>
      <trkpt lat="46.430588" lon="8.427558"><ele>2141.6</ele></trkpt>
      <trkpt lat="46.430372" lon="8.427313"><ele>2138.3</ele></trkpt>
      <trkpt lat="46.430121" lon="8.426763"><ele>2132.0</ele></trkpt>
      <trkpt lat="46.430025" lon="8.426390"><ele>2128.2</ele></trkpt>
      <trkpt lat="46.429943" lon="8.426235"><ele>2126.3</ele></trkpt>
      <trkpt lat="46.429745" lon="8.426039"><ele>2123.0</ele></trkpt>
      <trkpt lat="46.429381" lon="8.425178"><ele>2112.3</ele></trkpt>
      <trkpt lat="46.429224" lon="8.424875"><ele>2107.2</ele></trkpt>
      <trkpt lat="46.429267" lon="8.424542"><ele>2102.7</ele></trkpt>
      <trkpt lat="46.429357" lon="8.424333"><ele>2099.4</ele></trkpt>
      <trkpt lat="46.429394" lon="8.424124"><ele>2096.5</ele></trkpt>
      <trkpt lat="46.429375" lon="8.423904"><ele>2093.6</ele></trkpt>
      <trkpt lat="46.429281" lon="8.423501"><ele>2087.9</ele></trkpt>
      <trkpt lat="46.429275" lon="8.423351"><ele>2085.9</ele></trkpt>
      <trkpt lat="46.429290" lon="8.423125"><ele>2082.9</ele></trkpt>
      <trkpt lat="46.429263" lon="8.422940"><ele>2080.8</ele></trkpt>
      <trkpt lat="46.429322" lon="8.422694"><ele>2078.6</ele></trkpt>
      <trkpt lat="46.429273" lon="8.422553"><ele>2077.3</ele></trkpt>
      <trkpt lat="46.429130" lon="8.422370"><ele>2074.9</ele></trkpt>
      <trkpt lat="46.429058" lon="8.422201"><ele>2073.3</ele></trkpt>
      <trkpt lat="46.429066" lon="8.421907"><ele>2070.8</ele></trkpt>
      <trkpt lat="46.429039" lon="8.421746"><ele>2069.4</ele></trkpt>
      <trkpt lat="46.429018" lon="8.421673"><ele>2068.7</ele></trkpt>
      <trkpt lat="46.428951" lon="8.421620"><ele>2067.8</ele></trkpt>
      <trkpt lat="46.428911" lon="8.421653"><ele>2067.3</ele></trkpt>
      <trkpt lat="46.428900" lon="8.421710"><ele>2066.8</ele></trkpt>
      <trkpt lat="46.428986" lon="8.421927"><ele>2064.7</ele></trkpt>
      <trkpt lat="46.428986" lon="8.422037"><ele>2063.7</ele></trkpt>
      <trkpt lat="46.428948" lon="8.422240"><ele>2062.0</ele></trkpt>
      <trkpt lat="46.428886" lon="8.422383"><ele>2060.5</ele></trkpt>
      <trkpt lat="46.428883" lon="8.422663"><ele>2059.6</ele></trkpt>
      <trkpt lat="46.428844" lon="8.422743"><ele>2059.7</ele></trkpt>
      <trkpt lat="46.428792" lon="8.422759"><ele>2059.7</ele></trkpt>
      <trkpt lat="46.428759" lon="8.422720"><ele>2059.7</ele></trkpt>
      <trkpt lat="46.428732" lon="8.422527"><ele>2059.8</ele></trkpt>
      <trkpt lat="46.428756" lon="8.422303"><ele>2059.9</ele></trkpt>
      <trkpt lat="46.428837" lon="8.422129"><ele>2060.0</ele></trkpt>
      <trkpt lat="46.428830" lon="8.422033"><ele>2060.1</ele></trkpt>
      <trkpt lat="46.428795" lon="8.421954"><ele>2060.1</ele></trkpt>
      <trkpt lat="46.428729" lon="8.421911"><ele>2060.2</ele></trkpt>
      <trkpt lat="46.428654" lon="8.421940"><ele>2060.2</ele></trkpt>
      <trkpt lat="46.428602" lon="8.422025"><ele>2060.3</ele></trkpt>
      <trkpt lat="46.428589" lon="8.422116"><ele>2060.3</ele></trkpt>
      <trkpt lat="46.428607" lon="8.422244"><ele>2060.4</ele></trkpt>
      <trkpt lat="46.428561" lon="8.422643"><ele>2060.6</ele></trkpt>
      <trkpt lat="46.428608" lon="8.423033"><ele>2060.7</ele></trkpt>
      <trkpt lat="46.428719" lon="8.423281"><ele>2059.4</ele></trkpt>
      <trkpt lat="46.428746" lon="8.423403"><ele>2058.7</ele></trkpt>
      <trkpt lat="46.428772" lon="8.423521"><ele>2058.1</ele></trkpt>
      <trkpt lat="46.428752" lon="8.423822"><ele>2056.5</ele></trkpt>
      <trkpt lat="46.428698" lon="8.423999"><ele>2055.5</ele></trkpt>
      <trkpt lat="46.428630" lon="8.424131"><ele>2054.7</ele></trkpt>
      <trkpt lat="46.428532" lon="8.424233"><ele>2053.8</ele></trkpt>
      <trkpt lat="46.428462" lon="8.424257"><ele>2053.2</ele></trkpt>
      <trkpt lat="46.428373" lon="8.424226"><ele>2052.5</ele></trkpt>
      <trkpt lat="46.428320" lon="8.424109"><ele>2051.8</ele></trkpt>
      <trkpt lat="46.428355" lon="8.423962"><ele>2051.0</ele></trkpt>
      <trkpt lat="46.428462" lon="8.423848"><ele>2050.0</ele></trkpt>
      <trkpt lat="46.428482" lon="8.423715"><ele>2049.3</ele></trkpt>
      <trkpt lat="46.428433" lon="8.423472"><ele>2048.0</ele></trkpt>
      <trkpt lat="46.428389" lon="8.423369"><ele>2047.3</ele></trkpt>
      <trkpt lat="46.428307" lon="8.423297"><ele>2046.2</ele></trkpt>
      <trkpt lat="46.428211" lon="8.423277"><ele>2044.9</ele></trkpt>
      <trkpt lat="46.428113" lon="8.423203"><ele>2043.4</ele></trkpt>
      <trkpt lat="46.427811" lon="8.422678"><ele>2037.1</ele></trkpt>
      <trkpt lat="46.427805" lon="8.422584"><ele>2036.2</ele></trkpt>
      <trkpt lat="46.427865" lon="8.422249"><ele>2033.0</ele></trkpt>
      <trkpt lat="46.427814" lon="8.422151"><ele>2031.8</ele></trkpt>
      <trkpt lat="46.427769" lon="8.422151"><ele>2031.2</ele></trkpt>
      <trkpt lat="46.427740" lon="8.422190"><ele>2030.7</ele></trkpt>
      <trkpt lat="46.427632" lon="8.422909"><ele>2023.9</ele></trkpt>
      <trkpt lat="46.427638" lon="8.423064"><ele>2022.8</ele></trkpt>
      <trkpt lat="46.427716" lon="8.423234"><ele>2022.0</ele></trkpt>
      <trkpt lat="46.427733" lon="8.423342"><ele>2021.6</ele></trkpt>
      <trkpt lat="46.427737" lon="8.423430"><ele>2021.2</ele></trkpt>
      <trkpt lat="46.427708" lon="8.423542"><ele>2020.7</ele></trkpt>
      <trkpt lat="46.427586" lon="8.423625"><ele>2019.9</ele></trkpt>
      <trkpt lat="46.427380" lon="8.423948"><ele>2018.1</ele></trkpt>
      <trkpt lat="46.427138" lon="8.424078"><ele>2016.6</ele></trkpt>
      <trkpt lat="46.427021" lon="8.424210"><ele>2015.8</ele></trkpt>
      <trkpt lat="46.426979" lon="8.424316"><ele>2015.3</ele></trkpt>
      <trkpt lat="46.426940" lon="8.424665"><ele>2013.8</ele></trkpt>
      <trkpt lat="46.426902" lon="8.424785"><ele>2013.3</ele></trkpt>
      <trkpt lat="46.426748" lon="8.424972"><ele>2012.1</ele></trkpt>
      <trkpt lat="46.426608" lon="8.425070"><ele>2011.0</ele></trkpt>
      <trkpt lat="46.426385" lon="8.425035"><ele>2009.4</ele></trkpt>
      <trkpt lat="46.426154" lon="8.425169"><ele>2007.7</ele></trkpt>
      <trkpt lat="46.425861" lon="8.425206"><ele>2005.7</ele></trkpt>
      <trkpt lat="46.425100" lon="8.425454"><ele>2000.4</ele></trkpt>
      <trkpt lat="46.425068" lon="8.425418"><ele>1999.9</ele></trkpt>
      <trkpt lat="46.425064" lon="8.425316"><ele>1998.9</ele></trkpt>
      <trkpt lat="46.425159" lon="8.425275"><ele>1997.5</ele></trkpt>
      <trkpt lat="46.425302" lon="8.425320"><ele>1995.3</ele></trkpt>
      <trkpt lat="46.425962" lon="8.424714"><ele>1983.9</ele></trkpt>
      <trkpt lat="46.426260" lon="8.424183"><ele>1977.0</ele></trkpt>
      <trkpt lat="46.426400" lon="8.423822"><ele>1972.8</ele></trkpt>
      <trkpt lat="46.426444" lon="8.423396"><ele>1968.1</ele></trkpt>
      <trkpt lat="46.426507" lon="8.423224"><ele>1966.1</ele></trkpt>
      <trkpt lat="46.426566" lon="8.422718"><ele>1960.6</ele></trkpt>
      <trkpt lat="46.426563" lon="8.422253"><ele>1955.6</ele></trkpt>
      <trkpt lat="46.426723" lon="8.422023"><ele>1952.1</ele></trkpt>
      <trkpt lat="46.426766" lon="8.421738"><ele>1949.0</ele></trkpt>
      <trkpt lat="46.426746" lon="8.421532"><ele>1946.8</ele></trkpt>
      <trkpt lat="46.426546" lon="8.421314"><ele>1944.5</ele></trkpt>
      <trkpt lat="46.426509" lon="8.421215"><ele>1944.0</ele></trkpt>
      <trkpt lat="46.426490" lon="8.421065"><ele>1943.2</ele></trkpt>
      <trkpt lat="46.426440" lon="8.421003"><ele>1942.7</ele></trkpt>
      <trkpt lat="46.426389" lon="8.421019"><ele>1942.3</ele></trkpt>
      <trkpt lat="46.426333" lon="8.421089"><ele>1941.8</ele></trkpt>
      <trkpt lat="46.426387" lon="8.421363"><ele>1940.3</ele></trkpt>
      <trkpt lat="46.426367" lon="8.421591"><ele>1939.2</ele></trkpt>
      <trkpt lat="46.426430" lon="8.421791"><ele>1938.1</ele></trkpt>
      <trkpt lat="46.426358" lon="8.421984"><ele>1937.0</ele></trkpt>
      <trkpt lat="46.426096" lon="8.422433"><ele>1934.0</ele></trkpt>
      <trkpt lat="46.425979" lon="8.422985"><ele>1931.0</ele></trkpt>
      <trkpt lat="46.425904" lon="8.423031"><ele>1930.4</ele></trkpt>
      <trkpt lat="46.425733" lon="8.423102"><ele>1929.0</ele></trkpt>
      <trkpt lat="46.425560" lon="8.423023"><ele>1927.6</ele></trkpt>
      <trkpt lat="46.425427" lon="8.423254"><ele>1926.0</ele></trkpt>
      <trkpt lat="46.424936" lon="8.423200"><ele>1922.2</ele></trkpt>
      <trkpt lat="46.424820" lon="8.423331"><ele>1921.1</ele></trkpt>
      <trkpt lat="46.424717" lon="8.423521"><ele>1919.8</ele></trkpt>
      <trkpt lat="46.424300" lon="8.423612"><ele>1915.6</ele></trkpt>
      <trkpt lat="46.423757" lon="8.423526"><ele>1909.6</ele></trkpt>
      <trkpt lat="46.423648" lon="8.423585"><ele>1908.3</ele></trkpt>
      <trkpt lat="46.423495" lon="8.423751"><ele>1906.2</ele></trkpt>
      <trkpt lat="46.423344" lon="8.423832"><ele>1904.5</ele></trkpt>
      <trkpt lat="46.423004" lon="8.423890"><ele>1900.7</ele></trkpt>
      <trkpt lat="46.422864" lon="8.423966"><ele>1899.1</ele></trkpt>
      <trkpt lat="46.422813" lon="8.423944"><ele>1898.5</ele></trkpt>
      <trkpt lat="46.422833" lon="8.423834"><ele>1897.7</ele></trkpt>
      <trkpt lat="46.423097" lon="8.423661"><ele>1894.6</ele></trkpt>
      <trkpt lat="46.423506" lon="8.423222"><ele>1889.2</ele></trkpt>
      <trkpt lat="46.423931" lon="8.422938"><ele>1884.1</ele></trkpt>
      <trkpt lat="46.424086" lon="8.422577"><ele>1881.0</ele></trkpt>
      <trkpt lat="46.424221" lon="8.422533"><ele>1879.5</ele></trkpt>
      <trkpt lat="46.424284" lon="8.422469"><ele>1878.6</ele></trkpt>
      <trkpt lat="46.424352" lon="8.422256"><ele>1876.8</ele></trkpt>
      <trkpt lat="46.424412" lon="8.422150"><ele>1875.7</ele></trkpt>
      <trkpt lat="46.424576" lon="8.422044"><ele>1873.6</ele></trkpt>
      <trkpt lat="46.424641" lon="8.421959"><ele>1872.6</ele></trkpt>
      <trkpt lat="46.424784" lon="8.421617"><ele>1869.5</ele></trkpt>
      <trkpt lat="46.424782" lon="8.421547"><ele>1868.9</ele></trkpt>
      <trkpt lat="46.424730" lon="8.421511"><ele>1868.3</ele></trkpt>
      <trkpt lat="46.424676" lon="8.421530"><ele>1867.6</ele></trkpt>
      <trkpt lat="46.424625" lon="8.421620"><ele>1866.7</ele></trkpt>
      <trkpt lat="46.424516" lon="8.421853"><ele>1864.5</ele></trkpt>
      <trkpt lat="46.424164" lon="8.422047"><ele>1860.2</ele></trkpt>
      <trkpt lat="46.423948" lon="8.421865"><ele>1857.6</ele></trkpt>
      <trkpt lat="46.423786" lon="8.421857"><ele>1856.0</ele></trkpt>
      <trkpt lat="46.423237" lon="8.422351"><ele>1849.5</ele></trkpt>
      <trkpt lat="46.422684" lon="8.422547"><ele>1843.7</ele></trkpt>
      <trkpt lat="46.422396" lon="8.422588"><ele>1840.8</ele></trkpt>
      <trkpt lat="46.422212" lon="8.422695"><ele>1838.6</ele></trkpt>
      <trkpt lat="46.422109" lon="8.422684"><ele>1837.4</ele></trkpt>
      <trkpt lat="46.421737" lon="8.422787"><ele>1833.2</ele></trkpt>
      <trkpt lat="46.421277" lon="8.422783"><ele>1828.1</ele></trkpt>
      <trkpt lat="46.420862" lon="8.422873"><ele>1823.4</ele></trkpt>
      <trkpt lat="46.420599" lon="8.422886"><ele>1820.6</ele></trkpt>
      <trkpt lat="46.420075" lon="8.422840"><ele>1815.7</ele></trkpt>
      <trkpt lat="46.419807" lon="8.422759"><ele>1813.1</ele></trkpt>
      <trkpt lat="46.419624" lon="8.422740"><ele>1811.3</ele></trkpt>
      <trkpt lat="46.419033" lon="8.422393"><ele>1805.3</ele></trkpt>
      <trkpt lat="46.418850" lon="8.422364"><ele>1803.4</ele></trkpt>
      <trkpt lat="46.418182" lon="8.422056"><ele>1796.2</ele></trkpt>
      <trkpt lat="46.417906" lon="8.421838"><ele>1792.9</ele></trkpt>
      <trkpt lat="46.417586" lon="8.421526"><ele>1788.9</ele></trkpt>
      <trkpt lat="46.417478" lon="8.421455"><ele>1787.7</ele></trkpt>
      <trkpt lat="46.417199" lon="8.421380"><ele>1784.9</ele></trkpt>
      <trkpt lat="46.417168" lon="8.421327"><ele>1784.5</ele></trkpt>
      <trkpt lat="46.417162" lon="8.421253"><ele>1784.1</ele></trkpt>
      <trkpt lat="46.417197" lon="8.421210"><ele>1783.7</ele></trkpt>
      <trkpt lat="46.417329" lon="8.421298"><ele>1782.5</ele></trkpt>
      <trkpt lat="46.417608" lon="8.421313"><ele>1780.2</ele></trkpt>
      <trkpt lat="46.417948" lon="8.421487"><ele>1777.2</ele></trkpt>
      <trkpt lat="46.418230" lon="8.421574"><ele>1774.8</ele></trkpt>
      <trkpt lat="46.418466" lon="8.421539"><ele>1772.9</ele></trkpt>
      <trkpt lat="46.418612" lon="8.421464"><ele>1771.6</ele></trkpt>
      <trkpt lat="46.419334" lon="8.421258"><ele>1764.1</ele></trkpt>
      <trkpt lat="46.419460" lon="8.421193"><ele>1762.7</ele></trkpt>
      <trkpt lat="46.419495" lon="8.421112"><ele>1762.0</ele></trkpt>
      <trkpt lat="46.419562" lon="8.421071"><ele>1761.2</ele></trkpt>
      <trkpt lat="46.419751" lon="8.420952"><ele>1759.1</ele></trkpt>
      <trkpt lat="46.419766" lon="8.420796"><ele>1757.9</ele></trkpt>
      <trkpt lat="46.419886" lon="8.420756"><ele>1756.6</ele></trkpt>
      <trkpt lat="46.419936" lon="8.420676"><ele>1755.9</ele></trkpt>
      <trkpt lat="46.420052" lon="8.420636"><ele>1754.6</ele></trkpt>
      <trkpt lat="46.420288" lon="8.420332"><ele>1751.4</ele></trkpt>
      <trkpt lat="46.420300" lon="8.420169"><ele>1750.3</ele></trkpt>
      <trkpt lat="46.420363" lon="8.420025"><ele>1749.1</ele></trkpt>
      <trkpt lat="46.420444" lon="8.419931"><ele>1748.1</ele></trkpt>
      <trkpt lat="46.420451" lon="8.419849"><ele>1747.6</ele></trkpt>
      <trkpt lat="46.420651" lon="8.419567"><ele>1744.9</ele></trkpt>
      <trkpt lat="46.420739" lon="8.419367"><ele>1743.3</ele></trkpt>
      <trkpt lat="46.420896" lon="8.419166"><ele>1741.2</ele></trkpt>
      <trkpt lat="46.421215" lon="8.418661"><ele>1736.7</ele></trkpt>
      <trkpt lat="46.421245" lon="8.418548"><ele>1735.9</ele></trkpt>
      <trkpt lat="46.421235" lon="8.418331"><ele>1734.5</ele></trkpt>
      <trkpt lat="46.421227" lon="8.418205"><ele>1734.2</ele></trkpt>
      <trkpt lat="46.421219" lon="8.418067"><ele>1733.9</ele></trkpt>
      <trkpt lat="46.421213" lon="8.417964"><ele>1733.7</ele></trkpt>
      <trkpt lat="46.421196" lon="8.417714"><ele>1733.2</ele></trkpt>
      <trkpt lat="46.421101" lon="8.417424"><ele>1732.5</ele></trkpt>
      <trkpt lat="46.421062" lon="8.417314"><ele>1732.2</ele></trkpt>
      <trkpt lat="46.420910" lon="8.416867"><ele>1731.1</ele></trkpt>
      <trkpt lat="46.420735" lon="8.416401"><ele>1730.0</ele></trkpt>
      <trkpt lat="46.420626" lon="8.416267"><ele>1729.6</ele></trkpt>
      <trkpt lat="46.420516" lon="8.416252"><ele>1729.2</ele></trkpt>
      <trkpt lat="46.420277" lon="8.416307"><ele>1728.9</ele></trkpt>
      <trkpt lat="46.419727" lon="8.416480"><ele>1728.8</ele></trkpt>
      <trkpt lat="46.419696" lon="8.416488"><ele>1728.8</ele></trkpt>
      <trkpt lat="46.419584" lon="8.416513"><ele>1728.8</ele></trkpt>
      <trkpt lat="46.419318" lon="8.416491"><ele>1728.7</ele></trkpt>
      <trkpt lat="46.419052" lon="8.416488"><ele>1728.6</ele></trkpt>
      <trkpt lat="46.418631" lon="8.416534"><ele>1728.5</ele></trkpt>
      <trkpt lat="46.418093" lon="8.416413"><ele>1728.2</ele></trkpt>
      <trkpt lat="46.417578" lon="8.416254"><ele>1727.8</ele></trkpt>
      <trkpt lat="46.417203" lon="8.416056"><ele>1727.5</ele></trkpt>
      <trkpt lat="46.417047" lon="8.415899"><ele>1727.4</ele></trkpt>
      <trkpt lat="46.416743" lon="8.415421"><ele>1726.7</ele></trkpt>
      <trkpt lat="46.416497" lon="8.415152"><ele>1726.1</ele></trkpt>
      <trkpt lat="46.415798" lon="8.414878"><ele>1724.8</ele></trkpt>
      <trkpt lat="46.415577" lon="8.414718"><ele>1724.3</ele></trkpt>
      <trkpt lat="46.415477" lon="8.414508"><ele>1724.0</ele></trkpt>
      <trkpt lat="46.415442" lon="8.414269"><ele>1722.9</ele></trkpt>
      <trkpt lat="46.415443" lon="8.414129"><ele>1722.3</ele></trkpt>
      <trkpt lat="46.415627" lon="8.413368"><ele>1718.6</ele></trkpt>
      <trkpt lat="46.415640" lon="8.413142"><ele>1717.6</ele></trkpt>
      <trkpt lat="46.415575" lon="8.412850"><ele>1716.2</ele></trkpt>
      <trkpt lat="46.415217" lon="8.412159"><ele>1712.2</ele></trkpt>
      <trkpt lat="46.414844" lon="8.411595"><ele>1707.9</ele></trkpt>
      <trkpt lat="46.414580" lon="8.411340"><ele>1705.4</ele></trkpt>
      <trkpt lat="46.414443" lon="8.411020"><ele>1703.4</ele></trkpt>
      <trkpt lat="46.414221" lon="8.410328"><ele>1699.2</ele></trkpt>
      <trkpt lat="46.414155" lon="8.410214"><ele>1698.3</ele></trkpt>
      <trkpt lat="46.414080" lon="8.410158"><ele>1697.7</ele></trkpt>
      <trkpt lat="46.413825" lon="8.410092"><ele>1696.2</ele></trkpt>
      <trkpt lat="46.411673" lon="8.410480"><ele>1684.9</ele></trkpt>
      <trkpt lat="46.411282" lon="8.410643"><ele>1683.1</ele></trkpt>
      <trkpt lat="46.410931" lon="8.410872"><ele>1681.3</ele></trkpt>
      <trkpt lat="46.410505" lon="8.411092"><ele>1678.9</ele></trkpt>
      <trkpt lat="46.409966" lon="8.411285"><ele>1673.7</ele></trkpt>
      <trkpt lat="46.409827" lon="8.411360"><ele>1672.3</ele></trkpt>
      <trkpt lat="46.408579" lon="8.412186"><ele>1659.3</ele></trkpt>
      <trkpt lat="46.408522" lon="8.412264"><ele>1658.5</ele></trkpt>
      <trkpt lat="46.408482" lon="8.412466"><ele>1657.1</ele></trkpt>
      <trkpt lat="46.408570" lon="8.412785"><ele>1654.7</ele></trkpt>
      <trkpt lat="46.408754" lon="8.413498"><ele>1649.6</ele></trkpt>
      <trkpt lat="46.408782" lon="8.413770"><ele>1647.7</ele></trkpt>
      <trkpt lat="46.408675" lon="8.413997"><ele>1645.9</ele></trkpt>
      <trkpt lat="46.408521" lon="8.414445"><ele>1642.9</ele></trkpt>
      <trkpt lat="46.408026" lon="8.414856"><ele>1638.3</ele></trkpt>
      <trkpt lat="46.407705" lon="8.415349"><ele>1634.4</ele></trkpt>
      <trkpt lat="46.407613" lon="8.415571"><ele>1633.0</ele></trkpt>
      <trkpt lat="46.407372" lon="8.415991"><ele>1630.2</ele></trkpt>
      <trkpt lat="46.407313" lon="8.416078"><ele>1629.9</ele></trkpt>
      <trkpt lat="46.407118" lon="8.416196"><ele>1629.2</ele></trkpt>
      <trkpt lat="46.407059" lon="8.416278"><ele>1629.0</ele></trkpt>
      <trkpt lat="46.407000" lon="8.416476"><ele>1628.5</ele></trkpt>
      <trkpt lat="46.406901" lon="8.416589"><ele>1628.1</ele></trkpt>
      <trkpt lat="46.406805" lon="8.416837"><ele>1627.4</ele></trkpt>
      <trkpt lat="46.406798" lon="8.417276"><ele>1626.5</ele></trkpt>
      <trkpt lat="46.406777" lon="8.417504"><ele>1626.0</ele></trkpt>
      <trkpt lat="46.406746" lon="8.417609"><ele>1625.7</ele></trkpt>
      <trkpt lat="46.406629" lon="8.417805"><ele>1625.1</ele></trkpt>
      <trkpt lat="46.406503" lon="8.417945"><ele>1624.6</ele></trkpt>
      <trkpt lat="46.405851" lon="8.418446"><ele>1618.2</ele></trkpt>
      <trkpt lat="46.405543" lon="8.418781"><ele>1614.8</ele></trkpt>
      <trkpt lat="46.405208" lon="8.419218"><ele>1610.9</ele></trkpt>
      <trkpt lat="46.404995" lon="8.419582"><ele>1607.7</ele></trkpt>
      <trkpt lat="46.404574" lon="8.420211"><ele>1600.5</ele></trkpt>
      <trkpt lat="46.404525" lon="8.420267"><ele>1599.8</ele></trkpt>
      <trkpt lat="46.404346" lon="8.420414"><ele>1597.3</ele></trkpt>
      <trkpt lat="46.403938" lon="8.420479"><ele>1592.4</ele></trkpt>
      <trkpt lat="46.403826" lon="8.420532"><ele>1591.0</ele></trkpt>
      <trkpt lat="46.403273" lon="8.421164"><ele>1583.4</ele></trkpt>
      <trkpt lat="46.403176" lon="8.421194"><ele>1582.4</ele></trkpt>
      <trkpt lat="46.403146" lon="8.421174"><ele>1582.0</ele></trkpt>
      <trkpt lat="46.403132" lon="8.421078"><ele>1581.4</ele></trkpt>
      <trkpt lat="46.403159" lon="8.420998"><ele>1580.8</ele></trkpt>
      <trkpt lat="46.403395" lon="8.420704"><ele>1577.6</ele></trkpt>
      <trkpt lat="46.403542" lon="8.420398"><ele>1575.1</ele></trkpt>
      <trkpt lat="46.403719" lon="8.420127"><ele>1572.5</ele></trkpt>
      <trkpt lat="46.404191" lon="8.419503"><ele>1566.6</ele></trkpt>
      <trkpt lat="46.404278" lon="8.419297"><ele>1565.2</ele></trkpt>
      <trkpt lat="46.404433" lon="8.418826"><ele>1562.2</ele></trkpt>
      <trkpt lat="46.404702" lon="8.417805"><ele>1555.8</ele></trkpt>
      <trkpt lat="46.404806" lon="8.417568"><ele>1554.1</ele></trkpt>
      <trkpt lat="46.405097" lon="8.417049"><ele>1550.9</ele></trkpt>
      <trkpt lat="46.405240" lon="8.416594"><ele>1548.4</ele></trkpt>
      <trkpt lat="46.405389" lon="8.416279"><ele>1546.6</ele></trkpt>
      <trkpt lat="46.405589" lon="8.416032"><ele>1544.7</ele></trkpt>
      <trkpt lat="46.405843" lon="8.415856"><ele>1542.7</ele></trkpt>
      <trkpt lat="46.405942" lon="8.415788"><ele>1541.9</ele></trkpt>
      <trkpt lat="46.405969" lon="8.415663"><ele>1541.3</ele></trkpt>
      <trkpt lat="46.405962" lon="8.415603"><ele>1540.9</ele></trkpt>
      <trkpt lat="46.405888" lon="8.415539"><ele>1540.2</ele></trkpt>
      <trkpt lat="46.405760" lon="8.415631"><ele>1538.9</ele></trkpt>
      <trkpt lat="46.405664" lon="8.415710"><ele>1538.0</ele></trkpt>
      <trkpt lat="46.405172" lon="8.415945"><ele>1533.5</ele></trkpt>
      <trkpt lat="46.404199" lon="8.416869"><ele>1524.0</ele></trkpt>
      <trkpt lat="46.403917" lon="8.417093"><ele>1521.7</ele></trkpt>
      <trkpt lat="46.403431" lon="8.417394"><ele>1518.1</ele></trkpt>
      <trkpt lat="46.403247" lon="8.417519"><ele>1516.7</ele></trkpt>
      <trkpt lat="46.402865" lon="8.417707"><ele>1513.9</ele></trkpt>
      <trkpt lat="46.402812" lon="8.417732"><ele>1513.5</ele></trkpt>
      <trkpt lat="46.402248" lon="8.417949"><ele>1510.9</ele></trkpt>
      <trkpt lat="46.401911" lon="8.418163"><ele>1509.3</ele></trkpt>
      <trkpt lat="46.401850" lon="8.418225"><ele>1509.0</ele></trkpt>
      <trkpt lat="46.401771" lon="8.418376"><ele>1508.4</ele></trkpt>
      <trkpt lat="46.401716" lon="8.418651"><ele>1507.6</ele></trkpt>
      <trkpt lat="46.401706" lon="8.418936"><ele>1506.7</ele></trkpt>
      <trkpt lat="46.401706" lon="8.419291"><ele>1505.6</ele></trkpt>
      <trkpt lat="46.401689" lon="8.419505"><ele>1504.9</ele></trkpt>
      <trkpt lat="46.401652" lon="8.419627"><ele>1504.4</ele></trkpt>
      <trkpt lat="46.401591" lon="8.419706"><ele>1504.0</ele></trkpt>
      <trkpt lat="46.401443" lon="8.419778"><ele>1503.1</ele></trkpt>
      <trkpt lat="46.400089" lon="8.419918"><ele>1495.9</ele></trkpt>
      <trkpt lat="46.399835" lon="8.419868"><ele>1494.0</ele></trkpt>
      <trkpt lat="46.399760" lon="8.419847"><ele>1493.4</ele></trkpt>
      <trkpt lat="46.399454" lon="8.419726"><ele>1491.0</ele></trkpt>
      <trkpt lat="46.399326" lon="8.419709"><ele>1490.0</ele></trkpt>
      <trkpt lat="46.398729" lon="8.419993"><ele>1485.2</ele></trkpt>
      <trkpt lat="46.398277" lon="8.420090"><ele>1481.6</ele></trkpt>
      <trkpt lat="46.398210" lon="8.420122"><ele>1481.0</ele></trkpt>
      <trkpt lat="46.397839" lon="8.420376"><ele>1477.4</ele></trkpt>
      <trkpt lat="46.397617" lon="8.420419"><ele>1475.4</ele></trkpt>
      <trkpt lat="46.397199" lon="8.420271"><ele>1471.6</ele></trkpt>
      <trkpt lat="46.396898" lon="8.420129"><ele>1468.8</ele></trkpt>
      <trkpt lat="46.396810" lon="8.420104"><ele>1468.0</ele></trkpt>
      <trkpt lat="46.396517" lon="8.420119"><ele>1465.6</ele></trkpt>
      <trkpt lat="46.396467" lon="8.420094"><ele>1465.2</ele></trkpt>
      <trkpt lat="46.396453" lon="8.419990"><ele>1464.7</ele></trkpt>
      <trkpt lat="46.396527" lon="8.419906"><ele>1464.0</ele></trkpt>
      <trkpt lat="46.396912" lon="8.419723"><ele>1461.2</ele></trkpt>
      <trkpt lat="46.397216" lon="8.419700"><ele>1459.0</ele></trkpt>
      <trkpt lat="46.397261" lon="8.419617"><ele>1458.5</ele></trkpt>
      <trkpt lat="46.397251" lon="8.419484"><ele>1457.8</ele></trkpt>
      <trkpt lat="46.397145" lon="8.419423"><ele>1457.0</ele></trkpt>
      <trkpt lat="46.396505" lon="8.419436"><ele>1452.3</ele></trkpt>
      <trkpt lat="46.396168" lon="8.419532"><ele>1449.5</ele></trkpt>
      <trkpt lat="46.395620" lon="8.419577"><ele>1445.1</ele></trkpt>
      <trkpt lat="46.395492" lon="8.419574"><ele>1444.1</ele></trkpt>
      <trkpt lat="46.395123" lon="8.419468"><ele>1441.0</ele></trkpt>
      <trkpt lat="46.394802" lon="8.419380"><ele>1438.4</ele></trkpt>
      <trkpt lat="46.394488" lon="8.419362"><ele>1435.8</ele></trkpt>
      <trkpt lat="46.394259" lon="8.419424"><ele>1434.0</ele></trkpt>
      <trkpt lat="46.393371" lon="8.419760"><ele>1426.6</ele></trkpt>
      <trkpt lat="46.393219" lon="8.419838"><ele>1425.3</ele></trkpt>
      <trkpt lat="46.393127" lon="8.419932"><ele>1424.5</ele></trkpt>
      <trkpt lat="46.392902" lon="8.420326"><ele>1422.8</ele></trkpt>
      <trkpt lat="46.392676" lon="8.420721"><ele>1421.0</ele></trkpt>
      <trkpt lat="46.392391" lon="8.421063"><ele>1419.2</ele></trkpt>
      <trkpt lat="46.392004" lon="8.421526"><ele>1416.8</ele></trkpt>
      <trkpt lat="46.391727" lon="8.421774"><ele>1414.9</ele></trkpt>
      <trkpt lat="46.391283" lon="8.422038"><ele>1411.7</ele></trkpt>
      <trkpt lat="46.390957" lon="8.422154"><ele>1409.4</ele></trkpt>
      <trkpt lat="46.390719" lon="8.422161"><ele>1407.8</ele></trkpt>
      <trkpt lat="46.390533" lon="8.422081"><ele>1406.5</ele></trkpt>
      <trkpt lat="46.390369" lon="8.421914"><ele>1405.1</ele></trkpt>
      <trkpt lat="46.390236" lon="8.421891"><ele>1404.2</ele></trkpt>
      <trkpt lat="46.390178" lon="8.421932"><ele>1403.8</ele></trkpt>
      <trkpt lat="46.389741" lon="8.422587"><ele>1395.9</ele></trkpt>
      <trkpt lat="46.389590" lon="8.422745"><ele>1393.5</ele></trkpt>
      <trkpt lat="46.389342" lon="8.422910"><ele>1390.1</ele></trkpt>
      <trkpt lat="46.389104" lon="8.422938"><ele>1387.1</ele></trkpt>
      <trkpt lat="46.389027" lon="8.422926"><ele>1386.1</ele></trkpt>
      <trkpt lat="46.388835" lon="8.422991"><ele>1383.6</ele></trkpt>
      <trkpt lat="46.388801" lon="8.422956"><ele>1383.1</ele></trkpt>
      <trkpt lat="46.388742" lon="8.422965"><ele>1382.3</ele></trkpt>
      <trkpt lat="46.388581" lon="8.423195"><ele>1379.8</ele></trkpt>
      <trkpt lat="46.388494" lon="8.423257"><ele>1378.9</ele></trkpt>
      <trkpt lat="46.388405" lon="8.423261"><ele>1378.0</ele></trkpt>
      <trkpt lat="46.388249" lon="8.423142"><ele>1376.3</ele></trkpt>
      <trkpt lat="46.388059" lon="8.422812"><ele>1373.5</ele></trkpt>
      <trkpt lat="46.387958" lon="8.422726"><ele>1372.4</ele></trkpt>
      <trkpt lat="46.387886" lon="8.422723"><ele>1371.7</ele></trkpt>
      <trkpt lat="46.387811" lon="8.422793"><ele>1370.8</ele></trkpt>
      <trkpt lat="46.387768" lon="8.422875"><ele>1370.1</ele></trkpt>
      <trkpt lat="46.387658" lon="8.423211"><ele>1367.7</ele></trkpt>
      <trkpt lat="46.387612" lon="8.423723"><ele>1364.2</ele></trkpt>
      <trkpt lat="46.387589" lon="8.423822"><ele>1363.6</ele></trkpt>
      <trkpt lat="46.387540" lon="8.423903"><ele>1362.9</ele></trkpt>
      <trkpt lat="46.387409" lon="8.423989"><ele>1361.5</ele></trkpt>
      <trkpt lat="46.387216" lon="8.424020"><ele>1359.7</ele></trkpt>
      <trkpt lat="46.386849" lon="8.424090"><ele>1356.2</ele></trkpt>
      <trkpt lat="46.386718" lon="8.424145"><ele>1355.0</ele></trkpt>
      <trkpt lat="46.386447" lon="8.424255"><ele>1352.3</ele></trkpt>
      <trkpt lat="46.385708" lon="8.424537"><ele>1345.6</ele></trkpt>
      <trkpt lat="46.384551" lon="8.425247"><ele>1337.1</ele></trkpt>
      <trkpt lat="46.384442" lon="8.425314"><ele>1336.3</ele></trkpt>
      <trkpt lat="46.383970" lon="8.425618"><ele>1333.3</ele></trkpt>
      <trkpt lat="46.383729" lon="8.425683"><ele>1332.1</ele></trkpt>
      <trkpt lat="46.383278" lon="8.425708"><ele>1329.8</ele></trkpt>
      <trkpt lat="46.382881" lon="8.425565"><ele>1327.8</ele></trkpt>
      <trkpt lat="46.382523" lon="8.425516"><ele>1326.0</ele></trkpt>
      <trkpt lat="46.382386" lon="8.425463"><ele>1325.0</ele></trkpt>
      <trkpt lat="46.381968" lon="8.425173"><ele>1321.0</ele></trkpt>
      <trkpt lat="46.381599" lon="8.425049"><ele>1317.7</ele></trkpt>
      <trkpt lat="46.381333" lon="8.424995"><ele>1315.3</ele></trkpt>
      <trkpt lat="46.380761" lon="8.425065"><ele>1310.3</ele></trkpt>
      <trkpt lat="46.380483" lon="8.425073"><ele>1308.2</ele></trkpt>
      <trkpt lat="46.380329" lon="8.425001"><ele>1307.0</ele></trkpt>
      <trkpt lat="46.380228" lon="8.424926"><ele>1306.1</ele></trkpt>
      <trkpt lat="46.379994" lon="8.424791"><ele>1304.3</ele></trkpt>
      <trkpt lat="46.379802" lon="8.424735"><ele>1302.8</ele></trkpt>
      <trkpt lat="46.379552" lon="8.424755"><ele>1300.9</ele></trkpt>
      <trkpt lat="46.378999" lon="8.425068"><ele>1296.6</ele></trkpt>
      <trkpt lat="46.378938" lon="8.425066"><ele>1296.4</ele></trkpt>
      <trkpt lat="46.378284" lon="8.425351"><ele>1295.0</ele></trkpt>
      <trkpt lat="46.378281" lon="8.425318"><ele>1294.9</ele></trkpt>
      <trkpt lat="46.378258" lon="8.425148"><ele>1294.7</ele></trkpt>
      <trkpt lat="46.378225" lon="8.425067"><ele>1294.5</ele></trkpt>
      <trkpt lat="46.378053" lon="8.424719"><ele>1293.9</ele></trkpt>
      <trkpt lat="46.377906" lon="8.424592"><ele>1293.5</ele></trkpt>
      <trkpt lat="46.377640" lon="8.424484"><ele>1292.9</ele></trkpt>
      <trkpt lat="46.377134" lon="8.424503"><ele>1292.2</ele></trkpt>
      <trkpt lat="46.376906" lon="8.424525"><ele>1291.9</ele></trkpt>
      <trkpt lat="46.376675" lon="8.424598"><ele>1291.6</ele></trkpt>
      <trkpt lat="46.376581" lon="8.424589"><ele>1291.4</ele></trkpt>
      <trkpt lat="46.376242" lon="8.424452"><ele>1291.0</ele></trkpt>
      <trkpt lat="46.375964" lon="8.424435"><ele>1290.6</ele></trkpt>
      <trkpt lat="46.375642" lon="8.424442"><ele>1289.7</ele></trkpt>
      <trkpt lat="46.375513" lon="8.424519"><ele>1289.0</ele></trkpt>
      <trkpt lat="46.375365" lon="8.424660"><ele>1288.1</ele></trkpt>
      <trkpt lat="46.375273" lon="8.424796"><ele>1287.4</ele></trkpt>
      <trkpt lat="46.374793" lon="8.425875"><ele>1283.0</ele></trkpt>
      <trkpt lat="46.374312" lon="8.426627"><ele>1279.8</ele></trkpt>
    </trkseg>
  </trk>
</gpx>
