<?xml version="1.0" encoding="UTF-8"?>
<gpx version="1.1" creator="Radtouren-split" xmlns="http://www.topografix.com/GPX/1/1" xmlns:xsi="http://www.w3.org/2001/XMLSchema-instance" xsi:schemaLocation="http://www.topografix.com/GPX/1/1 http://www.topografix.com/GPX/1/1/gpx.xsd">
  <metadata><name>KN-GE Tag 7 Ghislarengo</name></metadata>
  <wpt lat="45.841942" lon="8.416072">
    <ele>435.5</ele>
    <name>Z Camping Punta di Cra</name>
    <cmt>campsite 2.0 km off route</cmt>
    <sym>Campground</sym>
  </wpt>
  <wpt lat="45.826792" lon="8.429374">
    <ele>503.5</ele>
    <name>Z Camping Royal</name>
    <cmt>campsite 1.2 km off route</cmt>
    <sym>Campground</sym>
  </wpt>
  <wpt lat="45.826792" lon="8.429374">
    <ele>503.5</ele>
    <name>Z Allegro</name>
    <cmt>campsite 2.1 km off route</cmt>
    <sym>Campground</sym>
  </wpt>
  <wpt lat="45.811623" lon="8.431356">
    <ele>482.5</ele>
    <name>Z Verde Lago</name>
    <cmt>campsite 1.6 km off route</cmt>
    <sym>Campground</sym>
  </wpt>
  <wpt lat="45.795651" lon="8.429058">
    <ele>505.3</ele>
    <name>Z Camping Cusio</name>
    <cmt>campsite 0.8 km off route</cmt>
    <sym>Campground</sym>
  </wpt>
  <wpt lat="45.795651" lon="8.429058">
    <ele>505.3</ele>
    <name>Z Camping Orta</name>
    <cmt>campsite 0.9 km off route</cmt>
    <sym>Campground</sym>
  </wpt>
  <wpt lat="45.789753" lon="8.429699">
    <ele>486.8</ele>
    <name>H Ostello del Quadrifo</name>
    <cmt>hostel 0.7 km off</cmt>
    <sym>Lodge</sym>
  </wpt>
  <wpt lat="45.773615" lon="8.434458">
    <ele>385.6</ele>
    <name>Z Miami</name>
    <cmt>campsite 0.2 km off route</cmt>
    <sym>Campground</sym>
  </wpt>
  <wpt lat="45.409218" lon="8.324875">
    <ele>150.0</ele>
    <name>Vercelli detour</name>
    <sym>Flag, Red</sym>
  </wpt>
  <trk>
    <name>KN-GE Tag 7 Ghislarengo</name>
    <trkseg>
      <trkpt lat="45.876732" lon="8.410606"><ele>298.8</ele></trkpt>
      <trkpt lat="45.876235" lon="8.411141"><ele>298.8</ele></trkpt>
      <trkpt lat="45.876070" lon="8.411323"><ele>298.9</ele></trkpt>
      <trkpt lat="45.875166" lon="8.411433"><ele>298.9</ele></trkpt>
      <trkpt lat="45.874987" lon="8.411471"><ele>298.3</ele></trkpt>
      <trkpt lat="45.874810" lon="8.411448"><ele>297.7</ele></trkpt>
      <trkpt lat="45.874737" lon="8.411395"><ele>297.5</ele></trkpt>
      <trkpt lat="45.874595" lon="8.411126"><ele>296.7</ele></trkpt>
      <trkpt lat="45.874485" lon="8.410873"><ele>296.1</ele></trkpt>
      <trkpt lat="45.874340" lon="8.410531"><ele>295.2</ele></trkpt>
      <trkpt lat="45.873974" lon="8.410864"><ele>293.9</ele></trkpt>
      <trkpt lat="45.873880" lon="8.410904"><ele>293.6</ele></trkpt>
      <trkpt lat="45.873537" lon="8.410946"><ele>293.4</ele></trkpt>
      <trkpt lat="45.873027" lon="8.411081"><ele>293.5</ele></trkpt>
      <trkpt lat="45.872945" lon="8.411167"><ele>293.6</ele></trkpt>
      <trkpt lat="45.872758" lon="8.411463"><ele>293.6</ele></trkpt>
      <trkpt lat="45.872435" lon="8.412039"><ele>293.7</ele></trkpt>
      <trkpt lat="45.872397" lon="8.412560"><ele>294.1</ele></trkpt>
      <trkpt lat="45.872378" lon="8.412833"><ele>294.4</ele></trkpt>
      <trkpt lat="45.871861" lon="8.412690"><ele>295.1</ele></trkpt>
      <trkpt lat="45.871146" lon="8.412484"><ele>296.2</ele></trkpt>
      <trkpt lat="45.869791" lon="8.412167"><ele>296.1</ele></trkpt>
      <trkpt lat="45.869378" lon="8.412156"><ele>296.0</ele></trkpt>
      <trkpt lat="45.869166" lon="8.412196"><ele>296.0</ele></trkpt>
      <trkpt lat="45.868698" lon="8.412413"><ele>296.0</ele></trkpt>
      <trkpt lat="45.868442" lon="8.412613"><ele>296.1</ele></trkpt>
      <trkpt lat="45.867451" lon="8.413532"><ele>296.6</ele></trkpt>
      <trkpt lat="45.867196" lon="8.413744"><ele>296.9</ele></trkpt>
      <trkpt lat="45.866975" lon="8.413860"><ele>297.2</ele></trkpt>
      <trkpt lat="45.866855" lon="8.413899"><ele>297.4</ele></trkpt>
      <trkpt lat="45.866626" lon="8.413909"><ele>297.7</ele></trkpt>
      <trkpt lat="45.866393" lon="8.413864"><ele>298.0</ele></trkpt>
      <trkpt lat="45.864947" lon="8.413281"><ele>299.3</ele></trkpt>
      <trkpt lat="45.864223" lon="8.412982"><ele>299.9</ele></trkpt>
      <trkpt lat="45.862551" lon="8.412392"><ele>302.0</ele></trkpt>
      <trkpt lat="45.861880" lon="8.412014"><ele>306.1</ele></trkpt>
      <trkpt lat="45.861851" lon="8.412108"><ele>306.5</ele></trkpt>
      <trkpt lat="45.861758" lon="8.412219"><ele>307.2</ele></trkpt>
      <trkpt lat="45.861693" lon="8.412218"><ele>307.6</ele></trkpt>
      <trkpt lat="45.861348" lon="8.411981"><ele>309.9</ele></trkpt>
      <trkpt lat="45.861254" lon="8.412009"><ele>310.4</ele></trkpt>
      <trkpt lat="45.861217" lon="8.412104"><ele>310.9</ele></trkpt>
      <trkpt lat="45.861161" lon="8.412257"><ele>311.6</ele></trkpt>
      <trkpt lat="45.861120" lon="8.412298"><ele>311.9</ele></trkpt>
      <trkpt lat="45.861064" lon="8.412301"><ele>312.2</ele></trkpt>
      <trkpt lat="45.860229" lon="8.411908"><ele>318.8</ele></trkpt>
      <trkpt lat="45.860102" lon="8.411877"><ele>319.8</ele></trkpt>
      <trkpt lat="45.860011" lon="8.411850"><ele>320.6</ele></trkpt>
      <trkpt lat="45.859935" lon="8.411822"><ele>321.2</ele></trkpt>
      <trkpt lat="45.859383" lon="8.411772"><ele>325.4</ele></trkpt>
      <trkpt lat="45.858791" lon="8.411795"><ele>329.7</ele></trkpt>
      <trkpt lat="45.858674" lon="8.411730"><ele>330.5</ele></trkpt>
      <trkpt lat="45.858516" lon="8.411614"><ele>331.8</ele></trkpt>
      <trkpt lat="45.857928" lon="8.411022"><ele>336.8</ele></trkpt>
      <trkpt lat="45.856752" lon="8.410449"><ele>344.5</ele></trkpt>
      <trkpt lat="45.856696" lon="8.410477"><ele>344.8</ele></trkpt>
      <trkpt lat="45.856708" lon="8.410532"><ele>345.1</ele></trkpt>
      <trkpt lat="45.856747" lon="8.410573"><ele>345.4</ele></trkpt>
      <trkpt lat="45.856961" lon="8.410727"><ele>346.8</ele></trkpt>
      <trkpt lat="45.857892" lon="8.411549"><ele>353.4</ele></trkpt>
      <trkpt lat="45.857946" lon="8.411661"><ele>354.0</ele></trkpt>
      <trkpt lat="45.857895" lon="8.411673"><ele>354.3</ele></trkpt>
      <trkpt lat="45.857654" lon="8.411516"><ele>355.9</ele></trkpt>
      <trkpt lat="45.856910" lon="8.411169"><ele>360.7</ele></trkpt>
      <trkpt lat="45.856429" lon="8.410843"><ele>364.7</ele></trkpt>
      <trkpt lat="45.855835" lon="8.410734"><ele>369.3</ele></trkpt>
      <trkpt lat="45.854432" lon="8.410373"><ele>379.6</ele></trkpt>
      <trkpt lat="45.853629" lon="8.409534"><ele>386.4</ele></trkpt>
      <trkpt lat="45.853301" lon="8.409250"><ele>388.5</ele></trkpt>
      <trkpt lat="45.852923" lon="8.409071"><ele>390.6</ele></trkpt>
      <trkpt lat="45.852788" lon="8.409054"><ele>391.3</ele></trkpt>
      <trkpt lat="45.852054" lon="8.409126"><ele>395.1</ele></trkpt>
      <trkpt lat="45.851034" lon="8.409021"><ele>403.4</ele></trkpt>
      <trkpt lat="45.850826" lon="8.409042"><ele>405.3</ele></trkpt>
      <trkpt lat="45.850687" lon="8.409093"><ele>406.5</ele></trkpt>
      <trkpt lat="45.850352" lon="8.409299"><ele>409.7</ele></trkpt>
      <trkpt lat="45.849893" lon="8.409582"><ele>414.0</ele></trkpt>
      <trkpt lat="45.849694" lon="8.409624"><ele>415.6</ele></trkpt>
      <trkpt lat="45.849601" lon="8.409585"><ele>416.3</ele></trkpt>
      <trkpt lat="45.849400" lon="8.409505"><ele>418.0</ele></trkpt>
      <trkpt lat="45.849156" lon="8.409468"><ele>420.0</ele></trkpt>
      <trkpt lat="45.848322" lon="8.409454"><ele>426.6</ele></trkpt>
      <trkpt lat="45.848180" lon="8.409484"><ele>427.6</ele></trkpt>
      <trkpt lat="45.847898" lon="8.409626"><ele>429.7</ele></trkpt>
      <trkpt lat="45.847537" lon="8.409900"><ele>432.6</ele></trkpt>
      <trkpt lat="45.847144" lon="8.410151"><ele>435.7</ele></trkpt>
      <trkpt lat="45.846827" lon="8.410266"><ele>438.0</ele></trkpt>
      <trkpt lat="45.846474" lon="8.410400"><ele>440.3</ele></trkpt>
      <trkpt lat="45.846308" lon="8.410489"><ele>441.3</ele></trkpt>
      <trkpt lat="45.846210" lon="8.410587"><ele>441.9</ele></trkpt>
      <trkpt lat="45.846147" lon="8.410693"><ele>442.5</ele></trkpt>
      <trkpt lat="45.846004" lon="8.411128"><ele>444.3</ele></trkpt>
      <trkpt lat="45.845846" lon="8.411319"><ele>445.5</ele></trkpt>
      <trkpt lat="45.845735" lon="8.411507"><ele>446.4</ele></trkpt>
      <trkpt lat="45.845720" lon="8.411512"><ele>446.5</ele></trkpt>
      <trkpt lat="45.845666" lon="8.411578"><ele>446.9</ele></trkpt>
      <trkpt lat="45.845659" lon="8.411680"><ele>447.3</ele></trkpt>
      <trkpt lat="45.845681" lon="8.411735"><ele>447.6</ele></trkpt>
      <trkpt lat="45.845676" lon="8.412023"><ele>448.7</ele></trkpt>
      <trkpt lat="45.845691" lon="8.412253"><ele>449.1</ele></trkpt>
      <trkpt lat="45.845640" lon="8.412530"><ele>448.8</ele></trkpt>
      <trkpt lat="45.845604" lon="8.412709"><ele>448.7</ele></trkpt>
      <trkpt lat="45.845565" lon="8.412874"><ele>448.6</ele></trkpt>
      <trkpt lat="45.845454" lon="8.413109"><ele>448.3</ele></trkpt>
      <trkpt lat="45.845372" lon="8.413216"><ele>448.2</ele></trkpt>
      <trkpt lat="45.845353" lon="8.413241"><ele>448.2</ele></trkpt>
      <trkpt lat="45.845320" lon="8.413258"><ele>448.1</ele></trkpt>
      <trkpt lat="45.845211" lon="8.413315"><ele>448.0</ele></trkpt>
      <trkpt lat="45.844632" lon="8.413353"><ele>447.3</ele></trkpt>
      <trkpt lat="45.844517" lon="8.413451"><ele>447.1</ele></trkpt>
      <trkpt lat="45.844324" lon="8.413662"><ele>446.4</ele></trkpt>
      <trkpt lat="45.844105" lon="8.413867"><ele>445.5</ele></trkpt>
      <trkpt lat="45.844046" lon="8.413873"><ele>445.3</ele></trkpt>
      <trkpt lat="45.844027" lon="8.414110"><ele>444.7</ele></trkpt>
      <trkpt lat="45.843962" lon="8.414422"><ele>443.8</ele></trkpt>
      <trkpt lat="45.843784" lon="8.415077"><ele>442.0</ele></trkpt>
      <trkpt lat="45.843719" lon="8.415255"><ele>441.5</ele></trkpt>
      <trkpt lat="45.843672" lon="8.415238"><ele>441.3</ele></trkpt>
      <trkpt lat="45.843586" lon="8.415286"><ele>441.0</ele></trkpt>
      <trkpt lat="45.843522" lon="8.415283"><ele>440.7</ele></trkpt>
      <trkpt lat="45.843414" lon="8.415232"><ele>440.4</ele></trkpt>
      <trkpt lat="45.843079" lon="8.414962"><ele>439.3</ele></trkpt>
      <trkpt lat="45.842757" lon="8.415208"><ele>438.3</ele></trkpt>
      <trkpt lat="45.842570" lon="8.415458"><ele>437.6</ele></trkpt>
      <trkpt lat="45.842376" lon="8.415812"><ele>436.8</ele></trkpt>
      <trkpt lat="45.842316" lon="8.415878"><ele>436.6</ele></trkpt>
      <trkpt lat="45.841994" lon="8.415999"><ele>435.6</ele></trkpt>
      <trkpt lat="45.841942" lon="8.416072"><ele>435.5</ele></trkpt>
      <trkpt lat="45.841905" lon="8.416182"><ele>435.2</ele></trkpt>
      <trkpt lat="45.842220" lon="8.416465"><ele>434.2</ele></trkpt>
      <trkpt lat="45.842454" lon="8.416574"><ele>433.5</ele></trkpt>
      <trkpt lat="45.842396" lon="8.416673"><ele>433.3</ele></trkpt>
      <trkpt lat="45.840396" lon="8.418301"><ele>426.9</ele></trkpt>
      <trkpt lat="45.839892" lon="8.418635"><ele>425.6</ele></trkpt>
      <trkpt lat="45.839561" lon="8.418961"><ele>425.8</ele></trkpt>
      <trkpt lat="45.839333" lon="8.419046"><ele>426.0</ele></trkpt>
      <trkpt lat="45.839194" lon="8.419081"><ele>426.0</ele></trkpt>
      <trkpt lat="45.838967" lon="8.419194"><ele>426.2</ele></trkpt>
      <trkpt lat="45.838827" lon="8.419325"><ele>426.3</ele></trkpt>
      <trkpt lat="45.838724" lon="8.419559"><ele>426.4</ele></trkpt>
      <trkpt lat="45.838721" lon="8.419722"><ele>426.4</ele></trkpt>
      <trkpt lat="45.838913" lon="8.420060"><ele>426.7</ele></trkpt>
      <trkpt lat="45.839516" lon="8.420905"><ele>428.1</ele></trkpt>
      <trkpt lat="45.840054" lon="8.421574"><ele>429.3</ele></trkpt>
      <trkpt lat="45.839999" lon="8.421861"><ele>429.8</ele></trkpt>
      <trkpt lat="45.840016" lon="8.422377"><ele>431.0</ele></trkpt>
      <trkpt lat="45.839996" lon="8.422532"><ele>431.4</ele></trkpt>
      <trkpt lat="45.839949" lon="8.422603"><ele>431.7</ele></trkpt>
      <trkpt lat="45.839896" lon="8.422633"><ele>431.9</ele></trkpt>
      <trkpt lat="45.839766" lon="8.422632"><ele>432.3</ele></trkpt>
      <trkpt lat="45.839743" lon="8.422636"><ele>432.4</ele></trkpt>
      <trkpt lat="45.839475" lon="8.422710"><ele>433.4</ele></trkpt>
      <trkpt lat="45.839199" lon="8.422696"><ele>434.3</ele></trkpt>
      <trkpt lat="45.838982" lon="8.422739"><ele>435.1</ele></trkpt>
      <trkpt lat="45.838787" lon="8.422851"><ele>435.9</ele></trkpt>
      <trkpt lat="45.838502" lon="8.423116"><ele>438.8</ele></trkpt>
      <trkpt lat="45.838276" lon="8.423417"><ele>441.7</ele></trkpt>
      <trkpt lat="45.838169" lon="8.423650"><ele>443.5</ele></trkpt>
      <trkpt lat="45.838148" lon="8.423708"><ele>443.9</ele></trkpt>
      <trkpt lat="45.838057" lon="8.423964"><ele>445.7</ele></trkpt>
      <trkpt lat="45.837951" lon="8.424189"><ele>447.5</ele></trkpt>
      <trkpt lat="45.837888" lon="8.424285"><ele>448.3</ele></trkpt>
      <trkpt lat="45.837779" lon="8.424424"><ele>449.7</ele></trkpt>
      <trkpt lat="45.837108" lon="8.425064"><ele>458.0</ele></trkpt>
      <trkpt lat="45.836803" lon="8.425405"><ele>462.3</ele></trkpt>
      <trkpt lat="45.836549" lon="8.425726"><ele>466.0</ele></trkpt>
      <trkpt lat="45.836134" lon="8.426482"><ele>473.1</ele></trkpt>
      <trkpt lat="45.836035" lon="8.426654"><ele>474.2</ele></trkpt>
      <trkpt lat="45.835713" lon="8.427001"><ele>477.0</ele></trkpt>
      <trkpt lat="45.835630" lon="8.427307"><ele>478.6</ele></trkpt>
      <trkpt lat="45.835549" lon="8.427545"><ele>479.9</ele></trkpt>
      <trkpt lat="45.835355" lon="8.427797"><ele>481.7</ele></trkpt>
      <trkpt lat="45.835236" lon="8.427862"><ele>482.6</ele></trkpt>
      <trkpt lat="45.835130" lon="8.427865"><ele>483.3</ele></trkpt>
      <trkpt lat="45.835064" lon="8.427808"><ele>483.9</ele></trkpt>
      <trkpt lat="45.835033" lon="8.427489"><ele>484.9</ele></trkpt>
      <trkpt lat="45.834789" lon="8.427434"><ele>484.4</ele></trkpt>
      <trkpt lat="45.834070" lon="8.427104"><ele>482.7</ele></trkpt>
      <trkpt lat="45.834010" lon="8.427083"><ele>482.6</ele></trkpt>
      <trkpt lat="45.833819" lon="8.427018"><ele>482.2</ele></trkpt>
      <trkpt lat="45.833210" lon="8.426952"><ele>481.4</ele></trkpt>
      <trkpt lat="45.832125" lon="8.427285"><ele>484.1</ele></trkpt>
      <trkpt lat="45.830987" lon="8.427504"><ele>488.8</ele></trkpt>
      <trkpt lat="45.830779" lon="8.427556"><ele>490.1</ele></trkpt>
      <trkpt lat="45.830704" lon="8.427609"><ele>490.5</ele></trkpt>
      <trkpt lat="45.830095" lon="8.427987"><ele>494.4</ele></trkpt>
      <trkpt lat="45.829851" lon="8.428173"><ele>495.9</ele></trkpt>
      <trkpt lat="45.829794" lon="8.428195"><ele>496.1</ele></trkpt>
      <trkpt lat="45.829698" lon="8.428220"><ele>496.4</ele></trkpt>
      <trkpt lat="45.829542" lon="8.428273"><ele>496.9</ele></trkpt>
      <trkpt lat="45.827872" lon="8.428666"><ele>501.5</ele></trkpt>
      <trkpt lat="45.827393" lon="8.428845"><ele>502.3</ele></trkpt>
      <trkpt lat="45.827279" lon="8.428926"><ele>502.5</ele></trkpt>
      <trkpt lat="45.826792" lon="8.429374"><ele>503.5</ele></trkpt>
      <trkpt lat="45.825392" lon="8.430662"><ele>506.6</ele></trkpt>
      <trkpt lat="45.825101" lon="8.430944"><ele>507.3</ele></trkpt>
      <trkpt lat="45.824994" lon="8.431092"><ele>507.6</ele></trkpt>
      <trkpt lat="45.824168" lon="8.432598"><ele>510.1</ele></trkpt>
      <trkpt lat="45.823995" lon="8.433048"><ele>510.8</ele></trkpt>
      <trkpt lat="45.823806" lon="8.433634"><ele>509.6</ele></trkpt>
      <trkpt lat="45.823763" lon="8.433765"><ele>509.2</ele></trkpt>
      <trkpt lat="45.823182" lon="8.433821"><ele>507.0</ele></trkpt>
      <trkpt lat="45.823068" lon="8.433808"><ele>506.5</ele></trkpt>
      <trkpt lat="45.822537" lon="8.433749"><ele>504.5</ele></trkpt>
      <trkpt lat="45.822397" lon="8.433814"><ele>503.9</ele></trkpt>
      <trkpt lat="45.822184" lon="8.434028"><ele>502.7</ele></trkpt>
      <trkpt lat="45.822102" lon="8.434192"><ele>502.0</ele></trkpt>
      <trkpt lat="45.821917" lon="8.434051"><ele>501.0</ele></trkpt>
      <trkpt lat="45.821551" lon="8.433917"><ele>499.2</ele></trkpt>
      <trkpt lat="45.821076" lon="8.434083"><ele>496.9</ele></trkpt>
      <trkpt lat="45.820841" lon="8.434040"><ele>495.8</ele></trkpt>
      <trkpt lat="45.820762" lon="8.434072"><ele>495.5</ele></trkpt>
      <trkpt lat="45.820665" lon="8.434163"><ele>495.5</ele></trkpt>
      <trkpt lat="45.820603" lon="8.434128"><ele>495.5</ele></trkpt>
      <trkpt lat="45.820473" lon="8.433874"><ele>495.4</ele></trkpt>
      <trkpt lat="45.820184" lon="8.434013"><ele>495.3</ele></trkpt>
      <trkpt lat="45.820091" lon="8.434021"><ele>495.3</ele></trkpt>
      <trkpt lat="45.819713" lon="8.433903"><ele>495.2</ele></trkpt>
      <trkpt lat="45.819272" lon="8.433699"><ele>495.1</ele></trkpt>
      <trkpt lat="45.819060" lon="8.433646"><ele>494.9</ele></trkpt>
      <trkpt lat="45.818838" lon="8.433667"><ele>494.5</ele></trkpt>
      <trkpt lat="45.818653" lon="8.433785"><ele>494.2</ele></trkpt>
      <trkpt lat="45.818518" lon="8.433833"><ele>493.9</ele></trkpt>
      <trkpt lat="45.818366" lon="8.433828"><ele>493.7</ele></trkpt>
      <trkpt lat="45.817573" lon="8.433517"><ele>492.2</ele></trkpt>
      <trkpt lat="45.816876" lon="8.433353"><ele>491.1</ele></trkpt>
      <trkpt lat="45.816638" lon="8.433348"><ele>490.7</ele></trkpt>
      <trkpt lat="45.816338" lon="8.433437"><ele>490.2</ele></trkpt>
      <trkpt lat="45.815836" lon="8.433487"><ele>489.4</ele></trkpt>
      <trkpt lat="45.815699" lon="8.433584"><ele>489.2</ele></trkpt>
      <trkpt lat="45.815629" lon="8.433498"><ele>489.1</ele></trkpt>
      <trkpt lat="45.815069" lon="8.433274"><ele>488.4</ele></trkpt>
      <trkpt lat="45.815085" lon="8.433320"><ele>488.4</ele></trkpt>
      <trkpt lat="45.815173" lon="8.433572"><ele>488.2</ele></trkpt>
      <trkpt lat="45.814654" lon="8.433520"><ele>487.6</ele></trkpt>
      <trkpt lat="45.814414" lon="8.433436"><ele>487.4</ele></trkpt>
      <trkpt lat="45.814207" lon="8.433324"><ele>487.1</ele></trkpt>
      <trkpt lat="45.814058" lon="8.433217"><ele>486.9</ele></trkpt>
      <trkpt lat="45.813883" lon="8.433039"><ele>486.6</ele></trkpt>
      <trkpt lat="45.813682" lon="8.432753"><ele>486.3</ele></trkpt>
      <trkpt lat="45.813621" lon="8.432709"><ele>486.2</ele></trkpt>
      <trkpt lat="45.813113" lon="8.431628"><ele>485.0</ele></trkpt>
      <trkpt lat="45.812803" lon="8.431270"><ele>484.4</ele></trkpt>
      <trkpt lat="45.812709" lon="8.431205"><ele>484.3</ele></trkpt>
      <trkpt lat="45.812469" lon="8.431132"><ele>483.9</ele></trkpt>
      <trkpt lat="45.811623" lon="8.431356"><ele>482.5</ele></trkpt>
      <trkpt lat="45.810730" lon="8.431458"><ele>479.0</ele></trkpt>
      <trkpt lat="45.810052" lon="8.431897"><ele>475.3</ele></trkpt>
      <trkpt lat="45.809846" lon="8.432013"><ele>474.1</ele></trkpt>
      <trkpt lat="45.809661" lon="8.432063"><ele>473.2</ele></trkpt>
      <trkpt lat="45.809170" lon="8.432101"><ele>471.1</ele></trkpt>
      <trkpt lat="45.808984" lon="8.432066"><ele>470.4</ele></trkpt>
      <trkpt lat="45.808687" lon="8.431906"><ele>469.1</ele></trkpt>
      <trkpt lat="45.808560" lon="8.431881"><ele>468.6</ele></trkpt>
      <trkpt lat="45.808232" lon="8.431678"><ele>467.1</ele></trkpt>
      <trkpt lat="45.807911" lon="8.431410"><ele>465.6</ele></trkpt>
      <trkpt lat="45.807873" lon="8.431494"><ele>465.7</ele></trkpt>
      <trkpt lat="45.807802" lon="8.431566"><ele>465.9</ele></trkpt>
      <trkpt lat="45.807681" lon="8.431576"><ele>466.2</ele></trkpt>
      <trkpt lat="45.806952" lon="8.431387"><ele>468.0</ele></trkpt>
      <trkpt lat="45.806573" lon="8.431223"><ele>469.0</ele></trkpt>
      <trkpt lat="45.806420" lon="8.431252"><ele>469.4</ele></trkpt>
      <trkpt lat="45.805808" lon="8.431604"><ele>471.8</ele></trkpt>
      <trkpt lat="45.804535" lon="8.431897"><ele>477.4</ele></trkpt>
      <trkpt lat="45.804158" lon="8.432016"><ele>477.5</ele></trkpt>
      <trkpt lat="45.803972" lon="8.432145"><ele>477.4</ele></trkpt>
      <trkpt lat="45.803483" lon="8.432603"><ele>476.9</ele></trkpt>
      <trkpt lat="45.803404" lon="8.432729"><ele>476.8</ele></trkpt>
      <trkpt lat="45.803516" lon="8.433681"><ele>476.1</ele></trkpt>
      <trkpt lat="45.803497" lon="8.433776"><ele>475.9</ele></trkpt>
      <trkpt lat="45.803498" lon="8.434221"><ele>475.1</ele></trkpt>
      <trkpt lat="45.803469" lon="8.434351"><ele>474.8</ele></trkpt>
      <trkpt lat="45.803370" lon="8.434640"><ele>474.2</ele></trkpt>
      <trkpt lat="45.803042" lon="8.435406"><ele>472.5</ele></trkpt>
      <trkpt lat="45.802867" lon="8.436016"><ele>471.5</ele></trkpt>
      <trkpt lat="45.802692" lon="8.435938"><ele>471.6</ele></trkpt>
      <trkpt lat="45.802580" lon="8.436253"><ele>471.9</ele></trkpt>
      <trkpt lat="45.802008" lon="8.435976"><ele>472.5</ele></trkpt>
      <trkpt lat="45.801774" lon="8.435736"><ele>472.8</ele></trkpt>
      <trkpt lat="45.801380" lon="8.435525"><ele>473.2</ele></trkpt>
      <trkpt lat="45.801044" lon="8.435339"><ele>474.1</ele></trkpt>
      <trkpt lat="45.800613" lon="8.435263"><ele>475.1</ele></trkpt>
      <trkpt lat="45.800120" lon="8.434681"><ele>476.7</ele></trkpt>
      <trkpt lat="45.799937" lon="8.434407"><ele>477.4</ele></trkpt>
      <trkpt lat="45.799851" lon="8.434171"><ele>478.3</ele></trkpt>
      <trkpt lat="45.799770" lon="8.433820"><ele>480.2</ele></trkpt>
      <trkpt lat="45.799766" lon="8.433538"><ele>481.7</ele></trkpt>
      <trkpt lat="45.799807" lon="8.433272"><ele>483.1</ele></trkpt>
      <trkpt lat="45.799354" lon="8.432808"><ele>487.4</ele></trkpt>
      <trkpt lat="45.799033" lon="8.432461"><ele>490.4</ele></trkpt>
      <trkpt lat="45.798557" lon="8.432052"><ele>494.7</ele></trkpt>
      <trkpt lat="45.798303" lon="8.431915"><ele>496.8</ele></trkpt>
      <trkpt lat="45.797551" lon="8.431878"><ele>502.8</ele></trkpt>
      <trkpt lat="45.797369" lon="8.431795"><ele>504.3</ele></trkpt>
      <trkpt lat="45.797160" lon="8.431233"><ele>506.0</ele></trkpt>
      <trkpt lat="45.796835" lon="8.431114"><ele>506.8</ele></trkpt>
      <trkpt lat="45.796529" lon="8.431168"><ele>507.5</ele></trkpt>
      <trkpt lat="45.796349" lon="8.430855"><ele>508.2</ele></trkpt>
      <trkpt lat="45.796056" lon="8.430569"><ele>509.0</ele></trkpt>
      <trkpt lat="45.796061" lon="8.430327"><ele>509.4</ele></trkpt>
      <trkpt lat="45.796189" lon="8.429605"><ele>507.8</ele></trkpt>
      <trkpt lat="45.796152" lon="8.429401"><ele>507.3</ele></trkpt>
      <trkpt lat="45.796054" lon="8.429240"><ele>506.8</ele></trkpt>
      <trkpt lat="45.795651" lon="8.429058"><ele>505.3</ele></trkpt>
      <trkpt lat="45.794917" lon="8.428864"><ele>502.9</ele></trkpt>
      <trkpt lat="45.794528" lon="8.428843"><ele>502.4</ele></trkpt>
      <trkpt lat="45.794153" lon="8.428888"><ele>501.8</ele></trkpt>
      <trkpt lat="45.793892" lon="8.428953"><ele>501.4</ele></trkpt>
      <trkpt lat="45.793698" lon="8.429036"><ele>501.1</ele></trkpt>
      <trkpt lat="45.792531" lon="8.429374"><ele>497.7</ele></trkpt>
      <trkpt lat="45.792435" lon="8.429369"><ele>497.3</ele></trkpt>
      <trkpt lat="45.792140" lon="8.429464"><ele>496.2</ele></trkpt>
      <trkpt lat="45.791665" lon="8.429668"><ele>494.4</ele></trkpt>
      <trkpt lat="45.791488" lon="8.429688"><ele>493.8</ele></trkpt>
      <trkpt lat="45.790930" lon="8.429583"><ele>491.5</ele></trkpt>
      <trkpt lat="45.790730" lon="8.429582"><ele>490.7</ele></trkpt>
      <trkpt lat="45.790115" lon="8.429738"><ele>488.3</ele></trkpt>
      <trkpt lat="45.789926" lon="8.429751"><ele>487.5</ele></trkpt>
      <trkpt lat="45.789833" lon="8.429731"><ele>487.2</ele></trkpt>
      <trkpt lat="45.789753" lon="8.429699"><ele>486.8</ele></trkpt>
      <trkpt lat="45.789383" lon="8.429669"><ele>486.4</ele></trkpt>
      <trkpt lat="45.789066" lon="8.429618"><ele>486.0</ele></trkpt>
      <trkpt lat="45.788640" lon="8.429291"><ele>485.4</ele></trkpt>
      <trkpt lat="45.788462" lon="8.429260"><ele>485.2</ele></trkpt>
      <trkpt lat="45.788055" lon="8.429322"><ele>484.7</ele></trkpt>
      <trkpt lat="45.787894" lon="8.429319"><ele>484.2</ele></trkpt>
      <trkpt lat="45.787655" lon="8.429236"><ele>483.2</ele></trkpt>
      <trkpt lat="45.787529" lon="8.429153"><ele>482.7</ele></trkpt>
      <trkpt lat="45.787331" lon="8.429159"><ele>482.0</ele></trkpt>
      <trkpt lat="45.787179" lon="8.429263"><ele>481.3</ele></trkpt>
      <trkpt lat="45.787022" lon="8.429374"><ele>480.6</ele></trkpt>
      <trkpt lat="45.786758" lon="8.429373"><ele>479.6</ele></trkpt>
      <trkpt lat="45.786649" lon="8.429356"><ele>479.2</ele></trkpt>
      <trkpt lat="45.786614" lon="8.429351"><ele>479.1</ele></trkpt>
      <trkpt lat="45.786428" lon="8.429224"><ele>478.3</ele></trkpt>
      <trkpt lat="45.786105" lon="8.428979"><ele>475.7</ele></trkpt>
      <trkpt lat="45.785831" lon="8.428768"><ele>472.8</ele></trkpt>
      <trkpt lat="45.785701" lon="8.428728"><ele>471.6</ele></trkpt>
      <trkpt lat="45.785511" lon="8.428753"><ele>469.8</ele></trkpt>
      <trkpt lat="45.784782" lon="8.429008"><ele>463.0</ele></trkpt>
      <trkpt lat="45.784191" lon="8.429253"><ele>457.4</ele></trkpt>
      <trkpt lat="45.783777" lon="8.429490"><ele>453.4</ele></trkpt>
      <trkpt lat="45.782905" lon="8.430258"><ele>443.9</ele></trkpt>
      <trkpt lat="45.782778" lon="8.430364"><ele>442.2</ele></trkpt>
      <trkpt lat="45.782751" lon="8.430438"><ele>441.6</ele></trkpt>
      <trkpt lat="45.782630" lon="8.430463"><ele>440.2</ele></trkpt>
      <trkpt lat="45.781726" lon="8.430648"><ele>430.0</ele></trkpt>
      <trkpt lat="45.781544" lon="8.430695"><ele>428.0</ele></trkpt>
      <trkpt lat="45.780793" lon="8.430927"><ele>421.5</ele></trkpt>
      <trkpt lat="45.780388" lon="8.431055"><ele>418.7</ele></trkpt>
      <trkpt lat="45.779846" lon="8.431167"><ele>414.9</ele></trkpt>
      <trkpt lat="45.779321" lon="8.431221"><ele>411.9</ele></trkpt>
      <trkpt lat="45.778440" lon="8.431358"><ele>408.8</ele></trkpt>
      <trkpt lat="45.777782" lon="8.431540"><ele>406.5</ele></trkpt>
      <trkpt lat="45.775834" lon="8.432508"><ele>397.8</ele></trkpt>
      <trkpt lat="45.775206" lon="8.433067"><ele>394.5</ele></trkpt>
      <trkpt lat="45.774857" lon="8.433349"><ele>392.7</ele></trkpt>
      <trkpt lat="45.774583" lon="8.433682"><ele>391.1</ele></trkpt>
      <trkpt lat="45.773615" lon="8.434458"><ele>385.6</ele></trkpt>
      <trkpt lat="45.773262" lon="8.434958"><ele>383.1</ele></trkpt>
      <trkpt lat="45.773131" lon="8.435144"><ele>382.2</ele></trkpt>
      <trkpt lat="45.772674" lon="8.435432"><ele>380.4</ele></trkpt>
      <trkpt lat="45.772302" lon="8.435759"><ele>379.0</ele></trkpt>
      <trkpt lat="45.772096" lon="8.435939"><ele>378.3</ele></trkpt>
      <trkpt lat="45.771540" lon="8.435959"><ele>376.5</ele></trkpt>
      <trkpt lat="45.771371" lon="8.436048"><ele>376.0</ele></trkpt>
      <trkpt lat="45.770659" lon="8.436800"><ele>375.8</ele></trkpt>
      <trkpt lat="45.770549" lon="8.436864"><ele>375.8</ele></trkpt>
      <trkpt lat="45.770468" lon="8.436852"><ele>375.8</ele></trkpt>
      <trkpt lat="45.770439" lon="8.436809"><ele>375.8</ele></trkpt>
      <trkpt lat="45.770366" lon="8.436694"><ele>375.8</ele></trkpt>
      <trkpt lat="45.770345" lon="8.436647"><ele>375.8</ele></trkpt>
      <trkpt lat="45.770318" lon="8.436595"><ele>375.8</ele></trkpt>
      <trkpt lat="45.770255" lon="8.436472"><ele>375.8</ele></trkpt>
      <trkpt lat="45.769967" lon="8.435506"><ele>375.4</ele></trkpt>
      <trkpt lat="45.769378" lon="8.433675"><ele>374.2</ele></trkpt>
      <trkpt lat="45.769337" lon="8.433616"><ele>374.4</ele></trkpt>
      <trkpt lat="45.769210" lon="8.433542"><ele>374.9</ele></trkpt>
      <trkpt lat="45.768960" lon="8.433513"><ele>375.7</ele></trkpt>
      <trkpt lat="45.768834" lon="8.433549"><ele>376.2</ele></trkpt>
      <trkpt lat="45.768563" lon="8.433971"><ele>377.6</ele></trkpt>
      <trkpt lat="45.768489" lon="8.434507"><ele>378.9</ele></trkpt>
      <trkpt lat="45.768339" lon="8.434786"><ele>379.7</ele></trkpt>
      <trkpt lat="45.768189" lon="8.434979"><ele>380.4</ele></trkpt>
      <trkpt lat="45.767765" lon="8.435419"><ele>380.9</ele></trkpt>
      <trkpt lat="45.767486" lon="8.436031"><ele>381.3</ele></trkpt>
      <trkpt lat="45.767381" lon="8.436438"><ele>381.5</ele></trkpt>
      <trkpt lat="45.767231" lon="8.436803"><ele>381.7</ele></trkpt>
      <trkpt lat="45.767187" lon="8.437468"><ele>381.0</ele></trkpt>
      <trkpt lat="45.767261" lon="8.437898"><ele>380.1</ele></trkpt>
      <trkpt lat="45.767082" lon="8.438434"><ele>378.8</ele></trkpt>
      <trkpt lat="45.766498" lon="8.438949"><ele>376.8</ele></trkpt>
      <trkpt lat="45.766199" lon="8.439357"><ele>375.7</ele></trkpt>
      <trkpt lat="45.766034" lon="8.439700"><ele>374.9</ele></trkpt>
      <trkpt lat="45.765779" lon="8.439915"><ele>374.1</ele></trkpt>
      <trkpt lat="45.765630" lon="8.440172"><ele>373.5</ele></trkpt>
      <trkpt lat="45.765111" lon="8.440529"><ele>372.1</ele></trkpt>
      <trkpt lat="45.764956" lon="8.440623"><ele>371.6</ele></trkpt>
      <trkpt lat="45.764600" lon="8.440767"><ele>370.7</ele></trkpt>
      <trkpt lat="45.764334" lon="8.440808"><ele>370.0</ele></trkpt>
      <trkpt lat="45.763800" lon="8.440651"><ele>368.7</ele></trkpt>
      <trkpt lat="45.763147" lon="8.440380"><ele>367.1</ele></trkpt>
      <trkpt lat="45.762277" lon="8.440022"><ele>365.1</ele></trkpt>
      <trkpt lat="45.762087" lon="8.439970"><ele>364.7</ele></trkpt>
      <trkpt lat="45.761652" lon="8.439851"><ele>363.7</ele></trkpt>
      <trkpt lat="45.761430" lon="8.439740"><ele>363.2</ele></trkpt>
      <trkpt lat="45.761009" lon="8.439706"><ele>362.4</ele></trkpt>
      <trkpt lat="45.760822" lon="8.439662"><ele>362.1</ele></trkpt>
      <trkpt lat="45.760618" lon="8.439522"><ele>361.6</ele></trkpt>
      <trkpt lat="45.760379" lon="8.439414"><ele>361.2</ele></trkpt>
      <trkpt lat="45.759856" lon="8.439446"><ele>360.2</ele></trkpt>
      <trkpt lat="45.759521" lon="8.439560"><ele>359.7</ele></trkpt>
      <trkpt lat="45.759304" lon="8.439512"><ele>359.4</ele></trkpt>
      <trkpt lat="45.759185" lon="8.439551"><ele>359.2</ele></trkpt>
      <trkpt lat="45.759346" lon="8.439944"><ele>358.8</ele></trkpt>
      <trkpt lat="45.759093" lon="8.439923"><ele>358.5</ele></trkpt>
      <trkpt lat="45.758420" lon="8.440016"><ele>357.6</ele></trkpt>
      <trkpt lat="45.758251" lon="8.440074"><ele>357.4</ele></trkpt>
      <trkpt lat="45.757705" lon="8.440424"><ele>356.6</ele></trkpt>
      <trkpt lat="45.757589" lon="8.440456"><ele>356.5</ele></trkpt>
      <trkpt lat="45.757015" lon="8.440454"><ele>355.7</ele></trkpt>
      <trkpt lat="45.756192" lon="8.440436"><ele>354.6</ele></trkpt>
      <trkpt lat="45.755489" lon="8.440297"><ele>353.7</ele></trkpt>
      <trkpt lat="45.755260" lon="8.440215"><ele>353.3</ele></trkpt>
      <trkpt lat="45.755130" lon="8.440093"><ele>353.1</ele></trkpt>
      <trkpt lat="45.754897" lon="8.440088"><ele>352.9</ele></trkpt>
      <trkpt lat="45.754719" lon="8.440003"><ele>352.9</ele></trkpt>
      <trkpt lat="45.754512" lon="8.439809"><ele>352.9</ele></trkpt>
      <trkpt lat="45.753938" lon="8.439173"><ele>353.0</ele></trkpt>
      <trkpt lat="45.753669" lon="8.439023"><ele>353.0</ele></trkpt>
      <trkpt lat="45.753126" lon="8.438218"><ele>353.4</ele></trkpt>
      <trkpt lat="45.752818" lon="8.437629"><ele>353.9</ele></trkpt>
      <trkpt lat="45.751626" lon="8.435529"><ele>354.1</ele></trkpt>
      <trkpt lat="45.751570" lon="8.435603"><ele>354.0</ele></trkpt>
      <trkpt lat="45.750788" lon="8.434213"><ele>353.7</ele></trkpt>
      <trkpt lat="45.750322" lon="8.433460"><ele>353.6</ele></trkpt>
      <trkpt lat="45.750391" lon="8.433419"><ele>353.6</ele></trkpt>
      <trkpt lat="45.750528" lon="8.433348"><ele>353.6</ele></trkpt>
      <trkpt lat="45.750450" lon="8.433123"><ele>353.5</ele></trkpt>
      <trkpt lat="45.750336" lon="8.432940"><ele>353.6</ele></trkpt>
      <trkpt lat="45.750205" lon="8.433288"><ele>353.9</ele></trkpt>
      <trkpt lat="45.749710" lon="8.432741"><ele>354.6</ele></trkpt>
      <trkpt lat="45.749115" lon="8.432218"><ele>355.3</ele></trkpt>
      <trkpt lat="45.748769" lon="8.431993"><ele>355.0</ele></trkpt>
      <trkpt lat="45.748450" lon="8.431865"><ele>354.7</ele></trkpt>
      <trkpt lat="45.747896" lon="8.431717"><ele>354.1</ele></trkpt>
      <trkpt lat="45.747286" lon="8.431679"><ele>353.4</ele></trkpt>
      <trkpt lat="45.747031" lon="8.431704"><ele>353.0</ele></trkpt>
      <trkpt lat="45.746525" lon="8.431824"><ele>352.1</ele></trkpt>
      <trkpt lat="45.745978" lon="8.432062"><ele>351.1</ele></trkpt>
      <trkpt lat="45.745478" lon="8.432389"><ele>350.2</ele></trkpt>
      <trkpt lat="45.744948" lon="8.432871"><ele>349.5</ele></trkpt>
      <trkpt lat="45.744803" lon="8.433033"><ele>349.2</ele></trkpt>
      <trkpt lat="45.744454" lon="8.433502"><ele>348.7</ele></trkpt>
      <trkpt lat="45.743266" lon="8.435365"><ele>347.8</ele></trkpt>
      <trkpt lat="45.742860" lon="8.434955"><ele>347.8</ele></trkpt>
      <trkpt lat="45.742611" lon="8.434634"><ele>348.4</ele></trkpt>
      <trkpt lat="45.742554" lon="8.434527"><ele>348.5</ele></trkpt>
      <trkpt lat="45.742290" lon="8.433811"><ele>349.5</ele></trkpt>
      <trkpt lat="45.742196" lon="8.433630"><ele>349.8</ele></trkpt>
      <trkpt lat="45.741755" lon="8.432900"><ele>350.9</ele></trkpt>
      <trkpt lat="45.741365" lon="8.432308"><ele>351.3</ele></trkpt>
      <trkpt lat="45.741209" lon="8.432263"><ele>351.5</ele></trkpt>
      <trkpt lat="45.740555" lon="8.432250"><ele>352.1</ele></trkpt>
      <trkpt lat="45.740041" lon="8.432379"><ele>352.2</ele></trkpt>
      <trkpt lat="45.739840" lon="8.432379"><ele>352.0</ele></trkpt>
      <trkpt lat="45.739706" lon="8.432352"><ele>351.9</ele></trkpt>
      <trkpt lat="45.739453" lon="8.432368"><ele>351.7</ele></trkpt>
      <trkpt lat="45.738901" lon="8.432441"><ele>351.2</ele></trkpt>
      <trkpt lat="45.738720" lon="8.432019"><ele>350.9</ele></trkpt>
      <trkpt lat="45.738588" lon="8.431791"><ele>350.7</ele></trkpt>
      <trkpt lat="45.738413" lon="8.431656"><ele>350.6</ele></trkpt>
      <trkpt lat="45.738398" lon="8.431531"><ele>350.5</ele></trkpt>
      <trkpt lat="45.738327" lon="8.431424"><ele>350.4</ele></trkpt>
      <trkpt lat="45.738227" lon="8.431397"><ele>350.4</ele></trkpt>
      <trkpt lat="45.738136" lon="8.431458"><ele>350.3</ele></trkpt>
      <trkpt lat="45.738104" lon="8.431516"><ele>350.3</ele></trkpt>
      <trkpt lat="45.737991" lon="8.431350"><ele>350.2</ele></trkpt>
      <trkpt lat="45.737870" lon="8.431278"><ele>350.1</ele></trkpt>
      <trkpt lat="45.736954" lon="8.430744"><ele>349.5</ele></trkpt>
      <trkpt lat="45.736065" lon="8.430141"><ele>349.4</ele></trkpt>
      <trkpt lat="45.735345" lon="8.429809"><ele>350.0</ele></trkpt>
      <trkpt lat="45.734957" lon="8.429593"><ele>351.6</ele></trkpt>
      <trkpt lat="45.734904" lon="8.429536"><ele>351.8</ele></trkpt>
      <trkpt lat="45.734368" lon="8.428887"><ele>354.6</ele></trkpt>
      <trkpt lat="45.733898" lon="8.428026"><ele>358.6</ele></trkpt>
      <trkpt lat="45.733710" lon="8.428013"><ele>360.0</ele></trkpt>
      <trkpt lat="45.733319" lon="8.428326"><ele>363.4</ele></trkpt>
      <trkpt lat="45.733038" lon="8.428583"><ele>366.0</ele></trkpt>
      <trkpt lat="45.732943" lon="8.428705"><ele>366.9</ele></trkpt>
      <trkpt lat="45.732836" lon="8.428759"><ele>367.8</ele></trkpt>
      <trkpt lat="45.732574" lon="8.428727"><ele>369.8</ele></trkpt>
      <trkpt lat="45.732113" lon="8.428773"><ele>372.7</ele></trkpt>
      <trkpt lat="45.730642" lon="8.429408"><ele>382.0</ele></trkpt>
      <trkpt lat="45.729990" lon="8.429540"><ele>385.6</ele></trkpt>
      <trkpt lat="45.729580" lon="8.429668"><ele>387.8</ele></trkpt>
      <trkpt lat="45.729515" lon="8.429647"><ele>388.2</ele></trkpt>
      <trkpt lat="45.729140" lon="8.429968"><ele>390.6</ele></trkpt>
      <trkpt lat="45.728707" lon="8.430255"><ele>391.4</ele></trkpt>
      <trkpt lat="45.728479" lon="8.429953"><ele>391.7</ele></trkpt>
      <trkpt lat="45.728399" lon="8.429895"><ele>391.8</ele></trkpt>
      <trkpt lat="45.728341" lon="8.429773"><ele>391.9</ele></trkpt>
      <trkpt lat="45.728286" lon="8.429606"><ele>392.1</ele></trkpt>
      <trkpt lat="45.726262" lon="8.430379"><ele>391.9</ele></trkpt>
      <trkpt lat="45.725281" lon="8.430789"><ele>391.0</ele></trkpt>
      <trkpt lat="45.724775" lon="8.430987"><ele>390.4</ele></trkpt>
      <trkpt lat="45.724534" lon="8.431080"><ele>390.2</ele></trkpt>
      <trkpt lat="45.724000" lon="8.431288"><ele>389.5</ele></trkpt>
      <trkpt lat="45.723943" lon="8.431311"><ele>389.5</ele></trkpt>
      <trkpt lat="45.723733" lon="8.431392"><ele>389.2</ele></trkpt>
      <trkpt lat="45.723559" lon="8.431460"><ele>388.9</ele></trkpt>
      <trkpt lat="45.723530" lon="8.431468"><ele>388.9</ele></trkpt>
      <trkpt lat="45.723003" lon="8.431613"><ele>388.1</ele></trkpt>
      <trkpt lat="45.722166" lon="8.431941"><ele>386.6</ele></trkpt>
      <trkpt lat="45.721252" lon="8.432102"><ele>384.1</ele></trkpt>
      <trkpt lat="45.720957" lon="8.432145"><ele>383.3</ele></trkpt>
      <trkpt lat="45.720493" lon="8.432335"><ele>381.9</ele></trkpt>
      <trkpt lat="45.720443" lon="8.432387"><ele>381.7</ele></trkpt>
      <trkpt lat="45.720350" lon="8.432802"><ele>380.7</ele></trkpt>
      <trkpt lat="45.720502" lon="8.433301"><ele>379.4</ele></trkpt>
      <trkpt lat="45.719926" lon="8.433425"><ele>377.4</ele></trkpt>
      <trkpt lat="45.719545" lon="8.433550"><ele>376.2</ele></trkpt>
      <trkpt lat="45.719306" lon="8.433706"><ele>375.9</ele></trkpt>
      <trkpt lat="45.719154" lon="8.433706"><ele>375.8</ele></trkpt>
      <trkpt lat="45.718838" lon="8.434033"><ele>375.5</ele></trkpt>
      <trkpt lat="45.718686" lon="8.434329"><ele>375.2</ele></trkpt>
      <trkpt lat="45.718469" lon="8.434500"><ele>375.0</ele></trkpt>
      <trkpt lat="45.718316" lon="8.434687"><ele>374.8</ele></trkpt>
      <trkpt lat="45.718077" lon="8.435076"><ele>374.6</ele></trkpt>
      <trkpt lat="45.717903" lon="8.435216"><ele>374.6</ele></trkpt>
      <trkpt lat="45.717773" lon="8.435269"><ele>374.7</ele></trkpt>
      <trkpt lat="45.717543" lon="8.435316"><ele>374.7</ele></trkpt>
      <trkpt lat="45.717356" lon="8.435420"><ele>374.8</ele></trkpt>
      <trkpt lat="45.717059" lon="8.435471"><ele>374.9</ele></trkpt>
      <trkpt lat="45.716839" lon="8.435633"><ele>374.9</ele></trkpt>
      <trkpt lat="45.716417" lon="8.436109"><ele>375.0</ele></trkpt>
      <trkpt lat="45.716100" lon="8.436403"><ele>374.8</ele></trkpt>
      <trkpt lat="45.714867" lon="8.437151"><ele>374.2</ele></trkpt>
      <trkpt lat="45.713868" lon="8.437813"><ele>372.0</ele></trkpt>
      <trkpt lat="45.713320" lon="8.438448"><ele>370.6</ele></trkpt>
      <trkpt lat="45.712948" lon="8.438820"><ele>369.1</ele></trkpt>
      <trkpt lat="45.712135" lon="8.439410"><ele>366.0</ele></trkpt>
      <trkpt lat="45.711928" lon="8.439671"><ele>365.1</ele></trkpt>
      <trkpt lat="45.711770" lon="8.439942"><ele>364.5</ele></trkpt>
      <trkpt lat="45.711486" lon="8.440154"><ele>363.9</ele></trkpt>
      <trkpt lat="45.711439" lon="8.440205"><ele>363.8</ele></trkpt>
      <trkpt lat="45.710895" lon="8.440933"><ele>362.4</ele></trkpt>
      <trkpt lat="45.710694" lon="8.441108"><ele>361.9</ele></trkpt>
      <trkpt lat="45.710351" lon="8.441325"><ele>361.3</ele></trkpt>
      <trkpt lat="45.709764" lon="8.441880"><ele>360.6</ele></trkpt>
      <trkpt lat="45.708921" lon="8.442687"><ele>359.7</ele></trkpt>
      <trkpt lat="45.706890" lon="8.444171"><ele>359.9</ele></trkpt>
      <trkpt lat="45.706828" lon="8.444218"><ele>359.9</ele></trkpt>
      <trkpt lat="45.706622" lon="8.444482"><ele>360.2</ele></trkpt>
      <trkpt lat="45.706417" lon="8.444271"><ele>360.4</ele></trkpt>
      <trkpt lat="45.706335" lon="8.444248"><ele>360.4</ele></trkpt>
      <trkpt lat="45.706269" lon="8.444275"><ele>360.5</ele></trkpt>
      <trkpt lat="45.706221" lon="8.444365"><ele>360.6</ele></trkpt>
      <trkpt lat="45.706092" lon="8.444436"><ele>360.7</ele></trkpt>
      <trkpt lat="45.706031" lon="8.444434"><ele>360.7</ele></trkpt>
      <trkpt lat="45.705967" lon="8.444380"><ele>360.8</ele></trkpt>
      <trkpt lat="45.705777" lon="8.444337"><ele>360.9</ele></trkpt>
      <trkpt lat="45.705667" lon="8.444148"><ele>360.1</ele></trkpt>
      <trkpt lat="45.705542" lon="8.444153"><ele>359.4</ele></trkpt>
      <trkpt lat="45.705462" lon="8.444193"><ele>359.0</ele></trkpt>
      <trkpt lat="45.705439" lon="8.444128"><ele>358.7</ele></trkpt>
      <trkpt lat="45.705334" lon="8.444107"><ele>358.2</ele></trkpt>
      <trkpt lat="45.705156" lon="8.444128"><ele>357.3</ele></trkpt>
      <trkpt lat="45.705126" lon="8.444132"><ele>357.1</ele></trkpt>
      <trkpt lat="45.705106" lon="8.444127"><ele>357.0</ele></trkpt>
      <trkpt lat="45.705020" lon="8.444110"><ele>356.6</ele></trkpt>
      <trkpt lat="45.704922" lon="8.444009"><ele>355.9</ele></trkpt>
      <trkpt lat="45.704691" lon="8.443687"><ele>354.3</ele></trkpt>
      <trkpt lat="45.704668" lon="8.443663"><ele>354.1</ele></trkpt>
      <trkpt lat="45.704587" lon="8.443482"><ele>353.4</ele></trkpt>
      <trkpt lat="45.704503" lon="8.443372"><ele>352.8</ele></trkpt>
      <trkpt lat="45.704095" lon="8.442995"><ele>350.3</ele></trkpt>
      <trkpt lat="45.703921" lon="8.442831"><ele>349.2</ele></trkpt>
      <trkpt lat="45.703582" lon="8.442642"><ele>347.4</ele></trkpt>
      <trkpt lat="45.703425" lon="8.442453"><ele>346.3</ele></trkpt>
      <trkpt lat="45.703289" lon="8.442364"><ele>345.5</ele></trkpt>
      <trkpt lat="45.702526" lon="8.441823"><ele>341.7</ele></trkpt>
      <trkpt lat="45.701958" lon="8.441353"><ele>339.8</ele></trkpt>
      <trkpt lat="45.701484" lon="8.440846"><ele>338.0</ele></trkpt>
      <trkpt lat="45.701156" lon="8.440723"><ele>337.1</ele></trkpt>
      <trkpt lat="45.701191" lon="8.440347"><ele>336.5</ele></trkpt>
      <trkpt lat="45.701197" lon="8.440329"><ele>336.5</ele></trkpt>
      <trkpt lat="45.701291" lon="8.439427"><ele>335.1</ele></trkpt>
      <trkpt lat="45.701323" lon="8.439164"><ele>334.7</ele></trkpt>
      <trkpt lat="45.701352" lon="8.438795"><ele>334.2</ele></trkpt>
      <trkpt lat="45.701334" lon="8.438688"><ele>334.0</ele></trkpt>
      <trkpt lat="45.701204" lon="8.438363"><ele>333.5</ele></trkpt>
      <trkpt lat="45.700855" lon="8.437610"><ele>333.8</ele></trkpt>
      <trkpt lat="45.700662" lon="8.437412"><ele>334.0</ele></trkpt>
      <trkpt lat="45.700443" lon="8.437287"><ele>334.1</ele></trkpt>
      <trkpt lat="45.699138" lon="8.436712"><ele>335.6</ele></trkpt>
      <trkpt lat="45.698277" lon="8.436275"><ele>337.0</ele></trkpt>
      <trkpt lat="45.697025" lon="8.435753"><ele>340.4</ele></trkpt>
      <trkpt lat="45.696224" lon="8.435249"><ele>342.7</ele></trkpt>
      <trkpt lat="45.695440" lon="8.434506"><ele>343.1</ele></trkpt>
      <trkpt lat="45.695078" lon="8.434352"><ele>343.2</ele></trkpt>
      <trkpt lat="45.694540" lon="8.434031"><ele>342.1</ele></trkpt>
      <trkpt lat="45.694401" lon="8.433665"><ele>340.2</ele></trkpt>
      <trkpt lat="45.693832" lon="8.433510"><ele>336.6</ele></trkpt>
      <trkpt lat="45.693703" lon="8.433505"><ele>335.8</ele></trkpt>
      <trkpt lat="45.693478" lon="8.433553"><ele>334.4</ele></trkpt>
      <trkpt lat="45.693369" lon="8.433609"><ele>333.7</ele></trkpt>
      <trkpt lat="45.693175" lon="8.433805"><ele>332.2</ele></trkpt>
      <trkpt lat="45.692997" lon="8.434160"><ele>330.6</ele></trkpt>
      <trkpt lat="45.692714" lon="8.434485"><ele>328.6</ele></trkpt>
      <trkpt lat="45.692728" lon="8.434622"><ele>328.1</ele></trkpt>
      <trkpt lat="45.692649" lon="8.434736"><ele>327.5</ele></trkpt>
      <trkpt lat="45.692267" lon="8.435102"><ele>325.1</ele></trkpt>
      <trkpt lat="45.691772" lon="8.435710"><ele>322.2</ele></trkpt>
      <trkpt lat="45.691338" lon="8.436137"><ele>321.0</ele></trkpt>
      <trkpt lat="45.691055" lon="8.436518"><ele>320.0</ele></trkpt>
      <trkpt lat="45.690758" lon="8.436851"><ele>319.1</ele></trkpt>
      <trkpt lat="45.690221" lon="8.437404"><ele>318.0</ele></trkpt>
      <trkpt lat="45.689880" lon="8.437689"><ele>317.7</ele></trkpt>
      <trkpt lat="45.689779" lon="8.437807"><ele>317.5</ele></trkpt>
      <trkpt lat="45.689723" lon="8.437899"><ele>317.4</ele></trkpt>
      <trkpt lat="45.689546" lon="8.438516"><ele>317.0</ele></trkpt>
      <trkpt lat="45.689477" lon="8.438651"><ele>316.9</ele></trkpt>
      <trkpt lat="45.689369" lon="8.438787"><ele>316.8</ele></trkpt>
      <trkpt lat="45.689188" lon="8.439016"><ele>317.3</ele></trkpt>
      <trkpt lat="45.689085" lon="8.439117"><ele>318.0</ele></trkpt>
      <trkpt lat="45.688964" lon="8.438951"><ele>319.0</ele></trkpt>
      <trkpt lat="45.688735" lon="8.438876"><ele>320.3</ele></trkpt>
      <trkpt lat="45.688474" lon="8.439000"><ele>321.8</ele></trkpt>
      <trkpt lat="45.687864" lon="8.439490"><ele>325.8</ele></trkpt>
      <trkpt lat="45.687759" lon="8.439215"><ele>327.2</ele></trkpt>
      <trkpt lat="45.687632" lon="8.439098"><ele>328.7</ele></trkpt>
      <trkpt lat="45.687364" lon="8.439053"><ele>331.4</ele></trkpt>
      <trkpt lat="45.687109" lon="8.439129"><ele>334.0</ele></trkpt>
      <trkpt lat="45.686811" lon="8.439347"><ele>337.3</ele></trkpt>
      <trkpt lat="45.686435" lon="8.439739"><ele>342.0</ele></trkpt>
      <trkpt lat="45.686309" lon="8.439780"><ele>343.2</ele></trkpt>
      <trkpt lat="45.686161" lon="8.439780"><ele>344.7</ele></trkpt>
      <trkpt lat="45.686043" lon="8.439697"><ele>345.9</ele></trkpt>
      <trkpt lat="45.685903" lon="8.439468"><ele>347.7</ele></trkpt>
      <trkpt lat="45.685870" lon="8.439326"><ele>348.6</ele></trkpt>
      <trkpt lat="45.685837" lon="8.439182"><ele>349.5</ele></trkpt>
      <trkpt lat="45.685802" lon="8.438902"><ele>351.2</ele></trkpt>
      <trkpt lat="45.685679" lon="8.438311"><ele>354.9</ele></trkpt>
      <trkpt lat="45.685682" lon="8.438027"><ele>356.6</ele></trkpt>
      <trkpt lat="45.685740" lon="8.437717"><ele>358.5</ele></trkpt>
      <trkpt lat="45.685879" lon="8.437190"><ele>361.0</ele></trkpt>
      <trkpt lat="45.685569" lon="8.436281"><ele>363.6</ele></trkpt>
      <trkpt lat="45.685495" lon="8.436364"><ele>363.9</ele></trkpt>
      <trkpt lat="45.685062" lon="8.436638"><ele>365.7</ele></trkpt>
      <trkpt lat="45.684986" lon="8.436681"><ele>366.0</ele></trkpt>
      <trkpt lat="45.684822" lon="8.436706"><ele>366.6</ele></trkpt>
      <trkpt lat="45.684555" lon="8.436229"><ele>366.8</ele></trkpt>
      <trkpt lat="45.684229" lon="8.435530"><ele>366.6</ele></trkpt>
      <trkpt lat="45.684081" lon="8.434925"><ele>366.4</ele></trkpt>
      <trkpt lat="45.684008" lon="8.434792"><ele>366.4</ele></trkpt>
      <trkpt lat="45.683722" lon="8.434506"><ele>366.3</ele></trkpt>
      <trkpt lat="45.683507" lon="8.434121"><ele>366.2</ele></trkpt>
      <trkpt lat="45.683403" lon="8.434009"><ele>366.2</ele></trkpt>
      <trkpt lat="45.683278" lon="8.433934"><ele>366.1</ele></trkpt>
      <trkpt lat="45.682455" lon="8.433059"><ele>365.9</ele></trkpt>
      <trkpt lat="45.682288" lon="8.432751"><ele>365.7</ele></trkpt>
      <trkpt lat="45.681705" lon="8.431990"><ele>365.1</ele></trkpt>
      <trkpt lat="45.681130" lon="8.432416"><ele>364.5</ele></trkpt>
      <trkpt lat="45.678758" lon="8.434211"><ele>361.5</ele></trkpt>
      <trkpt lat="45.675620" lon="8.436520"><ele>358.3</ele></trkpt>
      <trkpt lat="45.673319" lon="8.438222"><ele>356.0</ele></trkpt>
      <trkpt lat="45.673265" lon="8.438262"><ele>356.0</ele></trkpt>
      <trkpt lat="45.673269" lon="8.438019"><ele>355.9</ele></trkpt>
      <trkpt lat="45.673540" lon="8.435825"><ele>355.6</ele></trkpt>
      <trkpt lat="45.673552" lon="8.435722"><ele>355.6</ele></trkpt>
      <trkpt lat="45.673691" lon="8.434452"><ele>355.7</ele></trkpt>
      <trkpt lat="45.672382" lon="8.434151"><ele>355.9</ele></trkpt>
      <trkpt lat="45.670311" lon="8.434480"><ele>355.0</ele></trkpt>
      <trkpt lat="45.669050" lon="8.434715"><ele>354.2</ele></trkpt>
      <trkpt lat="45.668101" lon="8.434891"><ele>353.5</ele></trkpt>
      <trkpt lat="45.667558" lon="8.431517"><ele>351.4</ele></trkpt>
      <trkpt lat="45.667112" lon="8.429782"><ele>350.4</ele></trkpt>
      <trkpt lat="45.666383" lon="8.426858"><ele>349.0</ele></trkpt>
      <trkpt lat="45.666338" lon="8.426283"><ele>348.8</ele></trkpt>
      <trkpt lat="45.666151" lon="8.425187"><ele>349.2</ele></trkpt>
      <trkpt lat="45.666159" lon="8.424825"><ele>349.3</ele></trkpt>
      <trkpt lat="45.666096" lon="8.423849"><ele>349.7</ele></trkpt>
      <trkpt lat="45.666160" lon="8.423270"><ele>349.8</ele></trkpt>
      <trkpt lat="45.666153" lon="8.423150"><ele>349.7</ele></trkpt>
      <trkpt lat="45.665762" lon="8.423267"><ele>349.6</ele></trkpt>
      <trkpt lat="45.665662" lon="8.423297"><ele>349.6</ele></trkpt>
      <trkpt lat="45.665064" lon="8.423487"><ele>349.5</ele></trkpt>
      <trkpt lat="45.663642" lon="8.424175"><ele>348.7</ele></trkpt>
      <trkpt lat="45.662951" lon="8.424504"><ele>348.2</ele></trkpt>
      <trkpt lat="45.660535" lon="8.425655"><ele>345.5</ele></trkpt>
      <trkpt lat="45.660213" lon="8.424592"><ele>344.7</ele></trkpt>
      <trkpt lat="45.659873" lon="8.423364"><ele>344.0</ele></trkpt>
      <trkpt lat="45.659591" lon="8.422504"><ele>343.6</ele></trkpt>
      <trkpt lat="45.659360" lon="8.421627"><ele>343.1</ele></trkpt>
      <trkpt lat="45.659253" lon="8.421130"><ele>342.8</ele></trkpt>
      <trkpt lat="45.659192" lon="8.420793"><ele>342.6</ele></trkpt>
      <trkpt lat="45.658890" lon="8.419996"><ele>342.0</ele></trkpt>
      <trkpt lat="45.658916" lon="8.419103"><ele>341.6</ele></trkpt>
      <trkpt lat="45.654951" lon="8.419762"><ele>339.2</ele></trkpt>
      <trkpt lat="45.654903" lon="8.419646"><ele>339.1</ele></trkpt>
      <trkpt lat="45.653473" lon="8.420034"><ele>337.9</ele></trkpt>
      <trkpt lat="45.653086" lon="8.420097"><ele>337.5</ele></trkpt>
      <trkpt lat="45.652950" lon="8.419746"><ele>337.2</ele></trkpt>
      <trkpt lat="45.652802" lon="8.419221"><ele>336.9</ele></trkpt>
      <trkpt lat="45.652555" lon="8.418025"><ele>336.2</ele></trkpt>
      <trkpt lat="45.652336" lon="8.416798"><ele>335.7</ele></trkpt>
      <trkpt lat="45.652292" lon="8.416382"><ele>335.5</ele></trkpt>
      <trkpt lat="45.652062" lon="8.415548"><ele>335.3</ele></trkpt>
      <trkpt lat="45.651036" lon="8.415508"><ele>334.9</ele></trkpt>
      <trkpt lat="45.647925" lon="8.415494"><ele>331.5</ele></trkpt>
      <trkpt lat="45.644307" lon="8.416649"><ele>326.4</ele></trkpt>
      <trkpt lat="45.643586" lon="8.416827"><ele>325.5</ele></trkpt>
      <trkpt lat="45.643452" lon="8.416724"><ele>325.4</ele></trkpt>
      <trkpt lat="45.643380" lon="8.416581"><ele>325.3</ele></trkpt>
      <trkpt lat="45.643289" lon="8.416198"><ele>325.0</ele></trkpt>
      <trkpt lat="45.643151" lon="8.415337"><ele>324.5</ele></trkpt>
      <trkpt lat="45.643079" lon="8.415090"><ele>324.4</ele></trkpt>
      <trkpt lat="45.642410" lon="8.415234"><ele>323.8</ele></trkpt>
      <trkpt lat="45.638886" lon="8.415725"><ele>319.8</ele></trkpt>
      <trkpt lat="45.638873" lon="8.415590"><ele>319.6</ele></trkpt>
      <trkpt lat="45.638901" lon="8.415283"><ele>319.1</ele></trkpt>
      <trkpt lat="45.638921" lon="8.414412"><ele>317.5</ele></trkpt>
      <trkpt lat="45.638902" lon="8.414100"><ele>316.9</ele></trkpt>
      <trkpt lat="45.638476" lon="8.412594"><ele>312.3</ele></trkpt>
      <trkpt lat="45.638377" lon="8.412173"><ele>310.8</ele></trkpt>
      <trkpt lat="45.638331" lon="8.411844"><ele>309.8</ele></trkpt>
      <trkpt lat="45.638301" lon="8.411046"><ele>308.0</ele></trkpt>
      <trkpt lat="45.638399" lon="8.410884"><ele>308.0</ele></trkpt>
      <trkpt lat="45.638467" lon="8.410837"><ele>308.0</ele></trkpt>
      <trkpt lat="45.638489" lon="8.410771"><ele>308.0</ele></trkpt>
      <trkpt lat="45.638427" lon="8.410455"><ele>307.9</ele></trkpt>
      <trkpt lat="45.638404" lon="8.410010"><ele>307.9</ele></trkpt>
      <trkpt lat="45.638392" lon="8.409904"><ele>307.9</ele></trkpt>
      <trkpt lat="45.638351" lon="8.409601"><ele>307.9</ele></trkpt>
      <trkpt lat="45.638228" lon="8.409310"><ele>307.8</ele></trkpt>
      <trkpt lat="45.638135" lon="8.409163"><ele>307.8</ele></trkpt>
      <trkpt lat="45.637486" lon="8.408433"><ele>310.1</ele></trkpt>
      <trkpt lat="45.637130" lon="8.407832"><ele>311.9</ele></trkpt>
      <trkpt lat="45.637057" lon="8.407708"><ele>312.3</ele></trkpt>
      <trkpt lat="45.635813" lon="8.405607"><ele>317.6</ele></trkpt>
      <trkpt lat="45.635213" lon="8.403644"><ele>319.8</ele></trkpt>
      <trkpt lat="45.635010" lon="8.403129"><ele>320.2</ele></trkpt>
      <trkpt lat="45.635010" lon="8.403033"><ele>320.3</ele></trkpt>
      <trkpt lat="45.634930" lon="8.402849"><ele>320.4</ele></trkpt>
      <trkpt lat="45.634945" lon="8.402791"><ele>320.4</ele></trkpt>
      <trkpt lat="45.634942" lon="8.402591"><ele>320.4</ele></trkpt>
      <trkpt lat="45.634851" lon="8.402424"><ele>320.4</ele></trkpt>
      <trkpt lat="45.634771" lon="8.402370"><ele>320.3</ele></trkpt>
      <trkpt lat="45.634642" lon="8.402381"><ele>320.3</ele></trkpt>
      <trkpt lat="45.634348" lon="8.402153"><ele>320.2</ele></trkpt>
      <trkpt lat="45.634036" lon="8.401665"><ele>320.1</ele></trkpt>
      <trkpt lat="45.633468" lon="8.400626"><ele>317.6</ele></trkpt>
      <trkpt lat="45.633422" lon="8.400477"><ele>317.0</ele></trkpt>
      <trkpt lat="45.633408" lon="8.400297"><ele>316.4</ele></trkpt>
      <trkpt lat="45.633459" lon="8.400070"><ele>315.6</ele></trkpt>
      <trkpt lat="45.633819" lon="8.399238"><ele>312.3</ele></trkpt>
      <trkpt lat="45.633896" lon="8.398878"><ele>310.8</ele></trkpt>
      <trkpt lat="45.633901" lon="8.398720"><ele>309.7</ele></trkpt>
      <trkpt lat="45.633685" lon="8.397843"><ele>303.1</ele></trkpt>
      <trkpt lat="45.633119" lon="8.396650"><ele>293.0</ele></trkpt>
      <trkpt lat="45.632354" lon="8.394985"><ele>282.7</ele></trkpt>
      <trkpt lat="45.632420" lon="8.394833"><ele>281.8</ele></trkpt>
      <trkpt lat="45.632787" lon="8.393310"><ele>277.0</ele></trkpt>
      <trkpt lat="45.632960" lon="8.392869"><ele>275.8</ele></trkpt>
      <trkpt lat="45.632764" lon="8.392947"><ele>275.2</ele></trkpt>
      <trkpt lat="45.632241" lon="8.393320"><ele>273.4</ele></trkpt>
      <trkpt lat="45.632066" lon="8.393138"><ele>272.8</ele></trkpt>
      <trkpt lat="45.631856" lon="8.392998"><ele>272.2</ele></trkpt>
      <trkpt lat="45.631542" lon="8.392632"><ele>271.1</ele></trkpt>
      <trkpt lat="45.631367" lon="8.392910"><ele>270.4</ele></trkpt>
      <trkpt lat="45.630822" lon="8.392232"><ele>268.5</ele></trkpt>
      <trkpt lat="45.630438" lon="8.392746"><ele>267.2</ele></trkpt>
      <trkpt lat="45.630400" lon="8.392695"><ele>267.1</ele></trkpt>
      <trkpt lat="45.630261" lon="8.392450"><ele>266.5</ele></trkpt>
      <trkpt lat="45.630253" lon="8.392399"><ele>266.4</ele></trkpt>
      <trkpt lat="45.630191" lon="8.392339"><ele>266.2</ele></trkpt>
      <trkpt lat="45.630165" lon="8.392343"><ele>266.2</ele></trkpt>
      <trkpt lat="45.630017" lon="8.392210"><ele>265.7</ele></trkpt>
      <trkpt lat="45.629819" lon="8.391925"><ele>265.0</ele></trkpt>
      <trkpt lat="45.629412" lon="8.391351"><ele>264.2</ele></trkpt>
      <trkpt lat="45.629190" lon="8.391042"><ele>263.9</ele></trkpt>
      <trkpt lat="45.629097" lon="8.390951"><ele>263.8</ele></trkpt>
      <trkpt lat="45.629032" lon="8.390820"><ele>263.7</ele></trkpt>
      <trkpt lat="45.629031" lon="8.390792"><ele>263.7</ele></trkpt>
      <trkpt lat="45.628650" lon="8.390487"><ele>263.3</ele></trkpt>
      <trkpt lat="45.628592" lon="8.390429"><ele>263.2</ele></trkpt>
      <trkpt lat="45.628451" lon="8.390733"><ele>262.9</ele></trkpt>
      <trkpt lat="45.628421" lon="8.390731"><ele>262.9</ele></trkpt>
      <trkpt lat="45.628280" lon="8.390614"><ele>262.8</ele></trkpt>
      <trkpt lat="45.628228" lon="8.390587"><ele>262.7</ele></trkpt>
      <trkpt lat="45.628094" lon="8.390724"><ele>262.6</ele></trkpt>
      <trkpt lat="45.628040" lon="8.390720"><ele>262.5</ele></trkpt>
      <trkpt lat="45.627831" lon="8.390607"><ele>262.3</ele></trkpt>
      <trkpt lat="45.627745" lon="8.390511"><ele>262.2</ele></trkpt>
      <trkpt lat="45.627630" lon="8.390364"><ele>262.0</ele></trkpt>
      <trkpt lat="45.627338" lon="8.390104"><ele>261.7</ele></trkpt>
      <trkpt lat="45.627199" lon="8.390055"><ele>261.6</ele></trkpt>
      <trkpt lat="45.627067" lon="8.390078"><ele>261.4</ele></trkpt>
      <trkpt lat="45.626616" lon="8.390324"><ele>261.0</ele></trkpt>
      <trkpt lat="45.626464" lon="8.390366"><ele>260.9</ele></trkpt>
      <trkpt lat="45.625945" lon="8.390402"><ele>260.4</ele></trkpt>
      <trkpt lat="45.625495" lon="8.390517"><ele>260.1</ele></trkpt>
      <trkpt lat="45.624865" lon="8.390884"><ele>259.5</ele></trkpt>
      <trkpt lat="45.624645" lon="8.390807"><ele>259.4</ele></trkpt>
      <trkpt lat="45.624466" lon="8.390822"><ele>259.2</ele></trkpt>
      <trkpt lat="45.623102" lon="8.391180"><ele>258.3</ele></trkpt>
      <trkpt lat="45.622956" lon="8.391264"><ele>258.2</ele></trkpt>
      <trkpt lat="45.622848" lon="8.391372"><ele>258.1</ele></trkpt>
      <trkpt lat="45.622122" lon="8.392387"><ele>257.2</ele></trkpt>
      <trkpt lat="45.621081" lon="8.393433"><ele>255.8</ele></trkpt>
      <trkpt lat="45.620647" lon="8.393692"><ele>255.2</ele></trkpt>
      <trkpt lat="45.620551" lon="8.393853"><ele>255.0</ele></trkpt>
      <trkpt lat="45.620493" lon="8.394014"><ele>254.8</ele></trkpt>
      <trkpt lat="45.620314" lon="8.394209"><ele>254.5</ele></trkpt>
      <trkpt lat="45.620010" lon="8.394345"><ele>254.0</ele></trkpt>
      <trkpt lat="45.619763" lon="8.394236"><ele>253.6</ele></trkpt>
      <trkpt lat="45.619478" lon="8.394236"><ele>253.1</ele></trkpt>
      <trkpt lat="45.618983" lon="8.394671"><ele>252.2</ele></trkpt>
      <trkpt lat="45.618462" lon="8.394548"><ele>251.7</ele></trkpt>
      <trkpt lat="45.617271" lon="8.394671"><ele>250.9</ele></trkpt>
      <trkpt lat="45.616282" lon="8.395079"><ele>250.8</ele></trkpt>
      <trkpt lat="45.614741" lon="8.395868"><ele>251.1</ele></trkpt>
      <trkpt lat="45.613453" lon="8.396820"><ele>251.2</ele></trkpt>
      <trkpt lat="45.612989" lon="8.397016"><ele>250.8</ele></trkpt>
      <trkpt lat="45.610936" lon="8.397582"><ele>249.0</ele></trkpt>
      <trkpt lat="45.608425" lon="8.397364"><ele>248.1</ele></trkpt>
      <trkpt lat="45.602793" lon="8.396766"><ele>244.5</ele></trkpt>
      <trkpt lat="45.601518" lon="8.396494"><ele>243.6</ele></trkpt>
      <trkpt lat="45.600814" lon="8.396412"><ele>243.1</ele></trkpt>
      <trkpt lat="45.600205" lon="8.396412"><ele>242.7</ele></trkpt>
      <trkpt lat="45.597484" lon="8.396738"><ele>241.2</ele></trkpt>
      <trkpt lat="45.595341" lon="8.397042"><ele>239.6</ele></trkpt>
      <trkpt lat="45.594740" lon="8.396744"><ele>239.0</ele></trkpt>
      <trkpt lat="45.592588" lon="8.396749"><ele>237.1</ele></trkpt>
      <trkpt lat="45.586292" lon="8.396762"><ele>234.4</ele></trkpt>
      <trkpt lat="45.584733" lon="8.396766"><ele>233.4</ele></trkpt>
      <trkpt lat="45.577438" lon="8.398598"><ele>226.8</ele></trkpt>
      <trkpt lat="45.577510" lon="8.398664"><ele>226.8</ele></trkpt>
      <trkpt lat="45.577615" lon="8.398835"><ele>226.8</ele></trkpt>
      <trkpt lat="45.577732" lon="8.398941"><ele>226.8</ele></trkpt>
      <trkpt lat="45.576938" lon="8.399042"><ele>226.7</ele></trkpt>
      <trkpt lat="45.576841" lon="8.399093"><ele>226.7</ele></trkpt>
      <trkpt lat="45.576785" lon="8.399203"><ele>226.7</ele></trkpt>
      <trkpt lat="45.576799" lon="8.399523"><ele>226.6</ele></trkpt>
      <trkpt lat="45.576769" lon="8.399803"><ele>226.6</ele></trkpt>
      <trkpt lat="45.576494" lon="8.400343"><ele>226.5</ele></trkpt>
      <trkpt lat="45.575853" lon="8.398996"><ele>226.1</ele></trkpt>
      <trkpt lat="45.574986" lon="8.399213"><ele>225.7</ele></trkpt>
      <trkpt lat="45.571467" lon="8.400631"><ele>224.3</ele></trkpt>
      <trkpt lat="45.571274" lon="8.400709"><ele>224.2</ele></trkpt>
      <trkpt lat="45.567831" lon="8.402572"><ele>221.6</ele></trkpt>
      <trkpt lat="45.567428" lon="8.402729"><ele>221.4</ele></trkpt>
      <trkpt lat="45.567246" lon="8.402723"><ele>221.3</ele></trkpt>
      <trkpt lat="45.565105" lon="8.402015"><ele>220.1</ele></trkpt>
      <trkpt lat="45.565062" lon="8.402066"><ele>220.1</ele></trkpt>
      <trkpt lat="45.564899" lon="8.401937"><ele>220.0</ele></trkpt>
      <trkpt lat="45.564689" lon="8.402047"><ele>219.8</ele></trkpt>
      <trkpt lat="45.564672" lon="8.402146"><ele>219.7</ele></trkpt>
      <trkpt lat="45.564588" lon="8.402214"><ele>219.7</ele></trkpt>
      <trkpt lat="45.564432" lon="8.402197"><ele>219.6</ele></trkpt>
      <trkpt lat="45.564379" lon="8.402140"><ele>219.5</ele></trkpt>
      <trkpt lat="45.564287" lon="8.401957"><ele>219.4</ele></trkpt>
      <trkpt lat="45.564232" lon="8.401869"><ele>219.3</ele></trkpt>
      <trkpt lat="45.564189" lon="8.401875"><ele>219.3</ele></trkpt>
      <trkpt lat="45.563102" lon="8.402146"><ele>218.5</ele></trkpt>
      <trkpt lat="45.562834" lon="8.402164"><ele>218.3</ele></trkpt>
      <trkpt lat="45.562531" lon="8.402121"><ele>218.1</ele></trkpt>
      <trkpt lat="45.562538" lon="8.402534"><ele>218.0</ele></trkpt>
      <trkpt lat="45.561811" lon="8.402809"><ele>217.7</ele></trkpt>
      <trkpt lat="45.561043" lon="8.403179"><ele>217.3</ele></trkpt>
      <trkpt lat="45.560456" lon="8.403142"><ele>216.9</ele></trkpt>
      <trkpt lat="45.559958" lon="8.403206"><ele>216.5</ele></trkpt>
      <trkpt lat="45.558956" lon="8.403299"><ele>216.0</ele></trkpt>
      <trkpt lat="45.558759" lon="8.403317"><ele>215.9</ele></trkpt>
      <trkpt lat="45.558489" lon="8.403451"><ele>215.9</ele></trkpt>
      <trkpt lat="45.558018" lon="8.403336"><ele>215.8</ele></trkpt>
      <trkpt lat="45.554571" lon="8.402971"><ele>214.5</ele></trkpt>
      <trkpt lat="45.553561" lon="8.402009"><ele>213.5</ele></trkpt>
      <trkpt lat="45.551002" lon="8.401047"><ele>210.3</ele></trkpt>
      <trkpt lat="45.550032" lon="8.400740"><ele>209.6</ele></trkpt>
      <trkpt lat="45.545238" lon="8.400960"><ele>208.6</ele></trkpt>
      <trkpt lat="45.543898" lon="8.401183"><ele>207.9</ele></trkpt>
      <trkpt lat="45.542287" lon="8.401470"><ele>206.9</ele></trkpt>
      <trkpt lat="45.541931" lon="8.401418"><ele>206.6</ele></trkpt>
      <trkpt lat="45.541219" lon="8.401191"><ele>206.0</ele></trkpt>
      <trkpt lat="45.539333" lon="8.400575"><ele>204.3</ele></trkpt>
      <trkpt lat="45.538561" lon="8.400237"><ele>203.8</ele></trkpt>
      <trkpt lat="45.538180" lon="8.400162"><ele>203.6</ele></trkpt>
      <trkpt lat="45.537326" lon="8.400147"><ele>203.6</ele></trkpt>
      <trkpt lat="45.535112" lon="8.400108"><ele>203.5</ele></trkpt>
      <trkpt lat="45.534410" lon="8.400096"><ele>203.4</ele></trkpt>
      <trkpt lat="45.534149" lon="8.400092"><ele>203.3</ele></trkpt>
      <trkpt lat="45.530677" lon="8.400032"><ele>200.9</ele></trkpt>
      <trkpt lat="45.530458" lon="8.398511"><ele>200.0</ele></trkpt>
      <trkpt lat="45.529901" lon="8.394626"><ele>198.4</ele></trkpt>
      <trkpt lat="45.529883" lon="8.394496"><ele>198.4</ele></trkpt>
      <trkpt lat="45.529766" lon="8.393656"><ele>198.6</ele></trkpt>
      <trkpt lat="45.529615" lon="8.392573"><ele>198.8</ele></trkpt>
      <trkpt lat="45.529501" lon="8.391755"><ele>198.8</ele></trkpt>
      <trkpt lat="45.529399" lon="8.391050"><ele>198.8</ele></trkpt>
      <trkpt lat="45.529003" lon="8.390671"><ele>198.8</ele></trkpt>
      <trkpt lat="45.528851" lon="8.390432"><ele>198.7</ele></trkpt>
      <trkpt lat="45.528740" lon="8.390349"><ele>198.7</ele></trkpt>
      <trkpt lat="45.527590" lon="8.389960"><ele>198.1</ele></trkpt>
      <trkpt lat="45.527492" lon="8.389928"><ele>198.1</ele></trkpt>
      <trkpt lat="45.527421" lon="8.389942"><ele>198.1</ele></trkpt>
      <trkpt lat="45.527200" lon="8.390076"><ele>198.0</ele></trkpt>
      <trkpt lat="45.527049" lon="8.390121"><ele>197.9</ele></trkpt>
      <trkpt lat="45.526784" lon="8.390148"><ele>197.9</ele></trkpt>
      <trkpt lat="45.526308" lon="8.390140"><ele>197.7</ele></trkpt>
      <trkpt lat="45.526101" lon="8.390215"><ele>197.7</ele></trkpt>
      <trkpt lat="45.525998" lon="8.390304"><ele>197.7</ele></trkpt>
      <trkpt lat="45.525909" lon="8.390432"><ele>197.6</ele></trkpt>
      <trkpt lat="45.525812" lon="8.390730"><ele>197.6</ele></trkpt>
      <trkpt lat="45.525747" lon="8.391025"><ele>197.5</ele></trkpt>
      <trkpt lat="45.525503" lon="8.391099"><ele>197.5</ele></trkpt>
      <trkpt lat="45.525426" lon="8.391339"><ele>197.5</ele></trkpt>
      <trkpt lat="45.525245" lon="8.391642"><ele>197.5</ele></trkpt>
      <trkpt lat="45.525010" lon="8.391851"><ele>197.5</ele></trkpt>
      <trkpt lat="45.524860" lon="8.391937"><ele>197.5</ele></trkpt>
      <trkpt lat="45.524833" lon="8.391956"><ele>197.5</ele></trkpt>
      <trkpt lat="45.524771" lon="8.392058"><ele>197.5</ele></trkpt>
      <trkpt lat="45.524657" lon="8.392374"><ele>197.5</ele></trkpt>
      <trkpt lat="45.524593" lon="8.392664"><ele>197.4</ele></trkpt>
      <trkpt lat="45.524193" lon="8.392659"><ele>197.1</ele></trkpt>
      <trkpt lat="45.524039" lon="8.392694"><ele>197.0</ele></trkpt>
      <trkpt lat="45.523128" lon="8.393308"><ele>196.1</ele></trkpt>
      <trkpt lat="45.522981" lon="8.393439"><ele>196.0</ele></trkpt>
      <trkpt lat="45.522766" lon="8.393697"><ele>195.8</ele></trkpt>
      <trkpt lat="45.521763" lon="8.395013"><ele>194.8</ele></trkpt>
      <trkpt lat="45.521612" lon="8.395137"><ele>194.6</ele></trkpt>
      <trkpt lat="45.520878" lon="8.395585"><ele>194.2</ele></trkpt>
      <trkpt lat="45.520710" lon="8.395620"><ele>194.1</ele></trkpt>
      <trkpt lat="45.517224" lon="8.395588"><ele>192.1</ele></trkpt>
      <trkpt lat="45.517046" lon="8.395601"><ele>192.0</ele></trkpt>
      <trkpt lat="45.516561" lon="8.395783"><ele>191.7</ele></trkpt>
      <trkpt lat="45.516033" lon="8.395931"><ele>191.4</ele></trkpt>
      <trkpt lat="45.514153" lon="8.396916"><ele>190.3</ele></trkpt>
      <trkpt lat="45.512340" lon="8.398439"><ele>189.6</ele></trkpt>
      <trkpt lat="45.512127" lon="8.398543"><ele>189.5</ele></trkpt>
      <trkpt lat="45.509466" lon="8.398543"><ele>187.5</ele></trkpt>
      <trkpt lat="45.505336" lon="8.398460"><ele>183.8</ele></trkpt>
      <trkpt lat="45.505180" lon="8.398431"><ele>183.6</ele></trkpt>
      <trkpt lat="45.504743" lon="8.398267"><ele>183.2</ele></trkpt>
      <trkpt lat="45.504340" lon="8.398232"><ele>182.8</ele></trkpt>
      <trkpt lat="45.503524" lon="8.398254"><ele>182.4</ele></trkpt>
      <trkpt lat="45.503091" lon="8.398307"><ele>182.2</ele></trkpt>
      <trkpt lat="45.502901" lon="8.398364"><ele>182.1</ele></trkpt>
      <trkpt lat="45.502372" lon="8.398612"><ele>181.9</ele></trkpt>
      <trkpt lat="45.502112" lon="8.398656"><ele>181.9</ele></trkpt>
      <trkpt lat="45.501283" lon="8.398664"><ele>181.7</ele></trkpt>
      <trkpt lat="45.498662" lon="8.398600"><ele>181.5</ele></trkpt>
      <trkpt lat="45.498222" lon="8.398586"><ele>181.5</ele></trkpt>
      <trkpt lat="45.497906" lon="8.398541"><ele>181.4</ele></trkpt>
      <trkpt lat="45.495637" lon="8.397825"><ele>181.1</ele></trkpt>
      <trkpt lat="45.495325" lon="8.397599"><ele>181.0</ele></trkpt>
      <trkpt lat="45.494432" lon="8.397307"><ele>180.8</ele></trkpt>
      <trkpt lat="45.494223" lon="8.397165"><ele>180.7</ele></trkpt>
      <trkpt lat="45.494647" lon="8.397230"><ele>180.5</ele></trkpt>
      <trkpt lat="45.494827" lon="8.397221"><ele>180.5</ele></trkpt>
      <trkpt lat="45.494872" lon="8.397194"><ele>180.5</ele></trkpt>
      <trkpt lat="45.494932" lon="8.397090"><ele>180.5</ele></trkpt>
      <trkpt lat="45.495031" lon="8.395856"><ele>180.3</ele></trkpt>
      <trkpt lat="45.495192" lon="8.394483"><ele>180.2</ele></trkpt>
      <trkpt lat="45.495306" lon="8.393457"><ele>180.3</ele></trkpt>
      <trkpt lat="45.495366" lon="8.392830"><ele>180.3</ele></trkpt>
      <trkpt lat="45.495319" lon="8.391920"><ele>180.8</ele></trkpt>
      <trkpt lat="45.495319" lon="8.391887"><ele>180.9</ele></trkpt>
      <trkpt lat="45.495380" lon="8.391594"><ele>181.4</ele></trkpt>
      <trkpt lat="45.495399" lon="8.391546"><ele>181.5</ele></trkpt>
      <trkpt lat="45.495406" lon="8.391451"><ele>181.6</ele></trkpt>
      <trkpt lat="45.495379" lon="8.391363"><ele>181.8</ele></trkpt>
      <trkpt lat="45.495310" lon="8.391300"><ele>181.9</ele></trkpt>
      <trkpt lat="45.495277" lon="8.390902"><ele>182.6</ele></trkpt>
      <trkpt lat="45.495285" lon="8.390619"><ele>183.0</ele></trkpt>
      <trkpt lat="45.495166" lon="8.389953"><ele>184.1</ele></trkpt>
      <trkpt lat="45.495268" lon="8.389820"><ele>184.5</ele></trkpt>
      <trkpt lat="45.495507" lon="8.389674"><ele>184.7</ele></trkpt>
      <trkpt lat="45.495459" lon="8.389449"><ele>184.9</ele></trkpt>
      <trkpt lat="45.495447" lon="8.389206"><ele>185.1</ele></trkpt>
      <trkpt lat="45.495539" lon="8.389186"><ele>185.2</ele></trkpt>
      <trkpt lat="45.495439" lon="8.388903"><ele>185.4</ele></trkpt>
      <trkpt lat="45.495391" lon="8.388814"><ele>185.5</ele></trkpt>
      <trkpt lat="45.495186" lon="8.388433"><ele>185.8</ele></trkpt>
      <trkpt lat="45.495090" lon="8.388158"><ele>186.0</ele></trkpt>
      <trkpt lat="45.495085" lon="8.388026"><ele>186.1</ele></trkpt>
      <trkpt lat="45.495108" lon="8.387867"><ele>186.2</ele></trkpt>
      <trkpt lat="45.494984" lon="8.387852"><ele>186.2</ele></trkpt>
      <trkpt lat="45.494538" lon="8.387669"><ele>185.6</ele></trkpt>
      <trkpt lat="45.494109" lon="8.387447"><ele>185.0</ele></trkpt>
      <trkpt lat="45.493867" lon="8.387376"><ele>184.6</ele></trkpt>
      <trkpt lat="45.492439" lon="8.387673"><ele>183.0</ele></trkpt>
      <trkpt lat="45.491320" lon="8.387898"><ele>181.9</ele></trkpt>
      <trkpt lat="45.491217" lon="8.387416"><ele>181.8</ele></trkpt>
      <trkpt lat="45.491193" lon="8.386636"><ele>181.5</ele></trkpt>
      <trkpt lat="45.491137" lon="8.383348"><ele>180.7</ele></trkpt>
      <trkpt lat="45.491084" lon="8.382905"><ele>180.6</ele></trkpt>
      <trkpt lat="45.490930" lon="8.382452"><ele>180.5</ele></trkpt>
      <trkpt lat="45.489499" lon="8.379577"><ele>179.3</ele></trkpt>
      <trkpt lat="45.489377" lon="8.379337"><ele>179.2</ele></trkpt>
      <trkpt lat="45.488036" lon="8.377445"><ele>178.8</ele></trkpt>
      <trkpt lat="45.487211" lon="8.375695"><ele>178.5</ele></trkpt>
      <trkpt lat="45.487197" lon="8.375665"><ele>178.5</ele></trkpt>
      <trkpt lat="45.487116" lon="8.375511"><ele>178.5</ele></trkpt>
      <trkpt lat="45.486880" lon="8.375393"><ele>178.4</ele></trkpt>
      <trkpt lat="45.486741" lon="8.375358"><ele>178.4</ele></trkpt>
      <trkpt lat="45.486229" lon="8.375379"><ele>178.2</ele></trkpt>
      <trkpt lat="45.485937" lon="8.375256"><ele>178.1</ele></trkpt>
      <trkpt lat="45.485815" lon="8.375153"><ele>178.0</ele></trkpt>
      <trkpt lat="45.484592" lon="8.373674"><ele>177.3</ele></trkpt>
      <trkpt lat="45.484385" lon="8.373289"><ele>177.2</ele></trkpt>
      <trkpt lat="45.484293" lon="8.372964"><ele>177.1</ele></trkpt>
      <trkpt lat="45.484095" lon="8.371730"><ele>177.1</ele></trkpt>
      <trkpt lat="45.483872" lon="8.370401"><ele>177.8</ele></trkpt>
      <trkpt lat="45.483756" lon="8.369388"><ele>178.4</ele></trkpt>
      <trkpt lat="45.483768" lon="8.369179"><ele>178.6</ele></trkpt>
      <trkpt lat="45.484023" lon="8.368230"><ele>179.6</ele></trkpt>
      <trkpt lat="45.484023" lon="8.368050"><ele>179.8</ele></trkpt>
      <trkpt lat="45.484003" lon="8.367880"><ele>180.0</ele></trkpt>
      <trkpt lat="45.483946" lon="8.367739"><ele>180.1</ele></trkpt>
      <trkpt lat="45.483852" lon="8.367630"><ele>180.3</ele></trkpt>
      <trkpt lat="45.483731" lon="8.367547"><ele>180.5</ele></trkpt>
      <trkpt lat="45.483032" lon="8.367389"><ele>180.1</ele></trkpt>
      <trkpt lat="45.482449" lon="8.367387"><ele>179.6</ele></trkpt>
      <trkpt lat="45.481724" lon="8.367453"><ele>178.9</ele></trkpt>
      <trkpt lat="45.481012" lon="8.367456"><ele>178.7</ele></trkpt>
      <trkpt lat="45.480863" lon="8.367372"><ele>178.6</ele></trkpt>
      <trkpt lat="45.480739" lon="8.367188"><ele>178.6</ele></trkpt>
      <trkpt lat="45.480390" lon="8.367004"><ele>178.5</ele></trkpt>
      <trkpt lat="45.480086" lon="8.366965"><ele>178.4</ele></trkpt>
      <trkpt lat="45.475410" lon="8.366529"><ele>176.0</ele></trkpt>
      <trkpt lat="45.471884" lon="8.366242"><ele>172.8</ele></trkpt>
      <trkpt lat="45.471746" lon="8.366267"><ele>172.7</ele></trkpt>
      <trkpt lat="45.471320" lon="8.366482"><ele>172.1</ele></trkpt>
      <trkpt lat="45.471128" lon="8.366541"><ele>171.9</ele></trkpt>
      <trkpt lat="45.470485" lon="8.366562"><ele>171.3</ele></trkpt>
      <trkpt lat="45.468485" lon="8.366162"><ele>170.0</ele></trkpt>
      <trkpt lat="45.468016" lon="8.366022"><ele>169.9</ele></trkpt>
      <trkpt lat="45.467731" lon="8.365805"><ele>169.9</ele></trkpt>
      <trkpt lat="45.467217" lon="8.365270"><ele>169.7</ele></trkpt>
      <trkpt lat="45.466998" lon="8.365112"><ele>169.6</ele></trkpt>
      <trkpt lat="45.466368" lon="8.364864"><ele>169.4</ele></trkpt>
      <trkpt lat="45.465281" lon="8.364543"><ele>168.8</ele></trkpt>
      <trkpt lat="45.464966" lon="8.364500"><ele>168.6</ele></trkpt>
      <trkpt lat="45.464553" lon="8.364545"><ele>168.4</ele></trkpt>
      <trkpt lat="45.464191" lon="8.364508"><ele>168.2</ele></trkpt>
      <trkpt lat="45.463480" lon="8.364114"><ele>168.1</ele></trkpt>
      <trkpt lat="45.462973" lon="8.363950"><ele>168.0</ele></trkpt>
      <trkpt lat="45.461715" lon="8.363884"><ele>167.8</ele></trkpt>
      <trkpt lat="45.461599" lon="8.363865"><ele>167.8</ele></trkpt>
      <trkpt lat="45.461431" lon="8.363753"><ele>167.8</ele></trkpt>
      <trkpt lat="45.460841" lon="8.363281"><ele>167.7</ele></trkpt>
      <trkpt lat="45.460496" lon="8.363059"><ele>168.0</ele></trkpt>
      <trkpt lat="45.460269" lon="8.362833"><ele>168.2</ele></trkpt>
      <trkpt lat="45.460151" lon="8.362647"><ele>168.3</ele></trkpt>
      <trkpt lat="45.460058" lon="8.362352"><ele>168.5</ele></trkpt>
      <trkpt lat="45.460018" lon="8.362110"><ele>168.6</ele></trkpt>
      <trkpt lat="45.460004" lon="8.361744"><ele>168.8</ele></trkpt>
      <trkpt lat="45.460072" lon="8.360679"><ele>169.2</ele></trkpt>
      <trkpt lat="45.460123" lon="8.359540"><ele>169.6</ele></trkpt>
      <trkpt lat="45.460114" lon="8.359337"><ele>169.7</ele></trkpt>
      <trkpt lat="45.460070" lon="8.359168"><ele>169.8</ele></trkpt>
      <trkpt lat="45.459967" lon="8.358966"><ele>169.9</ele></trkpt>
      <trkpt lat="45.459834" lon="8.358823"><ele>169.9</ele></trkpt>
      <trkpt lat="45.459737" lon="8.358753"><ele>169.8</ele></trkpt>
      <trkpt lat="45.459473" lon="8.358726"><ele>169.6</ele></trkpt>
      <trkpt lat="45.458225" lon="8.359154"><ele>168.7</ele></trkpt>
      <trkpt lat="45.458116" lon="8.359234"><ele>168.6</ele></trkpt>
      <trkpt lat="45.458009" lon="8.359381"><ele>168.4</ele></trkpt>
      <trkpt lat="45.457929" lon="8.359613"><ele>168.2</ele></trkpt>
      <trkpt lat="45.457715" lon="8.360831"><ele>167.0</ele></trkpt>
      <trkpt lat="45.457629" lon="8.361193"><ele>166.7</ele></trkpt>
      <trkpt lat="45.457462" lon="8.361529"><ele>166.3</ele></trkpt>
      <trkpt lat="45.457263" lon="8.361702"><ele>166.0</ele></trkpt>
      <trkpt lat="45.457010" lon="8.361824"><ele>165.7</ele></trkpt>
      <trkpt lat="45.456875" lon="8.361831"><ele>165.5</ele></trkpt>
      <trkpt lat="45.456406" lon="8.361718"><ele>164.9</ele></trkpt>
      <trkpt lat="45.455554" lon="8.361459"><ele>164.0</ele></trkpt>
      <trkpt lat="45.454327" lon="8.360964"><ele>164.1</ele></trkpt>
      <trkpt lat="45.454504" lon="8.360753"><ele>164.1</ele></trkpt>
      <trkpt lat="45.454587" lon="8.360614"><ele>164.1</ele></trkpt>
      <trkpt lat="45.454630" lon="8.360475"><ele>164.1</ele></trkpt>
      <trkpt lat="45.454783" lon="8.359715"><ele>164.4</ele></trkpt>
      <trkpt lat="45.454798" lon="8.359337"><ele>164.5</ele></trkpt>
      <trkpt lat="45.454781" lon="8.358993"><ele>164.6</ele></trkpt>
      <trkpt lat="45.454614" lon="8.356762"><ele>164.7</ele></trkpt>
      <trkpt lat="45.454690" lon="8.356428"><ele>164.7</ele></trkpt>
      <trkpt lat="45.454955" lon="8.355906"><ele>164.6</ele></trkpt>
      <trkpt lat="45.455013" lon="8.355738"><ele>164.6</ele></trkpt>
      <trkpt lat="45.455027" lon="8.355434"><ele>164.6</ele></trkpt>
      <trkpt lat="45.454990" lon="8.355053"><ele>164.8</ele></trkpt>
      <trkpt lat="45.454983" lon="8.354975"><ele>164.8</ele></trkpt>
      <trkpt lat="45.454833" lon="8.353413"><ele>165.3</ele></trkpt>
      <trkpt lat="45.453992" lon="8.353623"><ele>165.7</ele></trkpt>
      <trkpt lat="45.453868" lon="8.353623"><ele>165.7</ele></trkpt>
      <trkpt lat="45.453536" lon="8.353454"><ele>165.8</ele></trkpt>
      <trkpt lat="45.453223" lon="8.353428"><ele>165.9</ele></trkpt>
      <trkpt lat="45.453052" lon="8.353479"><ele>166.0</ele></trkpt>
      <trkpt lat="45.452752" lon="8.353784"><ele>165.9</ele></trkpt>
      <trkpt lat="45.452647" lon="8.353939"><ele>165.8</ele></trkpt>
      <trkpt lat="45.452494" lon="8.354246"><ele>165.6</ele></trkpt>
      <trkpt lat="45.451700" lon="8.354599"><ele>164.9</ele></trkpt>
      <trkpt lat="45.450947" lon="8.354550"><ele>164.8</ele></trkpt>
      <trkpt lat="45.450257" lon="8.354546"><ele>165.0</ele></trkpt>
      <trkpt lat="45.449910" lon="8.354591"><ele>165.2</ele></trkpt>
      <trkpt lat="45.449449" lon="8.352812"><ele>165.7</ele></trkpt>
      <trkpt lat="45.449091" lon="8.351420"><ele>165.9</ele></trkpt>
      <trkpt lat="45.448833" lon="8.350302"><ele>165.6</ele></trkpt>
      <trkpt lat="45.448807" lon="8.350302"><ele>165.6</ele></trkpt>
      <trkpt lat="45.445806" lon="8.350275"><ele>163.9</ele></trkpt>
      <trkpt lat="45.445625" lon="8.350210"><ele>163.7</ele></trkpt>
      <trkpt lat="45.444187" lon="8.348144"><ele>160.7</ele></trkpt>
      <trkpt lat="45.444096" lon="8.347898"><ele>160.4</ele></trkpt>
      <trkpt lat="45.444027" lon="8.347671"><ele>160.1</ele></trkpt>
      <trkpt lat="45.443988" lon="8.347513"><ele>159.9</ele></trkpt>
      <trkpt lat="45.443918" lon="8.347398"><ele>159.7</ele></trkpt>
      <trkpt lat="45.443860" lon="8.347363"><ele>159.5</ele></trkpt>
      <trkpt lat="45.443546" lon="8.347400"><ele>159.0</ele></trkpt>
      <trkpt lat="45.443456" lon="8.347366"><ele>158.9</ele></trkpt>
      <trkpt lat="45.443282" lon="8.346967"><ele>158.3</ele></trkpt>
      <trkpt lat="45.443034" lon="8.346562"><ele>157.8</ele></trkpt>
      <trkpt lat="45.440689" lon="8.344361"><ele>154.4</ele></trkpt>
      <trkpt lat="45.439082" lon="8.343531"><ele>153.5</ele></trkpt>
      <trkpt lat="45.437309" lon="8.342536"><ele>153.0</ele></trkpt>
      <trkpt lat="45.435540" lon="8.341599"><ele>153.3</ele></trkpt>
      <trkpt lat="45.435309" lon="8.341314"><ele>154.0</ele></trkpt>
      <trkpt lat="45.435468" lon="8.340458"><ele>155.3</ele></trkpt>
      <trkpt lat="45.435541" lon="8.340008"><ele>156.0</ele></trkpt>
      <trkpt lat="45.435697" lon="8.339173"><ele>156.6</ele></trkpt>
      <trkpt lat="45.435733" lon="8.339062"><ele>156.5</ele></trkpt>
      <trkpt lat="45.435932" lon="8.338613"><ele>156.3</ele></trkpt>
      <trkpt lat="45.435823" lon="8.338531"><ele>156.3</ele></trkpt>
      <trkpt lat="45.435515" lon="8.338252"><ele>156.1</ele></trkpt>
      <trkpt lat="45.435165" lon="8.338050"><ele>155.9</ele></trkpt>
      <trkpt lat="45.434954" lon="8.337953"><ele>155.7</ele></trkpt>
      <trkpt lat="45.434543" lon="8.337875"><ele>154.9</ele></trkpt>
      <trkpt lat="45.433471" lon="8.337694"><ele>152.7</ele></trkpt>
      <trkpt lat="45.432924" lon="8.337587"><ele>151.9</ele></trkpt>
      <trkpt lat="45.432825" lon="8.336369"><ele>151.5</ele></trkpt>
      <trkpt lat="45.432193" lon="8.330151"><ele>150.7</ele></trkpt>
      <trkpt lat="45.432006" lon="8.328340"><ele>150.7</ele></trkpt>
      <trkpt lat="45.431683" lon="8.325396"><ele>150.5</ele></trkpt>
      <trkpt lat="45.431708" lon="8.325205"><ele>150.5</ele></trkpt>
      <trkpt lat="45.431809" lon="8.324953"><ele>150.5</ele></trkpt>
      <trkpt lat="45.432329" lon="8.324303"><ele>150.5</ele></trkpt>
      <trkpt lat="45.432471" lon="8.324064"><ele>150.5</ele></trkpt>
      <trkpt lat="45.432505" lon="8.323931"><ele>150.5</ele></trkpt>
      <trkpt lat="45.432561" lon="8.323388"><ele>150.5</ele></trkpt>
      <trkpt lat="45.432709" lon="8.320628"><ele>150.8</ele></trkpt>
      <trkpt lat="45.432697" lon="8.320449"><ele>150.8</ele></trkpt>
      <trkpt lat="45.432657" lon="8.320323"><ele>150.8</ele></trkpt>
      <trkpt lat="45.432592" lon="8.320246"><ele>150.8</ele></trkpt>
      <trkpt lat="45.431988" lon="8.319779"><ele>150.7</ele></trkpt>
      <trkpt lat="45.431942" lon="8.319704"><ele>150.7</ele></trkpt>
      <trkpt lat="45.431882" lon="8.319505"><ele>150.7</ele></trkpt>
      <trkpt lat="45.431606" lon="8.318309"><ele>150.6</ele></trkpt>
      <trkpt lat="45.431521" lon="8.318102"><ele>150.6</ele></trkpt>
      <trkpt lat="45.430736" lon="8.317205"><ele>150.6</ele></trkpt>
      <trkpt lat="45.430644" lon="8.317069"><ele>150.6</ele></trkpt>
      <trkpt lat="45.430569" lon="8.316678"><ele>150.6</ele></trkpt>
      <trkpt lat="45.430591" lon="8.316421"><ele>150.6</ele></trkpt>
      <trkpt lat="45.431152" lon="8.314049"><ele>150.6</ele></trkpt>
      <trkpt lat="45.431322" lon="8.312212"><ele>150.4</ele></trkpt>
      <trkpt lat="45.431403" lon="8.311328"><ele>150.6</ele></trkpt>
      <trkpt lat="45.431444" lon="8.311089"><ele>150.8</ele></trkpt>
      <trkpt lat="45.431663" lon="8.310431"><ele>151.2</ele></trkpt>
      <trkpt lat="45.431903" lon="8.309821"><ele>151.7</ele></trkpt>
      <trkpt lat="45.432183" lon="8.309322"><ele>152.1</ele></trkpt>
      <trkpt lat="45.432865" lon="8.308660"><ele>152.7</ele></trkpt>
      <trkpt lat="45.433162" lon="8.308141"><ele>153.0</ele></trkpt>
      <trkpt lat="45.433395" lon="8.307498"><ele>153.3</ele></trkpt>
      <trkpt lat="45.433724" lon="8.306150"><ele>153.4</ele></trkpt>
      <trkpt lat="45.433540" lon="8.306035"><ele>153.5</ele></trkpt>
      <trkpt lat="45.433229" lon="8.305663"><ele>153.5</ele></trkpt>
      <trkpt lat="45.433337" lon="8.305628"><ele>153.5</ele></trkpt>
      <trkpt lat="45.433459" lon="8.305660"><ele>153.6</ele></trkpt>
      <trkpt lat="45.433630" lon="8.305468"><ele>153.6</ele></trkpt>
      <trkpt lat="45.433923" lon="8.304956"><ele>153.6</ele></trkpt>
      <trkpt lat="45.434257" lon="8.304269"><ele>153.7</ele></trkpt>
      <trkpt lat="45.434618" lon="8.303695"><ele>153.8</ele></trkpt>
      <trkpt lat="45.434672" lon="8.303534"><ele>153.8</ele></trkpt>
      <trkpt lat="45.434753" lon="8.302993"><ele>153.9</ele></trkpt>
      <trkpt lat="45.434744" lon="8.302858"><ele>153.9</ele></trkpt>
      <trkpt lat="45.434641" lon="8.302319"><ele>154.0</ele></trkpt>
      <trkpt lat="45.434469" lon="8.301949"><ele>154.1</ele></trkpt>
      <trkpt lat="45.434454" lon="8.301775"><ele>154.1</ele></trkpt>
      <trkpt lat="45.434496" lon="8.301659"><ele>154.1</ele></trkpt>
      <trkpt lat="45.434612" lon="8.301536"><ele>154.1</ele></trkpt>
      <trkpt lat="45.434701" lon="8.301367"><ele>154.1</ele></trkpt>
      <trkpt lat="45.434716" lon="8.300871"><ele>154.2</ele></trkpt>
      <trkpt lat="45.434834" lon="8.300506"><ele>154.2</ele></trkpt>
      <trkpt lat="45.435186" lon="8.299919"><ele>154.3</ele></trkpt>
      <trkpt lat="45.435358" lon="8.299506"><ele>154.3</ele></trkpt>
      <trkpt lat="45.435396" lon="8.299182"><ele>154.4</ele></trkpt>
      <trkpt lat="45.435713" lon="8.298516"><ele>154.8</ele></trkpt>
      <trkpt lat="45.435860" lon="8.298092"><ele>155.0</ele></trkpt>
      <trkpt lat="45.435928" lon="8.297583"><ele>155.3</ele></trkpt>
      <trkpt lat="45.435973" lon="8.296488"><ele>155.8</ele></trkpt>
      <trkpt lat="45.435964" lon="8.295970"><ele>156.1</ele></trkpt>
      <trkpt lat="45.435924" lon="8.295781"><ele>156.2</ele></trkpt>
      <trkpt lat="45.435868" lon="8.295834"><ele>156.2</ele></trkpt>
      <trkpt lat="45.434939" lon="8.296708"><ele>156.8</ele></trkpt>
      <trkpt lat="45.434610" lon="8.296899"><ele>156.8</ele></trkpt>
      <trkpt lat="45.434073" lon="8.297009"><ele>156.7</ele></trkpt>
      <trkpt lat="45.432091" lon="8.297234"><ele>156.6</ele></trkpt>
      <trkpt lat="45.429886" lon="8.297479"><ele>155.6</ele></trkpt>
      <trkpt lat="45.429723" lon="8.297497"><ele>155.4</ele></trkpt>
      <trkpt lat="45.429822" lon="8.297900"><ele>155.2</ele></trkpt>
      <trkpt lat="45.429932" lon="8.298568"><ele>154.7</ele></trkpt>
      <trkpt lat="45.429962" lon="8.298880"><ele>154.5</ele></trkpt>
      <trkpt lat="45.429972" lon="8.299240"><ele>154.3</ele></trkpt>
      <trkpt lat="45.429952" lon="8.299334"><ele>154.2</ele></trkpt>
      <trkpt lat="45.429853" lon="8.299450"><ele>154.1</ele></trkpt>
      <trkpt lat="45.428858" lon="8.299859"><ele>153.7</ele></trkpt>
      <trkpt lat="45.428675" lon="8.299954"><ele>153.7</ele></trkpt>
      <trkpt lat="45.428482" lon="8.300120"><ele>153.6</ele></trkpt>
      <trkpt lat="45.427780" lon="8.301291"><ele>153.2</ele></trkpt>
      <trkpt lat="45.426969" lon="8.302577"><ele>152.8</ele></trkpt>
      <trkpt lat="45.426826" lon="8.302860"><ele>152.7</ele></trkpt>
      <trkpt lat="45.426720" lon="8.303139"><ele>152.6</ele></trkpt>
      <trkpt lat="45.426077" lon="8.305015"><ele>152.1</ele></trkpt>
      <trkpt lat="45.425669" lon="8.306661"><ele>151.6</ele></trkpt>
      <trkpt lat="45.425479" lon="8.307511"><ele>151.3</ele></trkpt>
      <trkpt lat="45.425410" lon="8.307693"><ele>151.3</ele></trkpt>
      <trkpt lat="45.425085" lon="8.308169"><ele>151.0</ele></trkpt>
      <trkpt lat="45.425020" lon="8.308247"><ele>151.0</ele></trkpt>
      <trkpt lat="45.424990" lon="8.308362"><ele>151.0</ele></trkpt>
      <trkpt lat="45.424930" lon="8.310621"><ele>150.5</ele></trkpt>
      <trkpt lat="45.424770" lon="8.315970"><ele>150.2</ele></trkpt>
      <trkpt lat="45.424107" lon="8.316144"><ele>149.9</ele></trkpt>
      <trkpt lat="45.423773" lon="8.316271"><ele>149.8</ele></trkpt>
      <trkpt lat="45.423116" lon="8.316690"><ele>148.9</ele></trkpt>
      <trkpt lat="45.422341" lon="8.317251"><ele>147.9</ele></trkpt>
      <trkpt lat="45.421742" lon="8.317761"><ele>147.6</ele></trkpt>
      <trkpt lat="45.421206" lon="8.318313"><ele>147.4</ele></trkpt>
      <trkpt lat="45.420285" lon="8.319544"><ele>147.4</ele></trkpt>
      <trkpt lat="45.420037" lon="8.319671"><ele>147.5</ele></trkpt>
      <trkpt lat="45.419706" lon="8.320014"><ele>147.6</ele></trkpt>
      <trkpt lat="45.419475" lon="8.320395"><ele>147.7</ele></trkpt>
      <trkpt lat="45.419178" lon="8.320816"><ele>147.9</ele></trkpt>
      <trkpt lat="45.418184" lon="8.321675"><ele>148.2</ele></trkpt>
      <trkpt lat="45.417980" lon="8.321931"><ele>148.3</ele></trkpt>
      <trkpt lat="45.417828" lon="8.321991"><ele>148.3</ele></trkpt>
      <trkpt lat="45.417326" lon="8.322478"><ele>148.1</ele></trkpt>
      <trkpt lat="45.416996" lon="8.322710"><ele>148.0</ele></trkpt>
      <trkpt lat="45.416805" lon="8.322829"><ele>147.9</ele></trkpt>
      <trkpt lat="45.416555" lon="8.323110"><ele>147.8</ele></trkpt>
      <trkpt lat="45.416395" lon="8.323302"><ele>147.7</ele></trkpt>
      <trkpt lat="45.416166" lon="8.323669"><ele>147.6</ele></trkpt>
      <trkpt lat="45.415915" lon="8.323998"><ele>147.5</ele></trkpt>
      <trkpt lat="45.414277" lon="8.325987"><ele>146.8</ele></trkpt>
      <trkpt lat="45.414205" lon="8.326013"><ele>146.7</ele></trkpt>
      <trkpt lat="45.413554" lon="8.325542"><ele>146.6</ele></trkpt>
      <trkpt lat="45.413511" lon="8.325542"><ele>146.6</ele></trkpt>
      <trkpt lat="45.413470" lon="8.325556"><ele>146.6</ele></trkpt>
      <trkpt lat="45.413363" lon="8.325738"><ele>146.6</ele></trkpt>
      <trkpt lat="45.413246" lon="8.325839"><ele>146.6</ele></trkpt>
      <trkpt lat="45.412448" lon="8.326223"><ele>146.8</ele></trkpt>
      <trkpt lat="45.412369" lon="8.326306"><ele>146.8</ele></trkpt>
      <trkpt lat="45.412134" lon="8.326034"><ele>146.9</ele></trkpt>
      <trkpt lat="45.410829" lon="8.324344"><ele>148.5</ele></trkpt>
      <trkpt lat="45.410330" lon="8.323691"><ele>149.0</ele></trkpt>
      <trkpt lat="45.410223" lon="8.323583"><ele>149.2</ele></trkpt>
      <trkpt lat="45.410119" lon="8.323569"><ele>149.2</ele></trkpt>
      <trkpt lat="45.410056" lon="8.323640"><ele>149.3</ele></trkpt>
      <trkpt lat="45.409811" lon="8.323963"><ele>149.6</ele></trkpt>
      <trkpt lat="45.409218" lon="8.324875"><ele>150.0</ele></trkpt>
    </trkseg>
  </trk>
</gpx>
