<?xml version="1.0" encoding="UTF-8"?>
<gpx version="1.1" creator="radtour" xmlns="http://www.topografix.com/GPX/1/1">
  <metadata><name>KN-GE Tag 8b Crescentino-Asti (Asphalt)</name></metadata>
  <trk><name>KN-GE Tag 8b Crescentino-Asti (Asphalt)</name><trkseg>
      <trkpt lat="45.190986" lon="8.101400"><ele>153</ele></trkpt>
      <trkpt lat="45.190976" lon="8.101398"><ele>153</ele></trkpt>
      <trkpt lat="45.190770" lon="8.101341"><ele>153</ele></trkpt>
      <trkpt lat="45.190580" lon="8.101289"><ele>152</ele></trkpt>
      <trkpt lat="45.190514" lon="8.101271"><ele>152</ele></trkpt>
      <trkpt lat="45.190430" lon="8.101798"><ele>152</ele></trkpt>
      <trkpt lat="45.190376" lon="8.102002"><ele>152</ele></trkpt>
      <trkpt lat="45.190347" lon="8.102110"><ele>152</ele></trkpt>
      <trkpt lat="45.190335" lon="8.102159"><ele>152</ele></trkpt>
      <trkpt lat="45.190313" lon="8.102174"><ele>152</ele></trkpt>
      <trkpt lat="45.190159" lon="8.102202"><ele>152</ele></trkpt>
      <trkpt lat="45.190071" lon="8.102215"><ele>152</ele></trkpt>
      <trkpt lat="45.190061" lon="8.102214"><ele>152</ele></trkpt>
      <trkpt lat="45.189930" lon="8.102192"><ele>152</ele></trkpt>
      <trkpt lat="45.189703" lon="8.102134"><ele>152</ele></trkpt>
      <trkpt lat="45.189086" lon="8.101982"><ele>153</ele></trkpt>
      <trkpt lat="45.188996" lon="8.101962"><ele>153</ele></trkpt>
      <trkpt lat="45.187950" lon="8.101716"><ele>152</ele></trkpt>
      <trkpt lat="45.187717" lon="8.101662"><ele>153</ele></trkpt>
      <trkpt lat="45.187643" lon="8.101644"><ele>152</ele></trkpt>
      <trkpt lat="45.187335" lon="8.101570"><ele>152</ele></trkpt>
      <trkpt lat="45.186871" lon="8.101459"><ele>152</ele></trkpt>
      <trkpt lat="45.186409" lon="8.101345"><ele>152</ele></trkpt>
      <trkpt lat="45.186296" lon="8.101326"><ele>152</ele></trkpt>
      <trkpt lat="45.186214" lon="8.101312"><ele>152</ele></trkpt>
      <trkpt lat="45.186181" lon="8.101283"><ele>152</ele></trkpt>
      <trkpt lat="45.186121" lon="8.101255"><ele>152</ele></trkpt>
      <trkpt lat="45.186066" lon="8.101223"><ele>151</ele></trkpt>
      <trkpt lat="45.186045" lon="8.101200"><ele>151</ele></trkpt>
      <trkpt lat="45.186019" lon="8.101188"><ele>152</ele></trkpt>
      <trkpt lat="45.185992" lon="8.101187"><ele>152</ele></trkpt>
      <trkpt lat="45.185967" lon="8.101199"><ele>152</ele></trkpt>
      <trkpt lat="45.185945" lon="8.101221"><ele>152</ele></trkpt>
      <trkpt lat="45.185764" lon="8.101112"><ele>152</ele></trkpt>
      <trkpt lat="45.185718" lon="8.101088"><ele>152</ele></trkpt>
      <trkpt lat="45.185568" lon="8.100938"><ele>152</ele></trkpt>
      <trkpt lat="45.185541" lon="8.100903"><ele>152</ele></trkpt>
      <trkpt lat="45.185536" lon="8.100854"><ele>152</ele></trkpt>
      <trkpt lat="45.185521" lon="8.100809"><ele>152</ele></trkpt>
      <trkpt lat="45.185499" lon="8.100771"><ele>152</ele></trkpt>
      <trkpt lat="45.185470" lon="8.100744"><ele>152</ele></trkpt>
      <trkpt lat="45.185436" lon="8.100729"><ele>152</ele></trkpt>
      <trkpt lat="45.185402" lon="8.100728"><ele>152</ele></trkpt>
      <trkpt lat="45.185368" lon="8.100740"><ele>152</ele></trkpt>
      <trkpt lat="45.185338" lon="8.100765"><ele>152</ele></trkpt>
      <trkpt lat="45.185314" lon="8.100801"><ele>152</ele></trkpt>
      <trkpt lat="45.185298" lon="8.100845"><ele>153</ele></trkpt>
      <trkpt lat="45.185291" lon="8.100893"><ele>153</ele></trkpt>
      <trkpt lat="45.185168" lon="8.100971"><ele>153</ele></trkpt>
      <trkpt lat="45.185134" lon="8.101019"><ele>152</ele></trkpt>
      <trkpt lat="45.185081" lon="8.101008"><ele>152</ele></trkpt>
      <trkpt lat="45.184979" lon="8.100988"><ele>152</ele></trkpt>
      <trkpt lat="45.184187" lon="8.100819"><ele>152</ele></trkpt>
      <trkpt lat="45.181341" lon="8.100146"><ele>152</ele></trkpt>
      <trkpt lat="45.179577" lon="8.099696"><ele>150</ele></trkpt>
      <trkpt lat="45.175740" lon="8.098853"><ele>155</ele></trkpt>
      <trkpt lat="45.175613" lon="8.098824"><ele>156</ele></trkpt>
      <trkpt lat="45.175565" lon="8.098813"><ele>156</ele></trkpt>
      <trkpt lat="45.175479" lon="8.098794"><ele>156</ele></trkpt>
      <trkpt lat="45.174798" lon="8.098641"><ele>156</ele></trkpt>
      <trkpt lat="45.174580" lon="8.098552"><ele>156</ele></trkpt>
      <trkpt lat="45.174396" lon="8.098447"><ele>156</ele></trkpt>
      <trkpt lat="45.174136" lon="8.098206"><ele>155</ele></trkpt>
      <trkpt lat="45.173935" lon="8.097941"><ele>154</ele></trkpt>
      <trkpt lat="45.173734" lon="8.097563"><ele>154</ele></trkpt>
      <trkpt lat="45.173363" lon="8.096782"><ele>154</ele></trkpt>
      <trkpt lat="45.173189" lon="8.096462"><ele>154</ele></trkpt>
      <trkpt lat="45.173008" lon="8.096180"><ele>154</ele></trkpt>
      <trkpt lat="45.171967" lon="8.094590"><ele>152</ele></trkpt>
      <trkpt lat="45.171560" lon="8.093967"><ele>153</ele></trkpt>
      <trkpt lat="45.170629" lon="8.092545"><ele>153</ele></trkpt>
      <trkpt lat="45.170327" lon="8.092083"><ele>152</ele></trkpt>
      <trkpt lat="45.169539" lon="8.090909"><ele>152</ele></trkpt>
      <trkpt lat="45.168391" lon="8.089182"><ele>153</ele></trkpt>
      <trkpt lat="45.168045" lon="8.088633"><ele>154</ele></trkpt>
      <trkpt lat="45.167683" lon="8.087977"><ele>154</ele></trkpt>
      <trkpt lat="45.167341" lon="8.087356"><ele>154</ele></trkpt>
      <trkpt lat="45.166877" lon="8.086188"><ele>153</ele></trkpt>
      <trkpt lat="45.166694" lon="8.085656"><ele>154</ele></trkpt>
      <trkpt lat="45.166323" lon="8.084681"><ele>154</ele></trkpt>
      <trkpt lat="45.165639" lon="8.082785"><ele>157</ele></trkpt>
      <trkpt lat="45.165343" lon="8.082175"><ele>158</ele></trkpt>
      <trkpt lat="45.164927" lon="8.081491"><ele>158</ele></trkpt>
      <trkpt lat="45.164733" lon="8.081252"><ele>158</ele></trkpt>
      <trkpt lat="45.164173" lon="8.080652"><ele>160</ele></trkpt>
      <trkpt lat="45.163723" lon="8.080191"><ele>160</ele></trkpt>
      <trkpt lat="45.158921" lon="8.075511"><ele>167</ele></trkpt>
      <trkpt lat="45.158419" lon="8.074995"><ele>169</ele></trkpt>
      <trkpt lat="45.158282" lon="8.074854"><ele>170</ele></trkpt>
      <trkpt lat="45.158014" lon="8.074407"><ele>171</ele></trkpt>
      <trkpt lat="45.157933" lon="8.074220"><ele>170</ele></trkpt>
      <trkpt lat="45.157961" lon="8.074188"><ele>170</ele></trkpt>
      <trkpt lat="45.157983" lon="8.074147"><ele>170</ele></trkpt>
      <trkpt lat="45.157996" lon="8.074099"><ele>170</ele></trkpt>
      <trkpt lat="45.158000" lon="8.074048"><ele>170</ele></trkpt>
      <trkpt lat="45.157993" lon="8.073990"><ele>170</ele></trkpt>
      <trkpt lat="45.157974" lon="8.073937"><ele>170</ele></trkpt>
      <trkpt lat="45.157945" lon="8.073895"><ele>170</ele></trkpt>
      <trkpt lat="45.157909" lon="8.073868"><ele>170</ele></trkpt>
      <trkpt lat="45.157868" lon="8.073857"><ele>170</ele></trkpt>
      <trkpt lat="45.157827" lon="8.073863"><ele>170</ele></trkpt>
      <trkpt lat="45.157789" lon="8.073887"><ele>171</ele></trkpt>
      <trkpt lat="45.157686" lon="8.073624"><ele>170</ele></trkpt>
      <trkpt lat="45.157348" lon="8.072399"><ele>170</ele></trkpt>
      <trkpt lat="45.156679" lon="8.069971"><ele>170</ele></trkpt>
      <trkpt lat="45.156481" lon="8.069221"><ele>169</ele></trkpt>
      <trkpt lat="45.156470" lon="8.069178"><ele>169</ele></trkpt>
      <trkpt lat="45.156238" lon="8.068298"><ele>169</ele></trkpt>
      <trkpt lat="45.156190" lon="8.068131"><ele>169</ele></trkpt>
      <trkpt lat="45.155733" lon="8.066433"><ele>168</ele></trkpt>
      <trkpt lat="45.155650" lon="8.066192"><ele>168</ele></trkpt>
      <trkpt lat="45.155605" lon="8.066061"><ele>168</ele></trkpt>
      <trkpt lat="45.155616" lon="8.065988"><ele>168</ele></trkpt>
      <trkpt lat="45.155609" lon="8.065915"><ele>168</ele></trkpt>
      <trkpt lat="45.155585" lon="8.065849"><ele>169</ele></trkpt>
      <trkpt lat="45.155596" lon="8.065625"><ele>168</ele></trkpt>
      <trkpt lat="45.155616" lon="8.065462"><ele>168</ele></trkpt>
      <trkpt lat="45.155689" lon="8.064799"><ele>168</ele></trkpt>
      <trkpt lat="45.155741" lon="8.064414"><ele>168</ele></trkpt>
      <trkpt lat="45.155980" lon="8.062612"><ele>167</ele></trkpt>
      <trkpt lat="45.156035" lon="8.062200"><ele>167</ele></trkpt>
      <trkpt lat="45.156136" lon="8.060820"><ele>167</ele></trkpt>
      <trkpt lat="45.156160" lon="8.060423"><ele>167</ele></trkpt>
      <trkpt lat="45.156167" lon="8.060193"><ele>167</ele></trkpt>
      <trkpt lat="45.156170" lon="8.060120"><ele>167</ele></trkpt>
      <trkpt lat="45.156167" lon="8.059956"><ele>167</ele></trkpt>
      <trkpt lat="45.156152" lon="8.059819"><ele>167</ele></trkpt>
      <trkpt lat="45.156148" lon="8.059781"><ele>167</ele></trkpt>
      <trkpt lat="45.156093" lon="8.059418"><ele>167</ele></trkpt>
      <trkpt lat="45.156020" lon="8.059145"><ele>167</ele></trkpt>
      <trkpt lat="45.155919" lon="8.058875"><ele>168</ele></trkpt>
      <trkpt lat="45.155807" lon="8.058632"><ele>168</ele></trkpt>
      <trkpt lat="45.155691" lon="8.058453"><ele>168</ele></trkpt>
      <trkpt lat="45.155526" lon="8.058215"><ele>168</ele></trkpt>
      <trkpt lat="45.155353" lon="8.057999"><ele>169</ele></trkpt>
      <trkpt lat="45.155237" lon="8.057854"><ele>169</ele></trkpt>
      <trkpt lat="45.154995" lon="8.057552"><ele>170</ele></trkpt>
      <trkpt lat="45.154941" lon="8.057485"><ele>170</ele></trkpt>
      <trkpt lat="45.154469" lon="8.056915"><ele>170</ele></trkpt>
      <trkpt lat="45.154399" lon="8.056820"><ele>170</ele></trkpt>
      <trkpt lat="45.154220" lon="8.056579"><ele>170</ele></trkpt>
      <trkpt lat="45.154158" lon="8.056494"><ele>170</ele></trkpt>
      <trkpt lat="45.154134" lon="8.056466"><ele>170</ele></trkpt>
      <trkpt lat="45.154044" lon="8.056359"><ele>170</ele></trkpt>
      <trkpt lat="45.153988" lon="8.056311"><ele>170</ele></trkpt>
      <trkpt lat="45.153953" lon="8.056280"><ele>170</ele></trkpt>
      <trkpt lat="45.153850" lon="8.056161"><ele>170</ele></trkpt>
      <trkpt lat="45.153812" lon="8.056120"><ele>170</ele></trkpt>
      <trkpt lat="45.153806" lon="8.056100"><ele>170</ele></trkpt>
      <trkpt lat="45.153783" lon="8.056072"><ele>170</ele></trkpt>
      <trkpt lat="45.153768" lon="8.056066"><ele>170</ele></trkpt>
      <trkpt lat="45.153616" lon="8.055812"><ele>170</ele></trkpt>
      <trkpt lat="45.153512" lon="8.055515"><ele>171</ele></trkpt>
      <trkpt lat="45.153415" lon="8.055228"><ele>170</ele></trkpt>
      <trkpt lat="45.153267" lon="8.054793"><ele>170</ele></trkpt>
      <trkpt lat="45.153214" lon="8.054634"><ele>170</ele></trkpt>
      <trkpt lat="45.153177" lon="8.054527"><ele>170</ele></trkpt>
      <trkpt lat="45.153145" lon="8.054433"><ele>170</ele></trkpt>
      <trkpt lat="45.153010" lon="8.054022"><ele>171</ele></trkpt>
      <trkpt lat="45.152912" lon="8.053722"><ele>171</ele></trkpt>
      <trkpt lat="45.152890" lon="8.053655"><ele>171</ele></trkpt>
      <trkpt lat="45.152583" lon="8.052716"><ele>172</ele></trkpt>
      <trkpt lat="45.152522" lon="8.052549"><ele>172</ele></trkpt>
      <trkpt lat="45.152375" lon="8.052143"><ele>172</ele></trkpt>
      <trkpt lat="45.152341" lon="8.052049"><ele>172</ele></trkpt>
      <trkpt lat="45.152333" lon="8.051897"><ele>172</ele></trkpt>
      <trkpt lat="45.152331" lon="8.051853"><ele>172</ele></trkpt>
      <trkpt lat="45.152338" lon="8.051824"><ele>172</ele></trkpt>
      <trkpt lat="45.152352" lon="8.051763"><ele>172</ele></trkpt>
      <trkpt lat="45.152372" lon="8.051740"><ele>172</ele></trkpt>
      <trkpt lat="45.152387" lon="8.051711"><ele>172</ele></trkpt>
      <trkpt lat="45.152396" lon="8.051641"><ele>172</ele></trkpt>
      <trkpt lat="45.152390" lon="8.051603"><ele>172</ele></trkpt>
      <trkpt lat="45.152375" lon="8.051570"><ele>172</ele></trkpt>
      <trkpt lat="45.152355" lon="8.051545"><ele>172</ele></trkpt>
      <trkpt lat="45.152329" lon="8.051529"><ele>172</ele></trkpt>
      <trkpt lat="45.152287" lon="8.051528"><ele>172</ele></trkpt>
      <trkpt lat="45.152267" lon="8.051539"><ele>172</ele></trkpt>
      <trkpt lat="45.152077" lon="8.051686"><ele>172</ele></trkpt>
      <trkpt lat="45.152047" lon="8.051704"><ele>172</ele></trkpt>
      <trkpt lat="45.151674" lon="8.051939"><ele>173</ele></trkpt>
      <trkpt lat="45.151461" lon="8.052073"><ele>173</ele></trkpt>
      <trkpt lat="45.151355" lon="8.052140"><ele>173</ele></trkpt>
      <trkpt lat="45.151181" lon="8.052251"><ele>173</ele></trkpt>
      <trkpt lat="45.151012" lon="8.052357"><ele>173</ele></trkpt>
      <trkpt lat="45.150848" lon="8.052459"><ele>173</ele></trkpt>
      <trkpt lat="45.149574" lon="8.053257"><ele>174</ele></trkpt>
      <trkpt lat="45.148440" lon="8.053984"><ele>174</ele></trkpt>
      <trkpt lat="45.147902" lon="8.054329"><ele>175</ele></trkpt>
      <trkpt lat="45.147041" lon="8.054880"><ele>177</ele></trkpt>
      <trkpt lat="45.146968" lon="8.054927"><ele>177</ele></trkpt>
      <trkpt lat="45.146323" lon="8.055326"><ele>178</ele></trkpt>
      <trkpt lat="45.145853" lon="8.055529"><ele>178</ele></trkpt>
      <trkpt lat="45.145336" lon="8.055669"><ele>178</ele></trkpt>
      <trkpt lat="45.144949" lon="8.055719"><ele>180</ele></trkpt>
      <trkpt lat="45.142515" lon="8.055566"><ele>187</ele></trkpt>
      <trkpt lat="45.142195" lon="8.055546"><ele>188</ele></trkpt>
      <trkpt lat="45.140369" lon="8.055428"><ele>190</ele></trkpt>
      <trkpt lat="45.136383" lon="8.055171"><ele>193</ele></trkpt>
      <trkpt lat="45.136002" lon="8.055146"><ele>194</ele></trkpt>
      <trkpt lat="45.135812" lon="8.055134"><ele>195</ele></trkpt>
      <trkpt lat="45.135404" lon="8.055166"><ele>196</ele></trkpt>
      <trkpt lat="45.135041" lon="8.055289"><ele>198</ele></trkpt>
      <trkpt lat="45.134339" lon="8.055763"><ele>198</ele></trkpt>
      <trkpt lat="45.133227" lon="8.056514"><ele>201</ele></trkpt>
      <trkpt lat="45.132931" lon="8.056718"><ele>202</ele></trkpt>
      <trkpt lat="45.132620" lon="8.056933"><ele>204</ele></trkpt>
      <trkpt lat="45.132428" lon="8.057065"><ele>206</ele></trkpt>
      <trkpt lat="45.129962" lon="8.058767"><ele>213</ele></trkpt>
      <trkpt lat="45.129812" lon="8.058845"><ele>214</ele></trkpt>
      <trkpt lat="45.129713" lon="8.058897"><ele>214</ele></trkpt>
      <trkpt lat="45.129406" lon="8.058954"><ele>213</ele></trkpt>
      <trkpt lat="45.128958" lon="8.059014"><ele>214</ele></trkpt>
      <trkpt lat="45.128107" lon="8.059146"><ele>218</ele></trkpt>
      <trkpt lat="45.127752" lon="8.059075"><ele>218</ele></trkpt>
      <trkpt lat="45.125933" lon="8.058249"><ele>221</ele></trkpt>
      <trkpt lat="45.124616" lon="8.057652"><ele>222</ele></trkpt>
      <trkpt lat="45.124307" lon="8.057564"><ele>223</ele></trkpt>
      <trkpt lat="45.124137" lon="8.057545"><ele>223</ele></trkpt>
      <trkpt lat="45.123818" lon="8.057610"><ele>224</ele></trkpt>
      <trkpt lat="45.123036" lon="8.058196"><ele>226</ele></trkpt>
      <trkpt lat="45.121872" lon="8.059126"><ele>232</ele></trkpt>
      <trkpt lat="45.121553" lon="8.059381"><ele>234</ele></trkpt>
      <trkpt lat="45.120951" lon="8.059862"><ele>237</ele></trkpt>
      <trkpt lat="45.120354" lon="8.060339"><ele>244</ele></trkpt>
      <trkpt lat="45.119996" lon="8.060626"><ele>248</ele></trkpt>
      <trkpt lat="45.119745" lon="8.060919"><ele>250</ele></trkpt>
      <trkpt lat="45.119534" lon="8.061284"><ele>253</ele></trkpt>
      <trkpt lat="45.119093" lon="8.062363"><ele>260</ele></trkpt>
      <trkpt lat="45.118929" lon="8.062773"><ele>262</ele></trkpt>
      <trkpt lat="45.118829" lon="8.063021"><ele>264</ele></trkpt>
      <trkpt lat="45.118753" lon="8.063208"><ele>265</ele></trkpt>
      <trkpt lat="45.118359" lon="8.064188"><ele>270</ele></trkpt>
      <trkpt lat="45.118309" lon="8.064296"><ele>269</ele></trkpt>
      <trkpt lat="45.118248" lon="8.064426"><ele>270</ele></trkpt>
      <trkpt lat="45.118192" lon="8.064546"><ele>270</ele></trkpt>
      <trkpt lat="45.117979" lon="8.064793"><ele>272</ele></trkpt>
      <trkpt lat="45.116866" lon="8.065550"><ele>284</ele></trkpt>
      <trkpt lat="45.115947" lon="8.066251"><ele>293</ele></trkpt>
      <trkpt lat="45.115580" lon="8.066422"><ele>296</ele></trkpt>
      <trkpt lat="45.115238" lon="8.066513"><ele>301</ele></trkpt>
      <trkpt lat="45.114820" lon="8.066589"><ele>304</ele></trkpt>
      <trkpt lat="45.114425" lon="8.066779"><ele>309</ele></trkpt>
      <trkpt lat="45.114078" lon="8.067040"><ele>310</ele></trkpt>
      <trkpt lat="45.113576" lon="8.067519"><ele>310</ele></trkpt>
      <trkpt lat="45.113428" lon="8.067669"><ele>310</ele></trkpt>
      <trkpt lat="45.113223" lon="8.067870"><ele>310</ele></trkpt>
      <trkpt lat="45.113035" lon="8.068065"><ele>309</ele></trkpt>
      <trkpt lat="45.112948" lon="8.068152"><ele>309</ele></trkpt>
      <trkpt lat="45.112929" lon="8.068171"><ele>309</ele></trkpt>
      <trkpt lat="45.112923" lon="8.068177"><ele>309</ele></trkpt>
      <trkpt lat="45.112843" lon="8.068256"><ele>308</ele></trkpt>
      <trkpt lat="45.112735" lon="8.068363"><ele>308</ele></trkpt>
      <trkpt lat="45.112650" lon="8.068448"><ele>308</ele></trkpt>
      <trkpt lat="45.112231" lon="8.068863"><ele>307</ele></trkpt>
      <trkpt lat="45.111890" lon="8.069200"><ele>306</ele></trkpt>
      <trkpt lat="45.111848" lon="8.069242"><ele>306</ele></trkpt>
      <trkpt lat="45.111085" lon="8.069999"><ele>300</ele></trkpt>
      <trkpt lat="45.110700" lon="8.070363"><ele>297</ele></trkpt>
      <trkpt lat="45.110284" lon="8.070670"><ele>294</ele></trkpt>
      <trkpt lat="45.109552" lon="8.071042"><ele>291</ele></trkpt>
      <trkpt lat="45.107258" lon="8.072071"><ele>282</ele></trkpt>
      <trkpt lat="45.107098" lon="8.072141"><ele>281</ele></trkpt>
      <trkpt lat="45.106526" lon="8.072395"><ele>279</ele></trkpt>
      <trkpt lat="45.106508" lon="8.072403"><ele>279</ele></trkpt>
      <trkpt lat="45.106162" lon="8.072559"><ele>278</ele></trkpt>
      <trkpt lat="45.105680" lon="8.072776"><ele>276</ele></trkpt>
      <trkpt lat="45.105379" lon="8.072911"><ele>276</ele></trkpt>
      <trkpt lat="45.105254" lon="8.072967"><ele>275</ele></trkpt>
      <trkpt lat="45.104872" lon="8.073137"><ele>274</ele></trkpt>
      <trkpt lat="45.104710" lon="8.073210"><ele>273</ele></trkpt>
      <trkpt lat="45.104232" lon="8.073423"><ele>272</ele></trkpt>
      <trkpt lat="45.104171" lon="8.073450"><ele>272</ele></trkpt>
      <trkpt lat="45.103989" lon="8.073532"><ele>272</ele></trkpt>
      <trkpt lat="45.103557" lon="8.073725"><ele>271</ele></trkpt>
      <trkpt lat="45.103273" lon="8.073851"><ele>270</ele></trkpt>
      <trkpt lat="45.103118" lon="8.073935"><ele>269</ele></trkpt>
      <trkpt lat="45.103026" lon="8.073985"><ele>269</ele></trkpt>
      <trkpt lat="45.102969" lon="8.074040"><ele>269</ele></trkpt>
      <trkpt lat="45.102838" lon="8.074170"><ele>268</ele></trkpt>
      <trkpt lat="45.102659" lon="8.074521"><ele>267</ele></trkpt>
      <trkpt lat="45.102464" lon="8.075308"><ele>267</ele></trkpt>
      <trkpt lat="45.102430" lon="8.075433"><ele>266</ele></trkpt>
      <trkpt lat="45.102283" lon="8.076020"><ele>266</ele></trkpt>
      <trkpt lat="45.102257" lon="8.076124"><ele>267</ele></trkpt>
      <trkpt lat="45.102121" lon="8.076457"><ele>268</ele></trkpt>
      <trkpt lat="45.101964" lon="8.076767"><ele>270</ele></trkpt>
      <trkpt lat="45.101572" lon="8.077499"><ele>268</ele></trkpt>
      <trkpt lat="45.100879" lon="8.078769"><ele>270</ele></trkpt>
      <trkpt lat="45.100720" lon="8.079060"><ele>269</ele></trkpt>
      <trkpt lat="45.100160" lon="8.080114"><ele>268</ele></trkpt>
      <trkpt lat="45.099962" lon="8.080487"><ele>268</ele></trkpt>
      <trkpt lat="45.099136" lon="8.082042"><ele>264</ele></trkpt>
      <trkpt lat="45.098816" lon="8.082589"><ele>262</ele></trkpt>
      <trkpt lat="45.098716" lon="8.082726"><ele>260</ele></trkpt>
      <trkpt lat="45.098509" lon="8.083011"><ele>259</ele></trkpt>
      <trkpt lat="45.098098" lon="8.083452"><ele>258</ele></trkpt>
      <trkpt lat="45.096137" lon="8.085473"><ele>255</ele></trkpt>
      <trkpt lat="45.094860" lon="8.086786"><ele>256</ele></trkpt>
      <trkpt lat="45.094060" lon="8.087625"><ele>256</ele></trkpt>
      <trkpt lat="45.093741" lon="8.087954"><ele>256</ele></trkpt>
      <trkpt lat="45.093474" lon="8.088268"><ele>256</ele></trkpt>
      <trkpt lat="45.093361" lon="8.088436"><ele>256</ele></trkpt>
      <trkpt lat="45.093244" lon="8.088653"><ele>256</ele></trkpt>
      <trkpt lat="45.093106" lon="8.088980"><ele>256</ele></trkpt>
      <trkpt lat="45.093030" lon="8.089181"><ele>256</ele></trkpt>
      <trkpt lat="45.093000" lon="8.089261"><ele>256</ele></trkpt>
      <trkpt lat="45.092913" lon="8.089491"><ele>256</ele></trkpt>
      <trkpt lat="45.092831" lon="8.089708"><ele>256</ele></trkpt>
      <trkpt lat="45.092754" lon="8.089915"><ele>256</ele></trkpt>
      <trkpt lat="45.092708" lon="8.090036"><ele>256</ele></trkpt>
      <trkpt lat="45.092609" lon="8.090299"><ele>256</ele></trkpt>
      <trkpt lat="45.092491" lon="8.090611"><ele>256</ele></trkpt>
      <trkpt lat="45.092420" lon="8.090800"><ele>256</ele></trkpt>
      <trkpt lat="45.092323" lon="8.091059"><ele>256</ele></trkpt>
      <trkpt lat="45.091232" lon="8.093975"><ele>255</ele></trkpt>
      <trkpt lat="45.091087" lon="8.094364"><ele>254</ele></trkpt>
      <trkpt lat="45.090718" lon="8.095350"><ele>253</ele></trkpt>
      <trkpt lat="45.090346" lon="8.096345"><ele>250</ele></trkpt>
      <trkpt lat="45.090334" lon="8.096376"><ele>250</ele></trkpt>
      <trkpt lat="45.090118" lon="8.096947"><ele>248</ele></trkpt>
      <trkpt lat="45.089850" lon="8.097657"><ele>247</ele></trkpt>
      <trkpt lat="45.089521" lon="8.098530"><ele>246</ele></trkpt>
      <trkpt lat="45.089498" lon="8.098593"><ele>246</ele></trkpt>
      <trkpt lat="45.089317" lon="8.099081"><ele>246</ele></trkpt>
      <trkpt lat="45.088912" lon="8.100176"><ele>246</ele></trkpt>
      <trkpt lat="45.088852" lon="8.100339"><ele>246</ele></trkpt>
      <trkpt lat="45.088621" lon="8.100959"><ele>246</ele></trkpt>
      <trkpt lat="45.088004" lon="8.102610"><ele>246</ele></trkpt>
      <trkpt lat="45.087795" lon="8.103170"><ele>247</ele></trkpt>
      <trkpt lat="45.087609" lon="8.103668"><ele>247</ele></trkpt>
      <trkpt lat="45.087495" lon="8.103661"><ele>246</ele></trkpt>
      <trkpt lat="45.087066" lon="8.103631"><ele>243</ele></trkpt>
      <trkpt lat="45.086466" lon="8.103536"><ele>240</ele></trkpt>
      <trkpt lat="45.085917" lon="8.103449"><ele>239</ele></trkpt>
      <trkpt lat="45.085645" lon="8.103398"><ele>240</ele></trkpt>
      <trkpt lat="45.085522" lon="8.103349"><ele>240</ele></trkpt>
      <trkpt lat="45.085403" lon="8.103278"><ele>240</ele></trkpt>
      <trkpt lat="45.084732" lon="8.102684"><ele>241</ele></trkpt>
      <trkpt lat="45.084234" lon="8.102271"><ele>243</ele></trkpt>
      <trkpt lat="45.083908" lon="8.101978"><ele>246</ele></trkpt>
      <trkpt lat="45.083786" lon="8.101927"><ele>247</ele></trkpt>
      <trkpt lat="45.083705" lon="8.101952"><ele>248</ele></trkpt>
      <trkpt lat="45.083619" lon="8.102011"><ele>248</ele></trkpt>
      <trkpt lat="45.083415" lon="8.102460"><ele>251</ele></trkpt>
      <trkpt lat="45.083266" lon="8.102823"><ele>253</ele></trkpt>
      <trkpt lat="45.083023" lon="8.103329"><ele>257</ele></trkpt>
      <trkpt lat="45.082944" lon="8.103456"><ele>258</ele></trkpt>
      <trkpt lat="45.082843" lon="8.103560"><ele>258</ele></trkpt>
      <trkpt lat="45.082550" lon="8.103781"><ele>260</ele></trkpt>
      <trkpt lat="45.082453" lon="8.103807"><ele>260</ele></trkpt>
      <trkpt lat="45.082319" lon="8.103817"><ele>261</ele></trkpt>
      <trkpt lat="45.082070" lon="8.103817"><ele>263</ele></trkpt>
      <trkpt lat="45.081886" lon="8.103847"><ele>264</ele></trkpt>
      <trkpt lat="45.081778" lon="8.103891"><ele>265</ele></trkpt>
      <trkpt lat="45.081655" lon="8.103985"><ele>266</ele></trkpt>
      <trkpt lat="45.081563" lon="8.104095"><ele>267</ele></trkpt>
      <trkpt lat="45.081467" lon="8.104166"><ele>267</ele></trkpt>
      <trkpt lat="45.080771" lon="8.104276"><ele>263</ele></trkpt>
      <trkpt lat="45.079478" lon="8.104432"><ele>260</ele></trkpt>
      <trkpt lat="45.079337" lon="8.104440"><ele>260</ele></trkpt>
      <trkpt lat="45.079184" lon="8.104412"><ele>261</ele></trkpt>
      <trkpt lat="45.078551" lon="8.104124"><ele>266</ele></trkpt>
      <trkpt lat="45.078299" lon="8.103991"><ele>267</ele></trkpt>
      <trkpt lat="45.078270" lon="8.104147"><ele>268</ele></trkpt>
      <trkpt lat="45.078247" lon="8.104485"><ele>270</ele></trkpt>
      <trkpt lat="45.078256" lon="8.104955"><ele>271</ele></trkpt>
      <trkpt lat="45.078294" lon="8.105280"><ele>272</ele></trkpt>
      <trkpt lat="45.078370" lon="8.105766"><ele>272</ele></trkpt>
      <trkpt lat="45.078449" lon="8.106115"><ele>271</ele></trkpt>
      <trkpt lat="45.078554" lon="8.106526"><ele>271</ele></trkpt>
      <trkpt lat="45.078724" lon="8.107233"><ele>272</ele></trkpt>
      <trkpt lat="45.078763" lon="8.107437"><ele>272</ele></trkpt>
      <trkpt lat="45.078765" lon="8.107581"><ele>272</ele></trkpt>
      <trkpt lat="45.078749" lon="8.107807"><ele>274</ele></trkpt>
      <trkpt lat="45.078679" lon="8.108302"><ele>278</ele></trkpt>
      <trkpt lat="45.078614" lon="8.108828"><ele>282</ele></trkpt>
      <trkpt lat="45.078579" lon="8.109593"><ele>285</ele></trkpt>
      <trkpt lat="45.078572" lon="8.109997"><ele>288</ele></trkpt>
      <trkpt lat="45.078579" lon="8.110273"><ele>288</ele></trkpt>
      <trkpt lat="45.078827" lon="8.111570"><ele>287</ele></trkpt>
      <trkpt lat="45.078910" lon="8.111930"><ele>288</ele></trkpt>
      <trkpt lat="45.078918" lon="8.112039"><ele>288</ele></trkpt>
      <trkpt lat="45.078915" lon="8.112120"><ele>288</ele></trkpt>
      <trkpt lat="45.078860" lon="8.112342"><ele>289</ele></trkpt>
      <trkpt lat="45.078750" lon="8.112550"><ele>289</ele></trkpt>
      <trkpt lat="45.078594" lon="8.112725"><ele>288</ele></trkpt>
      <trkpt lat="45.078445" lon="8.112846"><ele>288</ele></trkpt>
      <trkpt lat="45.078262" lon="8.112922"><ele>286</ele></trkpt>
      <trkpt lat="45.077834" lon="8.113058"><ele>284</ele></trkpt>
      <trkpt lat="45.077554" lon="8.113221"><ele>282</ele></trkpt>
      <trkpt lat="45.077387" lon="8.113371"><ele>280</ele></trkpt>
      <trkpt lat="45.077173" lon="8.113661"><ele>277</ele></trkpt>
      <trkpt lat="45.076927" lon="8.114030"><ele>274</ele></trkpt>
      <trkpt lat="45.076708" lon="8.114388"><ele>270</ele></trkpt>
      <trkpt lat="45.076645" lon="8.114517"><ele>270</ele></trkpt>
      <trkpt lat="45.076521" lon="8.114448"><ele>269</ele></trkpt>
      <trkpt lat="45.076361" lon="8.114407"><ele>268</ele></trkpt>
      <trkpt lat="45.076298" lon="8.114400"><ele>267</ele></trkpt>
      <trkpt lat="45.076127" lon="8.114379"><ele>266</ele></trkpt>
      <trkpt lat="45.075799" lon="8.114358"><ele>265</ele></trkpt>
      <trkpt lat="45.075637" lon="8.114309"><ele>264</ele></trkpt>
      <trkpt lat="45.075482" lon="8.114205"><ele>265</ele></trkpt>
      <trkpt lat="45.075255" lon="8.114023"><ele>266</ele></trkpt>
      <trkpt lat="45.075068" lon="8.113898"><ele>268</ele></trkpt>
      <trkpt lat="45.074634" lon="8.113629"><ele>266</ele></trkpt>
      <trkpt lat="45.074402" lon="8.113496"><ele>264</ele></trkpt>
      <trkpt lat="45.074188" lon="8.113395"><ele>263</ele></trkpt>
      <trkpt lat="45.074067" lon="8.113290"><ele>262</ele></trkpt>
      <trkpt lat="45.073892" lon="8.113102"><ele>260</ele></trkpt>
      <trkpt lat="45.073699" lon="8.112857"><ele>259</ele></trkpt>
      <trkpt lat="45.073457" lon="8.112574"><ele>258</ele></trkpt>
      <trkpt lat="45.073237" lon="8.112303"><ele>256</ele></trkpt>
      <trkpt lat="45.073042" lon="8.112108"><ele>255</ele></trkpt>
      <trkpt lat="45.073010" lon="8.112084"><ele>254</ele></trkpt>
      <trkpt lat="45.072970" lon="8.112069"><ele>254</ele></trkpt>
      <trkpt lat="45.072922" lon="8.112070"><ele>254</ele></trkpt>
      <trkpt lat="45.072882" lon="8.112101"><ele>254</ele></trkpt>
      <trkpt lat="45.072832" lon="8.112167"><ele>254</ele></trkpt>
      <trkpt lat="45.072751" lon="8.112327"><ele>252</ele></trkpt>
      <trkpt lat="45.072307" lon="8.113451"><ele>251</ele></trkpt>
      <trkpt lat="45.072206" lon="8.113660"><ele>251</ele></trkpt>
      <trkpt lat="45.072118" lon="8.113730"><ele>250</ele></trkpt>
      <trkpt lat="45.072007" lon="8.113744"><ele>250</ele></trkpt>
      <trkpt lat="45.071884" lon="8.113685"><ele>250</ele></trkpt>
      <trkpt lat="45.071642" lon="8.113552"><ele>248</ele></trkpt>
      <trkpt lat="45.071489" lon="8.113486"><ele>248</ele></trkpt>
      <trkpt lat="45.071263" lon="8.113423"><ele>246</ele></trkpt>
      <trkpt lat="45.071056" lon="8.113395"><ele>244</ele></trkpt>
      <trkpt lat="45.070885" lon="8.113388"><ele>242</ele></trkpt>
      <trkpt lat="45.070575" lon="8.113455"><ele>242</ele></trkpt>
      <trkpt lat="45.070449" lon="8.113448"><ele>242</ele></trkpt>
      <trkpt lat="45.070139" lon="8.113388"><ele>240</ele></trkpt>
      <trkpt lat="45.069778" lon="8.113256"><ele>237</ele></trkpt>
      <trkpt lat="45.069052" lon="8.113205"><ele>227</ele></trkpt>
      <trkpt lat="45.068353" lon="8.113127"><ele>220</ele></trkpt>
      <trkpt lat="45.067733" lon="8.113011"><ele>214</ele></trkpt>
      <trkpt lat="45.067580" lon="8.113002"><ele>212</ele></trkpt>
      <trkpt lat="45.067096" lon="8.113068"><ele>208</ele></trkpt>
      <trkpt lat="45.066967" lon="8.113059"><ele>207</ele></trkpt>
      <trkpt lat="45.066852" lon="8.113017"><ele>206</ele></trkpt>
      <trkpt lat="45.066728" lon="8.112942"><ele>204</ele></trkpt>
      <trkpt lat="45.066699" lon="8.112912"><ele>203</ele></trkpt>
      <trkpt lat="45.066578" lon="8.112784"><ele>201</ele></trkpt>
      <trkpt lat="45.066437" lon="8.112596"><ele>198</ele></trkpt>
      <trkpt lat="45.066382" lon="8.112523"><ele>197</ele></trkpt>
      <trkpt lat="45.066130" lon="8.112188"><ele>194</ele></trkpt>
      <trkpt lat="45.065944" lon="8.111959"><ele>191</ele></trkpt>
      <trkpt lat="45.065778" lon="8.112058"><ele>190</ele></trkpt>
      <trkpt lat="45.065536" lon="8.112203"><ele>190</ele></trkpt>
      <trkpt lat="45.065406" lon="8.112281"><ele>189</ele></trkpt>
      <trkpt lat="45.065296" lon="8.112287"><ele>189</ele></trkpt>
      <trkpt lat="45.065222" lon="8.112283"><ele>189</ele></trkpt>
      <trkpt lat="45.065185" lon="8.112231"><ele>189</ele></trkpt>
      <trkpt lat="45.065153" lon="8.112202"><ele>189</ele></trkpt>
      <trkpt lat="45.065115" lon="8.112179"><ele>189</ele></trkpt>
      <trkpt lat="45.065065" lon="8.112165"><ele>189</ele></trkpt>
      <trkpt lat="45.065028" lon="8.112166"><ele>190</ele></trkpt>
      <trkpt lat="45.064974" lon="8.112183"><ele>190</ele></trkpt>
      <trkpt lat="45.064929" lon="8.112216"><ele>189</ele></trkpt>
      <trkpt lat="45.064877" lon="8.112283"><ele>189</ele></trkpt>
      <trkpt lat="45.064847" lon="8.112355"><ele>189</ele></trkpt>
      <trkpt lat="45.064832" lon="8.112443"><ele>189</ele></trkpt>
      <trkpt lat="45.064832" lon="8.112507"><ele>189</ele></trkpt>
      <trkpt lat="45.064700" lon="8.112651"><ele>188</ele></trkpt>
      <trkpt lat="45.064165" lon="8.112870"><ele>188</ele></trkpt>
      <trkpt lat="45.063620" lon="8.113046"><ele>188</ele></trkpt>
      <trkpt lat="45.063055" lon="8.113141"><ele>188</ele></trkpt>
      <trkpt lat="45.062422" lon="8.113172"><ele>186</ele></trkpt>
      <trkpt lat="45.061778" lon="8.113155"><ele>186</ele></trkpt>
      <trkpt lat="45.059967" lon="8.112989"><ele>185</ele></trkpt>
      <trkpt lat="45.057900" lon="8.112833"><ele>184</ele></trkpt>
      <trkpt lat="45.052482" lon="8.112388"><ele>181</ele></trkpt>
      <trkpt lat="45.046784" lon="8.111930"><ele>179</ele></trkpt>
      <trkpt lat="45.043378" lon="8.111656"><ele>178</ele></trkpt>
      <trkpt lat="45.041907" lon="8.111533"><ele>178</ele></trkpt>
      <trkpt lat="45.041377" lon="8.111509"><ele>178</ele></trkpt>
      <trkpt lat="45.040836" lon="8.111516"><ele>177</ele></trkpt>
      <trkpt lat="45.040247" lon="8.111599"><ele>176</ele></trkpt>
      <trkpt lat="45.039671" lon="8.111739"><ele>175</ele></trkpt>
      <trkpt lat="45.039113" lon="8.111936"><ele>175</ele></trkpt>
      <trkpt lat="45.038466" lon="8.112220"><ele>175</ele></trkpt>
      <trkpt lat="45.037824" lon="8.112601"><ele>174</ele></trkpt>
      <trkpt lat="45.037206" lon="8.113065"><ele>175</ele></trkpt>
      <trkpt lat="45.035469" lon="8.114261"><ele>174</ele></trkpt>
      <trkpt lat="45.035430" lon="8.114288"><ele>174</ele></trkpt>
      <trkpt lat="45.035165" lon="8.114493"><ele>174</ele></trkpt>
      <trkpt lat="45.034869" lon="8.114724"><ele>174</ele></trkpt>
      <trkpt lat="45.034139" lon="8.115336"><ele>174</ele></trkpt>
      <trkpt lat="45.033713" lon="8.115775"><ele>173</ele></trkpt>
      <trkpt lat="45.032394" lon="8.117574"><ele>172</ele></trkpt>
      <trkpt lat="45.030724" lon="8.119913"><ele>170</ele></trkpt>
      <trkpt lat="45.030475" lon="8.120315"><ele>170</ele></trkpt>
      <trkpt lat="45.030337" lon="8.120634"><ele>170</ele></trkpt>
      <trkpt lat="45.030248" lon="8.120913"><ele>170</ele></trkpt>
      <trkpt lat="45.030226" lon="8.120983"><ele>170</ele></trkpt>
      <trkpt lat="45.029629" lon="8.123224"><ele>169</ele></trkpt>
      <trkpt lat="45.029214" lon="8.124782"><ele>169</ele></trkpt>
      <trkpt lat="45.028892" lon="8.126003"><ele>168</ele></trkpt>
      <trkpt lat="45.028041" lon="8.129238"><ele>168</ele></trkpt>
      <trkpt lat="45.027960" lon="8.129546"><ele>168</ele></trkpt>
      <trkpt lat="45.027918" lon="8.129705"><ele>168</ele></trkpt>
      <trkpt lat="45.027592" lon="8.130941"><ele>167</ele></trkpt>
      <trkpt lat="45.026229" lon="8.136211"><ele>165</ele></trkpt>
      <trkpt lat="45.026020" lon="8.137019"><ele>164</ele></trkpt>
      <trkpt lat="45.024466" lon="8.145640"><ele>162</ele></trkpt>
      <trkpt lat="45.023232" lon="8.152701"><ele>159</ele></trkpt>
      <trkpt lat="45.022970" lon="8.153669"><ele>159</ele></trkpt>
      <trkpt lat="45.022675" lon="8.154637"><ele>159</ele></trkpt>
      <trkpt lat="45.021764" lon="8.157099"><ele>159</ele></trkpt>
      <trkpt lat="45.021491" lon="8.157715"><ele>158</ele></trkpt>
      <trkpt lat="45.021151" lon="8.158219"><ele>157</ele></trkpt>
      <trkpt lat="45.020740" lon="8.158659"><ele>156</ele></trkpt>
      <trkpt lat="45.017823" lon="8.161342"><ele>156</ele></trkpt>
      <trkpt lat="45.016320" lon="8.163168"><ele>154</ele></trkpt>
      <trkpt lat="45.014718" lon="8.165175"><ele>154</ele></trkpt>
      <trkpt lat="45.013710" lon="8.166496"><ele>153</ele></trkpt>
      <trkpt lat="45.013356" lon="8.167041"><ele>154</ele></trkpt>
      <trkpt lat="45.013094" lon="8.167538"><ele>154</ele></trkpt>
      <trkpt lat="45.012817" lon="8.168259"><ele>154</ele></trkpt>
      <trkpt lat="45.012503" lon="8.169343"><ele>153</ele></trkpt>
      <trkpt lat="45.012170" lon="8.170565"><ele>153</ele></trkpt>
      <trkpt lat="45.011176" lon="8.174206"><ele>151</ele></trkpt>
      <trkpt lat="45.009836" lon="8.179167"><ele>150</ele></trkpt>
      <trkpt lat="45.009588" lon="8.180109"><ele>150</ele></trkpt>
      <trkpt lat="45.009194" lon="8.181603"><ele>151</ele></trkpt>
      <trkpt lat="45.008985" lon="8.182366"><ele>151</ele></trkpt>
      <trkpt lat="45.008975" lon="8.182404"><ele>151</ele></trkpt>
      <trkpt lat="45.008958" lon="8.182465"><ele>151</ele></trkpt>
      <trkpt lat="45.008904" lon="8.182661"><ele>151</ele></trkpt>
      <trkpt lat="45.008858" lon="8.182831"><ele>151</ele></trkpt>
      <trkpt lat="45.008841" lon="8.182892"><ele>151</ele></trkpt>
      <trkpt lat="45.008033" lon="8.185870"><ele>150</ele></trkpt>
      <trkpt lat="45.007181" lon="8.189009"><ele>149</ele></trkpt>
      <trkpt lat="45.006865" lon="8.190088"><ele>148</ele></trkpt>
      <trkpt lat="45.006599" lon="8.190743"><ele>149</ele></trkpt>
      <trkpt lat="45.006298" lon="8.191327"><ele>149</ele></trkpt>
      <trkpt lat="45.004428" lon="8.194044"><ele>148</ele></trkpt>
      <trkpt lat="45.004043" lon="8.194773"><ele>148</ele></trkpt>
      <trkpt lat="45.003824" lon="8.195310"><ele>148</ele></trkpt>
      <trkpt lat="45.003496" lon="8.196386"><ele>147</ele></trkpt>
      <trkpt lat="45.002826" lon="8.198889"><ele>148</ele></trkpt>
      <trkpt lat="45.002244" lon="8.200991"><ele>146</ele></trkpt>
      <trkpt lat="45.002080" lon="8.201535"><ele>145</ele></trkpt>
      <trkpt lat="45.001692" lon="8.202618"><ele>146</ele></trkpt>
      <trkpt lat="45.001112" lon="8.203914"><ele>146</ele></trkpt>
      <trkpt lat="45.000524" lon="8.204928"><ele>145</ele></trkpt>
      <trkpt lat="44.999468" lon="8.206486"><ele>145</ele></trkpt>
      <trkpt lat="44.997613" lon="8.209186"><ele>143</ele></trkpt>
      <trkpt lat="44.997007" lon="8.210046"><ele>143</ele></trkpt>
      <trkpt lat="44.992723" lon="8.216295"><ele>142</ele></trkpt>
      <trkpt lat="44.992493" lon="8.216608"><ele>142</ele></trkpt>
      <trkpt lat="44.992189" lon="8.216955"><ele>142</ele></trkpt>
      <trkpt lat="44.992094" lon="8.217096"><ele>142</ele></trkpt>
      <trkpt lat="44.991952" lon="8.217339"><ele>142</ele></trkpt>
      <trkpt lat="44.991721" lon="8.217772"><ele>142</ele></trkpt>
      <trkpt lat="44.991535" lon="8.218045"><ele>142</ele></trkpt>
      <trkpt lat="44.989356" lon="8.221216"><ele>141</ele></trkpt>
      <trkpt lat="44.988636" lon="8.222272"><ele>140</ele></trkpt>
      <trkpt lat="44.988442" lon="8.222631"><ele>140</ele></trkpt>
      <trkpt lat="44.988296" lon="8.223020"><ele>140</ele></trkpt>
      <trkpt lat="44.988169" lon="8.223554"><ele>140</ele></trkpt>
      <trkpt lat="44.988102" lon="8.224013"><ele>140</ele></trkpt>
      <trkpt lat="44.988097" lon="8.224035"><ele>140</ele></trkpt>
      <trkpt lat="44.987495" lon="8.224002"><ele>140</ele></trkpt>
      <trkpt lat="44.987297" lon="8.224058"><ele>139</ele></trkpt>
      <trkpt lat="44.987094" lon="8.224126"><ele>139</ele></trkpt>
      <trkpt lat="44.986692" lon="8.224258"><ele>139</ele></trkpt>
      <trkpt lat="44.986087" lon="8.224456"><ele>139</ele></trkpt>
      <trkpt lat="44.985286" lon="8.224716"><ele>139</ele></trkpt>
      <trkpt lat="44.985189" lon="8.224748"><ele>138</ele></trkpt>
      <trkpt lat="44.980048" lon="8.226475"><ele>137</ele></trkpt>
      <trkpt lat="44.979718" lon="8.226577"><ele>137</ele></trkpt>
      <trkpt lat="44.979576" lon="8.226628"><ele>137</ele></trkpt>
      <trkpt lat="44.979077" lon="8.226810"><ele>136</ele></trkpt>
      <trkpt lat="44.979022" lon="8.226827"><ele>136</ele></trkpt>
      <trkpt lat="44.977852" lon="8.227191"><ele>137</ele></trkpt>
      <trkpt lat="44.975684" lon="8.227922"><ele>136</ele></trkpt>
      <trkpt lat="44.975157" lon="8.228099"><ele>136</ele></trkpt>
      <trkpt lat="44.974849" lon="8.228203"><ele>136</ele></trkpt>
      <trkpt lat="44.973796" lon="8.228558"><ele>135</ele></trkpt>
      <trkpt lat="44.973519" lon="8.228622"><ele>136</ele></trkpt>
      <trkpt lat="44.973210" lon="8.228653"><ele>135</ele></trkpt>
      <trkpt lat="44.973077" lon="8.228632"><ele>135</ele></trkpt>
      <trkpt lat="44.972997" lon="8.228626"><ele>135</ele></trkpt>
      <trkpt lat="44.971967" lon="8.228304"><ele>134</ele></trkpt>
      <trkpt lat="44.970029" lon="8.227695"><ele>134</ele></trkpt>
      <trkpt lat="44.969653" lon="8.227575"><ele>134</ele></trkpt>
      <trkpt lat="44.967909" lon="8.227018"><ele>134</ele></trkpt>
      <trkpt lat="44.967858" lon="8.227001"><ele>134</ele></trkpt>
      <trkpt lat="44.966816" lon="8.226661"><ele>134</ele></trkpt>
      <trkpt lat="44.966790" lon="8.226652"><ele>133</ele></trkpt>
      <trkpt lat="44.965772" lon="8.226320"><ele>133</ele></trkpt>
      <trkpt lat="44.965277" lon="8.226160"><ele>133</ele></trkpt>
      <trkpt lat="44.963054" lon="8.225455"><ele>133</ele></trkpt>
      <trkpt lat="44.961619" lon="8.224987"><ele>133</ele></trkpt>
      <trkpt lat="44.961508" lon="8.224950"><ele>133</ele></trkpt>
      <trkpt lat="44.960882" lon="8.224735"><ele>132</ele></trkpt>
      <trkpt lat="44.960246" lon="8.224517"><ele>132</ele></trkpt>
      <trkpt lat="44.959911" lon="8.224409"><ele>132</ele></trkpt>
      <trkpt lat="44.959421" lon="8.224268"><ele>132</ele></trkpt>
      <trkpt lat="44.958767" lon="8.224079"><ele>133</ele></trkpt>
      <trkpt lat="44.958528" lon="8.223997"><ele>133</ele></trkpt>
      <trkpt lat="44.958210" lon="8.223889"><ele>133</ele></trkpt>
      <trkpt lat="44.957830" lon="8.223761"><ele>133</ele></trkpt>
      <trkpt lat="44.957746" lon="8.223733"><ele>133</ele></trkpt>
      <trkpt lat="44.957410" lon="8.223623"><ele>132</ele></trkpt>
      <trkpt lat="44.957195" lon="8.223556"><ele>132</ele></trkpt>
      <trkpt lat="44.956731" lon="8.223409"><ele>132</ele></trkpt>
      <trkpt lat="44.956458" lon="8.223321"><ele>132</ele></trkpt>
      <trkpt lat="44.955984" lon="8.223169"><ele>132</ele></trkpt>
      <trkpt lat="44.955628" lon="8.223094"><ele>131</ele></trkpt>
      <trkpt lat="44.955189" lon="8.223028"><ele>131</ele></trkpt>
      <trkpt lat="44.954903" lon="8.223047"><ele>130</ele></trkpt>
      <trkpt lat="44.954463" lon="8.223075"><ele>130</ele></trkpt>
      <trkpt lat="44.954240" lon="8.223089"><ele>130</ele></trkpt>
      <trkpt lat="44.953322" lon="8.223182"><ele>130</ele></trkpt>
      <trkpt lat="44.952943" lon="8.223220"><ele>130</ele></trkpt>
      <trkpt lat="44.952587" lon="8.223258"><ele>130</ele></trkpt>
      <trkpt lat="44.950609" lon="8.223456"><ele>129</ele></trkpt>
      <trkpt lat="44.946880" lon="8.223861"><ele>128</ele></trkpt>
      <trkpt lat="44.946476" lon="8.223908"><ele>128</ele></trkpt>
      <trkpt lat="44.946437" lon="8.223912"><ele>128</ele></trkpt>
      <trkpt lat="44.945857" lon="8.223969"><ele>127</ele></trkpt>
      <trkpt lat="44.945304" lon="8.223973"><ele>128</ele></trkpt>
      <trkpt lat="44.944515" lon="8.224049"><ele>127</ele></trkpt>
      <trkpt lat="44.944467" lon="8.224052"><ele>127</ele></trkpt>
      <trkpt lat="44.944331" lon="8.224065"><ele>127</ele></trkpt>
      <trkpt lat="44.943395" lon="8.224154"><ele>128</ele></trkpt>
      <trkpt lat="44.942594" lon="8.224231"><ele>128</ele></trkpt>
      <trkpt lat="44.942411" lon="8.224248"><ele>128</ele></trkpt>
      <trkpt lat="44.937870" lon="8.224715"><ele>127</ele></trkpt>
      <trkpt lat="44.937054" lon="8.224792"><ele>126</ele></trkpt>
      <trkpt lat="44.936793" lon="8.224817"><ele>126</ele></trkpt>
      <trkpt lat="44.936592" lon="8.224836"><ele>126</ele></trkpt>
      <trkpt lat="44.935232" lon="8.224964"><ele>125</ele></trkpt>
      <trkpt lat="44.932586" lon="8.225241"><ele>124</ele></trkpt>
      <trkpt lat="44.932016" lon="8.225296"><ele>125</ele></trkpt>
      <trkpt lat="44.931753" lon="8.225322"><ele>125</ele></trkpt>
      <trkpt lat="44.929025" lon="8.225594"><ele>124</ele></trkpt>
      <trkpt lat="44.928758" lon="8.225622"><ele>124</ele></trkpt>
      <trkpt lat="44.926641" lon="8.225838"><ele>125</ele></trkpt>
      <trkpt lat="44.926434" lon="8.225894"><ele>124</ele></trkpt>
      <trkpt lat="44.926192" lon="8.225914"><ele>124</ele></trkpt>
      <trkpt lat="44.925493" lon="8.225972"><ele>124</ele></trkpt>
      <trkpt lat="44.925288" lon="8.225999"><ele>124</ele></trkpt>
      <trkpt lat="44.924725" lon="8.226053"><ele>125</ele></trkpt>
      <trkpt lat="44.923722" lon="8.226131"><ele>125</ele></trkpt>
      <trkpt lat="44.921881" lon="8.226281"><ele>125</ele></trkpt>
      <trkpt lat="44.921522" lon="8.226278"><ele>124</ele></trkpt>
      <trkpt lat="44.921088" lon="8.226194"><ele>125</ele></trkpt>
      <trkpt lat="44.920900" lon="8.226140"><ele>125</ele></trkpt>
      <trkpt lat="44.920657" lon="8.226048"><ele>125</ele></trkpt>
      <trkpt lat="44.920137" lon="8.225791"><ele>125</ele></trkpt>
      <trkpt lat="44.919932" lon="8.225577"><ele>125</ele></trkpt>
      <trkpt lat="44.919906" lon="8.225549"><ele>125</ele></trkpt>
      <trkpt lat="44.919893" lon="8.225485"><ele>125</ele></trkpt>
      <trkpt lat="44.919866" lon="8.225431"><ele>125</ele></trkpt>
      <trkpt lat="44.919828" lon="8.225393"><ele>125</ele></trkpt>
      <trkpt lat="44.919783" lon="8.225375"><ele>125</ele></trkpt>
      <trkpt lat="44.919736" lon="8.225379"><ele>125</ele></trkpt>
      <trkpt lat="44.919693" lon="8.225405"><ele>125</ele></trkpt>
      <trkpt lat="44.919458" lon="8.225280"><ele>125</ele></trkpt>
      <trkpt lat="44.919159" lon="8.225025"><ele>126</ele></trkpt>
      <trkpt lat="44.918757" lon="8.224712"><ele>126</ele></trkpt>
      <trkpt lat="44.918395" lon="8.224430"><ele>126</ele></trkpt>
      <trkpt lat="44.918125" lon="8.224215"><ele>126</ele></trkpt>
      <trkpt lat="44.918041" lon="8.224148"><ele>126</ele></trkpt>
      <trkpt lat="44.917630" lon="8.223820"><ele>126</ele></trkpt>
      <trkpt lat="44.917519" lon="8.223721"><ele>126</ele></trkpt>
      <trkpt lat="44.917104" lon="8.223371"><ele>125</ele></trkpt>
      <trkpt lat="44.917061" lon="8.223330"><ele>125</ele></trkpt>
      <trkpt lat="44.916891" lon="8.223194"><ele>125</ele></trkpt>
      <trkpt lat="44.916686" lon="8.223029"><ele>125</ele></trkpt>
      <trkpt lat="44.916630" lon="8.222985"><ele>125</ele></trkpt>
      <trkpt lat="44.916232" lon="8.222665"><ele>125</ele></trkpt>
      <trkpt lat="44.916182" lon="8.222625"><ele>125</ele></trkpt>
      <trkpt lat="44.915627" lon="8.222180"><ele>125</ele></trkpt>
      <trkpt lat="44.915525" lon="8.222119"><ele>125</ele></trkpt>
      <trkpt lat="44.915433" lon="8.222054"><ele>125</ele></trkpt>
      <trkpt lat="44.915377" lon="8.222014"><ele>125</ele></trkpt>
      <trkpt lat="44.915333" lon="8.221983"><ele>125</ele></trkpt>
      <trkpt lat="44.915296" lon="8.221956"><ele>125</ele></trkpt>
      <trkpt lat="44.915279" lon="8.221887"><ele>125</ele></trkpt>
      <trkpt lat="44.915264" lon="8.221856"><ele>125</ele></trkpt>
      <trkpt lat="44.915235" lon="8.221818"><ele>125</ele></trkpt>
      <trkpt lat="44.915200" lon="8.221793"><ele>125</ele></trkpt>
      <trkpt lat="44.915161" lon="8.221781"><ele>125</ele></trkpt>
      <trkpt lat="44.915118" lon="8.221785"><ele>125</ele></trkpt>
      <trkpt lat="44.915054" lon="8.221671"><ele>125</ele></trkpt>
      <trkpt lat="44.914940" lon="8.221589"><ele>125</ele></trkpt>
      <trkpt lat="44.914892" lon="8.221552"><ele>125</ele></trkpt>
      <trkpt lat="44.914834" lon="8.221519"><ele>124</ele></trkpt>
      <trkpt lat="44.914402" lon="8.221201"><ele>125</ele></trkpt>
      <trkpt lat="44.914288" lon="8.221109"><ele>125</ele></trkpt>
      <trkpt lat="44.914097" lon="8.220944"><ele>125</ele></trkpt>
      <trkpt lat="44.913989" lon="8.220863"><ele>125</ele></trkpt>
      <trkpt lat="44.913732" lon="8.220669"><ele>124</ele></trkpt>
      <trkpt lat="44.913405" lon="8.220418"><ele>124</ele></trkpt>
      <trkpt lat="44.913202" lon="8.220263"><ele>124</ele></trkpt>
      <trkpt lat="44.913127" lon="8.220232"><ele>124</ele></trkpt>
      <trkpt lat="44.913067" lon="8.220204"><ele>124</ele></trkpt>
      <trkpt lat="44.912994" lon="8.220194"><ele>124</ele></trkpt>
      <trkpt lat="44.912950" lon="8.220184"><ele>124</ele></trkpt>
      <trkpt lat="44.912916" lon="8.220142"><ele>124</ele></trkpt>
      <trkpt lat="44.912888" lon="8.220129"><ele>124</ele></trkpt>
      <trkpt lat="44.912863" lon="8.220129"><ele>124</ele></trkpt>
      <trkpt lat="44.912777" lon="8.220025"><ele>124</ele></trkpt>
      <trkpt lat="44.912728" lon="8.219983"><ele>124</ele></trkpt>
      <trkpt lat="44.912674" lon="8.219969"><ele>124</ele></trkpt>
      <trkpt lat="44.912546" lon="8.219919"><ele>124</ele></trkpt>
      <trkpt lat="44.912391" lon="8.219870"><ele>124</ele></trkpt>
      <trkpt lat="44.912324" lon="8.219851"><ele>123</ele></trkpt>
      <trkpt lat="44.912066" lon="8.219812"><ele>124</ele></trkpt>
      <trkpt lat="44.912016" lon="8.219805"><ele>124</ele></trkpt>
      <trkpt lat="44.911409" lon="8.219711"><ele>123</ele></trkpt>
      <trkpt lat="44.910903" lon="8.219632"><ele>123</ele></trkpt>
      <trkpt lat="44.910520" lon="8.219572"><ele>124</ele></trkpt>
      <trkpt lat="44.910203" lon="8.219523"><ele>124</ele></trkpt>
      <trkpt lat="44.910125" lon="8.219513"><ele>124</ele></trkpt>
      <trkpt lat="44.909958" lon="8.219491"><ele>124</ele></trkpt>
      <trkpt lat="44.909465" lon="8.219418"><ele>123</ele></trkpt>
      <trkpt lat="44.909400" lon="8.219408"><ele>123</ele></trkpt>
      <trkpt lat="44.909334" lon="8.219384"><ele>123</ele></trkpt>
      <trkpt lat="44.909323" lon="8.219321"><ele>123</ele></trkpt>
      <trkpt lat="44.909308" lon="8.219295"><ele>123</ele></trkpt>
      <trkpt lat="44.909288" lon="8.219277"><ele>123</ele></trkpt>
      <trkpt lat="44.909242" lon="8.219270"><ele>123</ele></trkpt>
      <trkpt lat="44.909200" lon="8.219194"><ele>123</ele></trkpt>
      <trkpt lat="44.908562" lon="8.218353"><ele>123</ele></trkpt>
      <trkpt lat="44.908283" lon="8.218005"><ele>123</ele></trkpt>
      <trkpt lat="44.908197" lon="8.217898"><ele>123</ele></trkpt>
      <trkpt lat="44.908040" lon="8.217702"><ele>123</ele></trkpt>
      <trkpt lat="44.907585" lon="8.217040"><ele>123</ele></trkpt>
      <trkpt lat="44.907535" lon="8.216964"><ele>123</ele></trkpt>
      <trkpt lat="44.907370" lon="8.216712"><ele>123</ele></trkpt>
      <trkpt lat="44.907284" lon="8.216565"><ele>123</ele></trkpt>
      <trkpt lat="44.907031" lon="8.216075"><ele>123</ele></trkpt>
      <trkpt lat="44.906979" lon="8.215975"><ele>124</ele></trkpt>
      <trkpt lat="44.906916" lon="8.215832"><ele>124</ele></trkpt>
      <trkpt lat="44.906902" lon="8.215799"><ele>124</ele></trkpt>
      <trkpt lat="44.906751" lon="8.215473"><ele>124</ele></trkpt>
      <trkpt lat="44.906707" lon="8.215380"><ele>124</ele></trkpt>
      <trkpt lat="44.906618" lon="8.215195"><ele>125</ele></trkpt>
      <trkpt lat="44.906548" lon="8.215047"><ele>125</ele></trkpt>
      <trkpt lat="44.906537" lon="8.215026"><ele>125</ele></trkpt>
      <trkpt lat="44.906464" lon="8.214890"><ele>124</ele></trkpt>
      <trkpt lat="44.906387" lon="8.214746"><ele>124</ele></trkpt>
      <trkpt lat="44.906330" lon="8.214609"><ele>124</ele></trkpt>
      <trkpt lat="44.906181" lon="8.214296"><ele>125</ele></trkpt>
      <trkpt lat="44.906146" lon="8.214221"><ele>126</ele></trkpt>
      <trkpt lat="44.905891" lon="8.213685"><ele>126</ele></trkpt>
      <trkpt lat="44.905856" lon="8.213614"><ele>126</ele></trkpt>
      <trkpt lat="44.905741" lon="8.213379"><ele>126</ele></trkpt>
      <trkpt lat="44.905442" lon="8.212749"><ele>126</ele></trkpt>
      <trkpt lat="44.905373" lon="8.212603"><ele>126</ele></trkpt>
      <trkpt lat="44.905394" lon="8.212560"><ele>126</ele></trkpt>
      <trkpt lat="44.905397" lon="8.212534"><ele>126</ele></trkpt>
      <trkpt lat="44.905387" lon="8.212484"><ele>126</ele></trkpt>
      <trkpt lat="44.905357" lon="8.212448"><ele>126</ele></trkpt>
      <trkpt lat="44.905318" lon="8.212443"><ele>126</ele></trkpt>
      <trkpt lat="44.905300" lon="8.212454"><ele>126</ele></trkpt>
      <trkpt lat="44.905241" lon="8.212335"><ele>126</ele></trkpt>
      <trkpt lat="44.905137" lon="8.212123"><ele>126</ele></trkpt>
      <trkpt lat="44.905114" lon="8.212077"><ele>126</ele></trkpt>
      <trkpt lat="44.904988" lon="8.211821"><ele>127</ele></trkpt>
      <trkpt lat="44.904747" lon="8.211333"><ele>126</ele></trkpt>
      <trkpt lat="44.904710" lon="8.211243"><ele>126</ele></trkpt>
      <trkpt lat="44.904675" lon="8.211137"><ele>126</ele></trkpt>
      <trkpt lat="44.904648" lon="8.211053"><ele>126</ele></trkpt>
      <trkpt lat="44.904661" lon="8.211036"><ele>127</ele></trkpt>
      <trkpt lat="44.904663" lon="8.211019"><ele>127</ele></trkpt>
      <trkpt lat="44.904654" lon="8.210997"><ele>127</ele></trkpt>
      <trkpt lat="44.904649" lon="8.210992"><ele>127</ele></trkpt>
      <trkpt lat="44.904638" lon="8.210989"><ele>127</ele></trkpt>
      <trkpt lat="44.904622" lon="8.211001"><ele>126</ele></trkpt>
      <trkpt lat="44.904578" lon="8.210951"><ele>126</ele></trkpt>
      <trkpt lat="44.904387" lon="8.210735"><ele>126</ele></trkpt>
      <trkpt lat="44.903837" lon="8.210047"><ele>124</ele></trkpt>
      <trkpt lat="44.903389" lon="8.209532"><ele>124</ele></trkpt>
      <trkpt lat="44.903350" lon="8.209457"><ele>125</ele></trkpt>
      <trkpt lat="44.903325" lon="8.209405"><ele>125</ele></trkpt>
      <trkpt lat="44.903315" lon="8.209264"><ele>126</ele></trkpt>
      <trkpt lat="44.903300" lon="8.209037"><ele>126</ele></trkpt>
      <trkpt lat="44.903288" lon="8.208869"><ele>126</ele></trkpt>
      <trkpt lat="44.903284" lon="8.208816"><ele>126</ele></trkpt>
      <trkpt lat="44.903277" lon="8.208709"><ele>126</ele></trkpt>
      <trkpt lat="44.903239" lon="8.208171"><ele>128</ele></trkpt>
      <trkpt lat="44.903222" lon="8.207940"><ele>128</ele></trkpt>
      <trkpt lat="44.903186" lon="8.207461"><ele>128</ele></trkpt>
      <trkpt lat="44.903153" lon="8.206994"><ele>129</ele></trkpt>
      <trkpt lat="44.903149" lon="8.206947"><ele>129</ele></trkpt>
      <trkpt lat="44.903058" lon="8.205712"><ele>129</ele></trkpt>
      <trkpt lat="44.903029" lon="8.205324"><ele>129</ele></trkpt>
      <trkpt lat="44.903018" lon="8.205119"><ele>129</ele></trkpt>
      <trkpt lat="44.903013" lon="8.205055"><ele>129</ele></trkpt>
      <trkpt lat="44.903009" lon="8.204990"><ele>129</ele></trkpt>
      <trkpt lat="44.903010" lon="8.204940"><ele>129</ele></trkpt>
      <trkpt lat="44.903016" lon="8.204843"><ele>129</ele></trkpt>
      <trkpt lat="44.903024" lon="8.204801"><ele>129</ele></trkpt>
      <trkpt lat="44.903065" lon="8.204696"><ele>129</ele></trkpt>
      <trkpt lat="44.903081" lon="8.204641"><ele>129</ele></trkpt>
      <trkpt lat="44.903082" lon="8.204602"><ele>129</ele></trkpt>
      <trkpt lat="44.903074" lon="8.204558"><ele>130</ele></trkpt>
      <trkpt lat="44.903057" lon="8.204521"><ele>130</ele></trkpt>
      <trkpt lat="44.903018" lon="8.204482"><ele>130</ele></trkpt>
      <trkpt lat="44.902987" lon="8.204473"><ele>129</ele></trkpt>
      <trkpt lat="44.902956" lon="8.204477"><ele>129</ele></trkpt>
      <trkpt lat="44.902928" lon="8.204494"><ele>129</ele></trkpt>
      <trkpt lat="44.902904" lon="8.204521"><ele>129</ele></trkpt>
      <trkpt lat="44.902888" lon="8.204557"><ele>128</ele></trkpt>
      <trkpt lat="44.902885" lon="8.204569"><ele>128</ele></trkpt>
      <trkpt lat="44.902860" lon="8.204634"><ele>128</ele></trkpt>
      <trkpt lat="44.902832" lon="8.204686"><ele>128</ele></trkpt>
      <trkpt lat="44.902729" lon="8.204786"><ele>128</ele></trkpt>
      <trkpt lat="44.902697" lon="8.204814"><ele>128</ele></trkpt>
      <trkpt lat="44.902666" lon="8.204832"><ele>128</ele></trkpt>
      <trkpt lat="44.902486" lon="8.204989"><ele>128</ele></trkpt>
      <trkpt lat="44.902214" lon="8.205197"><ele>127</ele></trkpt>
      <trkpt lat="44.902162" lon="8.205239"><ele>127</ele></trkpt>
      <trkpt lat="44.901899" lon="8.205463"><ele>126</ele></trkpt>
      <trkpt lat="44.901785" lon="8.205562"><ele>125</ele></trkpt>
      <trkpt lat="44.901433" lon="8.205849"><ele>124</ele></trkpt>
      <trkpt lat="44.901254" lon="8.205995"><ele>123</ele></trkpt>
      <trkpt lat="44.900947" lon="8.206230"><ele>122</ele></trkpt>
      <trkpt lat="44.900924" lon="8.206252"><ele>122</ele></trkpt>
      <trkpt lat="44.900862" lon="8.206310"><ele>121</ele></trkpt>
      <trkpt lat="44.900786" lon="8.206381"><ele>121</ele></trkpt>
      <trkpt lat="44.900743" lon="8.206503"><ele>121</ele></trkpt>
      <trkpt lat="44.900755" lon="8.206573"><ele>121</ele></trkpt>
      <trkpt lat="44.900750" lon="8.206638"><ele>121</ele></trkpt>
      <trkpt lat="44.900748" lon="8.206709"><ele>121</ele></trkpt>
      <trkpt lat="44.900727" lon="8.206721"><ele>121</ele></trkpt>
      <trkpt lat="44.900579" lon="8.206719"><ele>121</ele></trkpt>
      <trkpt lat="44.900517" lon="8.206717"><ele>121</ele></trkpt>
      <trkpt lat="44.900189" lon="8.206705"><ele>120</ele></trkpt>
      <trkpt lat="44.900188" lon="8.206601"><ele>120</ele></trkpt>
      <trkpt lat="44.900188" lon="8.206567"><ele>120</ele></trkpt>
      <trkpt lat="44.900098" lon="8.206565"><ele>120</ele></trkpt>
    </trkseg></trk>
</gpx>
