<?xml version="1.0" encoding="UTF-8"?>
<gpx version="1.1" creator="Radtouren-split" xmlns="http://www.topografix.com/GPX/1/1" xmlns:xsi="http://www.w3.org/2001/XMLSchema-instance" xsi:schemaLocation="http://www.topografix.com/GPX/1/1 http://www.topografix.com/GPX/1/1/gpx.xsd">
  <metadata><name>KN-GE Tag 9 Silvano d&#x27;Orba</name></metadata>
  <wpt lat="44.684396" lon="8.671573">
    <ele>169.5</ele>
    <name>H Distilleria Gualco B</name>
    <cmt>guest_house 0.2 km off</cmt>
    <sym>Lodging</sym>
  </wpt>
  <trk>
    <name>KN-GE Tag 9 Silvano d&#x27;Orba</name>
    <trkseg>
      <trkpt lat="44.893113" lon="8.201097"><ele>116.5</ele></trkpt>
      <trkpt lat="44.893043" lon="8.201629"><ele>116.5</ele></trkpt>
      <trkpt lat="44.892922" lon="8.202178"><ele>116.4</ele></trkpt>
      <trkpt lat="44.892857" lon="8.202025"><ele>116.4</ele></trkpt>
      <trkpt lat="44.892769" lon="8.201933"><ele>116.4</ele></trkpt>
      <trkpt lat="44.892356" lon="8.201627"><ele>116.4</ele></trkpt>
      <trkpt lat="44.891977" lon="8.201458"><ele>116.2</ele></trkpt>
      <trkpt lat="44.891848" lon="8.201485"><ele>116.1</ele></trkpt>
      <trkpt lat="44.891615" lon="8.201429"><ele>116.0</ele></trkpt>
      <trkpt lat="44.891435" lon="8.201438"><ele>115.9</ele></trkpt>
      <trkpt lat="44.891314" lon="8.201558"><ele>115.8</ele></trkpt>
      <trkpt lat="44.890975" lon="8.202196"><ele>115.5</ele></trkpt>
      <trkpt lat="44.890821" lon="8.202721"><ele>115.2</ele></trkpt>
      <trkpt lat="44.890521" lon="8.203129"><ele>115.2</ele></trkpt>
      <trkpt lat="44.890157" lon="8.203776"><ele>115.0</ele></trkpt>
      <trkpt lat="44.890155" lon="8.203835"><ele>115.0</ele></trkpt>
      <trkpt lat="44.890247" lon="8.204045"><ele>115.0</ele></trkpt>
      <trkpt lat="44.889746" lon="8.204969"><ele>114.9</ele></trkpt>
      <trkpt lat="44.889172" lon="8.206091"><ele>114.9</ele></trkpt>
      <trkpt lat="44.888999" lon="8.206207"><ele>114.9</ele></trkpt>
      <trkpt lat="44.888894" lon="8.206291"><ele>114.9</ele></trkpt>
      <trkpt lat="44.888872" lon="8.206460"><ele>114.9</ele></trkpt>
      <trkpt lat="44.888894" lon="8.206587"><ele>114.9</ele></trkpt>
      <trkpt lat="44.888881" lon="8.206718"><ele>114.9</ele></trkpt>
      <trkpt lat="44.888877" lon="8.206729"><ele>114.9</ele></trkpt>
      <trkpt lat="44.888587" lon="8.206789"><ele>114.7</ele></trkpt>
      <trkpt lat="44.888573" lon="8.206793"><ele>114.7</ele></trkpt>
      <trkpt lat="44.888178" lon="8.206976"><ele>114.4</ele></trkpt>
      <trkpt lat="44.887281" lon="8.207555"><ele>113.7</ele></trkpt>
      <trkpt lat="44.886994" lon="8.207758"><ele>113.4</ele></trkpt>
      <trkpt lat="44.886948" lon="8.207866"><ele>113.3</ele></trkpt>
      <trkpt lat="44.885889" lon="8.211147"><ele>110.6</ele></trkpt>
      <trkpt lat="44.885643" lon="8.211431"><ele>110.3</ele></trkpt>
      <trkpt lat="44.885545" lon="8.211677"><ele>110.0</ele></trkpt>
      <trkpt lat="44.885528" lon="8.211829"><ele>109.9</ele></trkpt>
      <trkpt lat="44.885578" lon="8.212155"><ele>109.7</ele></trkpt>
      <trkpt lat="44.885652" lon="8.212676"><ele>109.4</ele></trkpt>
      <trkpt lat="44.885820" lon="8.213385"><ele>109.0</ele></trkpt>
      <trkpt lat="44.886378" lon="8.215473"><ele>108.4</ele></trkpt>
      <trkpt lat="44.886953" lon="8.217066"><ele>108.3</ele></trkpt>
      <trkpt lat="44.887291" lon="8.218001"><ele>108.1</ele></trkpt>
      <trkpt lat="44.887459" lon="8.218498"><ele>108.0</ele></trkpt>
      <trkpt lat="44.887650" lon="8.219302"><ele>107.8</ele></trkpt>
      <trkpt lat="44.888136" lon="8.222028"><ele>107.3</ele></trkpt>
      <trkpt lat="44.888629" lon="8.224578"><ele>108.1</ele></trkpt>
      <trkpt lat="44.888649" lon="8.224693"><ele>108.2</ele></trkpt>
      <trkpt lat="44.888658" lon="8.224729"><ele>108.2</ele></trkpt>
      <trkpt lat="44.888696" lon="8.224924"><ele>108.4</ele></trkpt>
      <trkpt lat="44.888788" lon="8.225334"><ele>108.6</ele></trkpt>
      <trkpt lat="44.888843" lon="8.224982"><ele>108.9</ele></trkpt>
      <trkpt lat="44.889014" lon="8.224838"><ele>109.0</ele></trkpt>
      <trkpt lat="44.889143" lon="8.224825"><ele>109.1</ele></trkpt>
      <trkpt lat="44.889308" lon="8.224720"><ele>109.2</ele></trkpt>
      <trkpt lat="44.889320" lon="8.224789"><ele>109.3</ele></trkpt>
      <trkpt lat="44.889101" lon="8.225050"><ele>109.4</ele></trkpt>
      <trkpt lat="44.889388" lon="8.226006"><ele>109.8</ele></trkpt>
      <trkpt lat="44.891924" lon="8.229238"><ele>111.0</ele></trkpt>
      <trkpt lat="44.892317" lon="8.229675"><ele>111.2</ele></trkpt>
      <trkpt lat="44.892376" lon="8.229789"><ele>111.2</ele></trkpt>
      <trkpt lat="44.893057" lon="8.232051"><ele>110.6</ele></trkpt>
      <trkpt lat="44.893793" lon="8.234296"><ele>109.2</ele></trkpt>
      <trkpt lat="44.894295" lon="8.235959"><ele>108.9</ele></trkpt>
      <trkpt lat="44.894583" lon="8.236998"><ele>108.8</ele></trkpt>
      <trkpt lat="44.894936" lon="8.238422"><ele>109.1</ele></trkpt>
      <trkpt lat="44.895050" lon="8.239264"><ele>109.2</ele></trkpt>
      <trkpt lat="44.895006" lon="8.240400"><ele>109.5</ele></trkpt>
      <trkpt lat="44.894772" lon="8.241285"><ele>109.8</ele></trkpt>
      <trkpt lat="44.894464" lon="8.242049"><ele>109.9</ele></trkpt>
      <trkpt lat="44.894166" lon="8.242449"><ele>109.8</ele></trkpt>
      <trkpt lat="44.893688" lon="8.242989"><ele>109.5</ele></trkpt>
      <trkpt lat="44.893258" lon="8.243384"><ele>109.3</ele></trkpt>
      <trkpt lat="44.892866" lon="8.243561"><ele>109.0</ele></trkpt>
      <trkpt lat="44.892376" lon="8.243852"><ele>108.6</ele></trkpt>
      <trkpt lat="44.891884" lon="8.244250"><ele>108.2</ele></trkpt>
      <trkpt lat="44.890994" lon="8.244829"><ele>108.2</ele></trkpt>
      <trkpt lat="44.890629" lon="8.245366"><ele>108.5</ele></trkpt>
      <trkpt lat="44.890532" lon="8.245494"><ele>108.6</ele></trkpt>
      <trkpt lat="44.890249" lon="8.245772"><ele>108.8</ele></trkpt>
      <trkpt lat="44.889605" lon="8.246191"><ele>108.9</ele></trkpt>
      <trkpt lat="44.888384" lon="8.246548"><ele>108.9</ele></trkpt>
      <trkpt lat="44.888125" lon="8.246776"><ele>108.9</ele></trkpt>
      <trkpt lat="44.888015" lon="8.247167"><ele>109.0</ele></trkpt>
      <trkpt lat="44.887915" lon="8.247635"><ele>109.0</ele></trkpt>
      <trkpt lat="44.887754" lon="8.248166"><ele>109.1</ele></trkpt>
      <trkpt lat="44.887474" lon="8.248805"><ele>109.2</ele></trkpt>
      <trkpt lat="44.886703" lon="8.249641"><ele>109.0</ele></trkpt>
      <trkpt lat="44.886397" lon="8.251023"><ele>108.8</ele></trkpt>
      <trkpt lat="44.886209" lon="8.251517"><ele>108.7</ele></trkpt>
      <trkpt lat="44.886133" lon="8.252011"><ele>108.6</ele></trkpt>
      <trkpt lat="44.886112" lon="8.252771"><ele>108.4</ele></trkpt>
      <trkpt lat="44.886183" lon="8.253360"><ele>108.2</ele></trkpt>
      <trkpt lat="44.886552" lon="8.253936"><ele>107.7</ele></trkpt>
      <trkpt lat="44.887366" lon="8.254914"><ele>106.8</ele></trkpt>
      <trkpt lat="44.887705" lon="8.255840"><ele>106.2</ele></trkpt>
      <trkpt lat="44.888605" lon="8.258749"><ele>104.9</ele></trkpt>
      <trkpt lat="44.888961" lon="8.260184"><ele>104.8</ele></trkpt>
      <trkpt lat="44.888857" lon="8.261098"><ele>104.8</ele></trkpt>
      <trkpt lat="44.888840" lon="8.261695"><ele>104.9</ele></trkpt>
      <trkpt lat="44.888867" lon="8.262562"><ele>105.3</ele></trkpt>
      <trkpt lat="44.888884" lon="8.262800"><ele>105.5</ele></trkpt>
      <trkpt lat="44.889099" lon="8.263279"><ele>105.9</ele></trkpt>
      <trkpt lat="44.889530" lon="8.263742"><ele>106.5</ele></trkpt>
      <trkpt lat="44.890106" lon="8.264259"><ele>107.0</ele></trkpt>
      <trkpt lat="44.890416" lon="8.264675"><ele>107.1</ele></trkpt>
      <trkpt lat="44.890600" lon="8.265199"><ele>107.3</ele></trkpt>
      <trkpt lat="44.890755" lon="8.265745"><ele>107.4</ele></trkpt>
      <trkpt lat="44.890913" lon="8.266663"><ele>107.1</ele></trkpt>
      <trkpt lat="44.890891" lon="8.267149"><ele>106.9</ele></trkpt>
      <trkpt lat="44.890779" lon="8.267557"><ele>106.7</ele></trkpt>
      <trkpt lat="44.890414" lon="8.268374"><ele>106.3</ele></trkpt>
      <trkpt lat="44.890085" lon="8.268914"><ele>106.6</ele></trkpt>
      <trkpt lat="44.889607" lon="8.269447"><ele>107.0</ele></trkpt>
      <trkpt lat="44.889583" lon="8.269891"><ele>107.2</ele></trkpt>
      <trkpt lat="44.889581" lon="8.270006"><ele>107.2</ele></trkpt>
      <trkpt lat="44.889581" lon="8.270310"><ele>107.4</ele></trkpt>
      <trkpt lat="44.889524" lon="8.270446"><ele>107.4</ele></trkpt>
      <trkpt lat="44.889493" lon="8.270831"><ele>107.6</ele></trkpt>
      <trkpt lat="44.889576" lon="8.271009"><ele>107.7</ele></trkpt>
      <trkpt lat="44.890476" lon="8.272149"><ele>108.4</ele></trkpt>
      <trkpt lat="44.890700" lon="8.272502"><ele>108.4</ele></trkpt>
      <trkpt lat="44.891565" lon="8.272352"><ele>108.3</ele></trkpt>
      <trkpt lat="44.891661" lon="8.272360"><ele>108.2</ele></trkpt>
      <trkpt lat="44.891717" lon="8.272407"><ele>108.2</ele></trkpt>
      <trkpt lat="44.891763" lon="8.272572"><ele>108.2</ele></trkpt>
      <trkpt lat="44.891843" lon="8.273387"><ele>108.1</ele></trkpt>
      <trkpt lat="44.891855" lon="8.273673"><ele>108.1</ele></trkpt>
      <trkpt lat="44.891832" lon="8.273787"><ele>108.1</ele></trkpt>
      <trkpt lat="44.891741" lon="8.273993"><ele>108.1</ele></trkpt>
      <trkpt lat="44.891727" lon="8.274151"><ele>108.1</ele></trkpt>
      <trkpt lat="44.891741" lon="8.274351"><ele>108.1</ele></trkpt>
      <trkpt lat="44.892018" lon="8.276794"><ele>108.0</ele></trkpt>
      <trkpt lat="44.892191" lon="8.278702"><ele>108.0</ele></trkpt>
      <trkpt lat="44.892219" lon="8.279338"><ele>108.0</ele></trkpt>
      <trkpt lat="44.892181" lon="8.279739"><ele>108.0</ele></trkpt>
      <trkpt lat="44.891891" lon="8.281318"><ele>108.0</ele></trkpt>
      <trkpt lat="44.891889" lon="8.281503"><ele>108.0</ele></trkpt>
      <trkpt lat="44.891922" lon="8.281734"><ele>108.0</ele></trkpt>
      <trkpt lat="44.892203" lon="8.283188"><ele>108.1</ele></trkpt>
      <trkpt lat="44.892232" lon="8.283459"><ele>108.2</ele></trkpt>
      <trkpt lat="44.892217" lon="8.284214"><ele>108.5</ele></trkpt>
      <trkpt lat="44.892252" lon="8.284486"><ele>108.6</ele></trkpt>
      <trkpt lat="44.892315" lon="8.284655"><ele>108.6</ele></trkpt>
      <trkpt lat="44.892525" lon="8.284852"><ele>108.7</ele></trkpt>
      <trkpt lat="44.893399" lon="8.285319"><ele>109.0</ele></trkpt>
      <trkpt lat="44.893502" lon="8.285451"><ele>109.1</ele></trkpt>
      <trkpt lat="44.893561" lon="8.285590"><ele>109.1</ele></trkpt>
      <trkpt lat="44.893547" lon="8.285754"><ele>109.1</ele></trkpt>
      <trkpt lat="44.893487" lon="8.285869"><ele>109.2</ele></trkpt>
      <trkpt lat="44.887640" lon="8.296201"><ele>107.5</ele></trkpt>
      <trkpt lat="44.881850" lon="8.306598"><ele>107.5</ele></trkpt>
      <trkpt lat="44.881763" lon="8.306615"><ele>107.5</ele></trkpt>
      <trkpt lat="44.881541" lon="8.306426"><ele>107.3</ele></trkpt>
      <trkpt lat="44.881369" lon="8.306328"><ele>107.2</ele></trkpt>
      <trkpt lat="44.881205" lon="8.306318"><ele>107.1</ele></trkpt>
      <trkpt lat="44.881190" lon="8.306408"><ele>107.1</ele></trkpt>
      <trkpt lat="44.881058" lon="8.306368"><ele>107.0</ele></trkpt>
      <trkpt lat="44.880884" lon="8.306958"><ele>106.8</ele></trkpt>
      <trkpt lat="44.880677" lon="8.307477"><ele>106.6</ele></trkpt>
      <trkpt lat="44.880286" lon="8.308320"><ele>106.3</ele></trkpt>
      <trkpt lat="44.880190" lon="8.308456"><ele>106.3</ele></trkpt>
      <trkpt lat="44.880094" lon="8.308423"><ele>106.2</ele></trkpt>
      <trkpt lat="44.880015" lon="8.308320"><ele>106.2</ele></trkpt>
      <trkpt lat="44.879951" lon="8.308320"><ele>106.2</ele></trkpt>
      <trkpt lat="44.879878" lon="8.308566"><ele>106.1</ele></trkpt>
      <trkpt lat="44.879703" lon="8.309571"><ele>106.0</ele></trkpt>
      <trkpt lat="44.879496" lon="8.310194"><ele>106.3</ele></trkpt>
      <trkpt lat="44.879253" lon="8.310810"><ele>106.6</ele></trkpt>
      <trkpt lat="44.879018" lon="8.311484"><ele>106.9</ele></trkpt>
      <trkpt lat="44.878729" lon="8.312135"><ele>106.9</ele></trkpt>
      <trkpt lat="44.878395" lon="8.312751"><ele>106.9</ele></trkpt>
      <trkpt lat="44.878258" lon="8.312785"><ele>106.9</ele></trkpt>
      <trkpt lat="44.877858" lon="8.313783"><ele>106.8</ele></trkpt>
      <trkpt lat="44.877856" lon="8.313871"><ele>106.7</ele></trkpt>
      <trkpt lat="44.877921" lon="8.314072"><ele>106.7</ele></trkpt>
      <trkpt lat="44.877926" lon="8.314200"><ele>106.7</ele></trkpt>
      <trkpt lat="44.877836" lon="8.314504"><ele>106.6</ele></trkpt>
      <trkpt lat="44.877791" lon="8.314572"><ele>106.6</ele></trkpt>
      <trkpt lat="44.877733" lon="8.314605"><ele>106.6</ele></trkpt>
      <trkpt lat="44.877587" lon="8.314613"><ele>106.6</ele></trkpt>
      <trkpt lat="44.877491" lon="8.314733"><ele>106.5</ele></trkpt>
      <trkpt lat="44.877358" lon="8.314830"><ele>106.5</ele></trkpt>
      <trkpt lat="44.877142" lon="8.315070"><ele>106.4</ele></trkpt>
      <trkpt lat="44.877060" lon="8.315108"><ele>106.4</ele></trkpt>
      <trkpt lat="44.877013" lon="8.315095"><ele>106.4</ele></trkpt>
      <trkpt lat="44.876907" lon="8.314974"><ele>106.4</ele></trkpt>
      <trkpt lat="44.876792" lon="8.315188"><ele>106.3</ele></trkpt>
      <trkpt lat="44.876224" lon="8.316063"><ele>106.1</ele></trkpt>
      <trkpt lat="44.875797" lon="8.316538"><ele>105.9</ele></trkpt>
      <trkpt lat="44.875551" lon="8.316920"><ele>105.8</ele></trkpt>
      <trkpt lat="44.875391" lon="8.317376"><ele>105.7</ele></trkpt>
      <trkpt lat="44.875332" lon="8.317775"><ele>105.6</ele></trkpt>
      <trkpt lat="44.875287" lon="8.318410"><ele>105.4</ele></trkpt>
      <trkpt lat="44.875203" lon="8.319016"><ele>105.3</ele></trkpt>
      <trkpt lat="44.875421" lon="8.320654"><ele>105.2</ele></trkpt>
      <trkpt lat="44.875541" lon="8.321772"><ele>105.1</ele></trkpt>
      <trkpt lat="44.875669" lon="8.322544"><ele>105.1</ele></trkpt>
      <trkpt lat="44.876323" lon="8.323010"><ele>105.2</ele></trkpt>
      <trkpt lat="44.876391" lon="8.323097"><ele>105.2</ele></trkpt>
      <trkpt lat="44.876418" lon="8.323248"><ele>105.2</ele></trkpt>
      <trkpt lat="44.876509" lon="8.324605"><ele>105.3</ele></trkpt>
      <trkpt lat="44.876639" lon="8.325689"><ele>105.4</ele></trkpt>
      <trkpt lat="44.877146" lon="8.328649"><ele>105.4</ele></trkpt>
      <trkpt lat="44.877380" lon="8.329511"><ele>105.5</ele></trkpt>
      <trkpt lat="44.877425" lon="8.329614"><ele>105.5</ele></trkpt>
      <trkpt lat="44.877574" lon="8.329761"><ele>105.5</ele></trkpt>
      <trkpt lat="44.877604" lon="8.329883"><ele>105.5</ele></trkpt>
      <trkpt lat="44.877762" lon="8.331295"><ele>105.9</ele></trkpt>
      <trkpt lat="44.877895" lon="8.332801"><ele>106.6</ele></trkpt>
      <trkpt lat="44.877976" lon="8.334842"><ele>108.7</ele></trkpt>
      <trkpt lat="44.877944" lon="8.335484"><ele>109.5</ele></trkpt>
      <trkpt lat="44.877749" lon="8.337666"><ele>111.8</ele></trkpt>
      <trkpt lat="44.877723" lon="8.338271"><ele>112.4</ele></trkpt>
      <trkpt lat="44.877680" lon="8.338569"><ele>112.6</ele></trkpt>
      <trkpt lat="44.877608" lon="8.338800"><ele>112.8</ele></trkpt>
      <trkpt lat="44.877608" lon="8.338896"><ele>112.9</ele></trkpt>
      <trkpt lat="44.877690" lon="8.339009"><ele>113.0</ele></trkpt>
      <trkpt lat="44.877709" lon="8.339123"><ele>113.0</ele></trkpt>
      <trkpt lat="44.877685" lon="8.339299"><ele>113.1</ele></trkpt>
      <trkpt lat="44.877375" lon="8.340697"><ele>114.0</ele></trkpt>
      <trkpt lat="44.877235" lon="8.341132"><ele>114.3</ele></trkpt>
      <trkpt lat="44.877144" lon="8.341174"><ele>114.4</ele></trkpt>
      <trkpt lat="44.876982" lon="8.341371"><ele>114.6</ele></trkpt>
      <trkpt lat="44.876111" lon="8.342600"><ele>115.6</ele></trkpt>
      <trkpt lat="44.876059" lon="8.342733"><ele>115.7</ele></trkpt>
      <trkpt lat="44.876594" lon="8.342420"><ele>115.9</ele></trkpt>
      <trkpt lat="44.877258" lon="8.342083"><ele>116.1</ele></trkpt>
      <trkpt lat="44.877423" lon="8.341993"><ele>116.2</ele></trkpt>
      <trkpt lat="44.879032" lon="8.340989"><ele>117.3</ele></trkpt>
      <trkpt lat="44.878987" lon="8.341173"><ele>117.4</ele></trkpt>
      <trkpt lat="44.878918" lon="8.341328"><ele>117.5</ele></trkpt>
      <trkpt lat="44.878359" lon="8.342375"><ele>117.1</ele></trkpt>
      <trkpt lat="44.878097" lon="8.342890"><ele>116.9</ele></trkpt>
      <trkpt lat="44.876571" lon="8.347151"><ele>114.1</ele></trkpt>
      <trkpt lat="44.876329" lon="8.348310"><ele>113.1</ele></trkpt>
      <trkpt lat="44.876182" lon="8.349257"><ele>112.0</ele></trkpt>
      <trkpt lat="44.875984" lon="8.349973"><ele>111.2</ele></trkpt>
      <trkpt lat="44.875632" lon="8.351655"><ele>110.3</ele></trkpt>
      <trkpt lat="44.875232" lon="8.353738"><ele>109.8</ele></trkpt>
      <trkpt lat="44.874861" lon="8.355733"><ele>109.3</ele></trkpt>
      <trkpt lat="44.874816" lon="8.355972"><ele>109.2</ele></trkpt>
      <trkpt lat="44.874791" lon="8.356117"><ele>109.1</ele></trkpt>
      <trkpt lat="44.874547" lon="8.357454"><ele>108.7</ele></trkpt>
      <trkpt lat="44.874438" lon="8.358232"><ele>108.2</ele></trkpt>
      <trkpt lat="44.874356" lon="8.358820"><ele>107.8</ele></trkpt>
      <trkpt lat="44.874262" lon="8.359764"><ele>107.0</ele></trkpt>
      <trkpt lat="44.874233" lon="8.359815"><ele>107.0</ele></trkpt>
      <trkpt lat="44.874248" lon="8.360010"><ele>106.8</ele></trkpt>
      <trkpt lat="44.874130" lon="8.361378"><ele>105.6</ele></trkpt>
      <trkpt lat="44.874123" lon="8.361711"><ele>105.3</ele></trkpt>
      <trkpt lat="44.874099" lon="8.361788"><ele>105.2</ele></trkpt>
      <trkpt lat="44.874010" lon="8.362966"><ele>104.2</ele></trkpt>
      <trkpt lat="44.873977" lon="8.363750"><ele>104.1</ele></trkpt>
      <trkpt lat="44.873967" lon="8.365610"><ele>103.7</ele></trkpt>
      <trkpt lat="44.874001" lon="8.367550"><ele>103.8</ele></trkpt>
      <trkpt lat="44.874138" lon="8.369774"><ele>103.9</ele></trkpt>
      <trkpt lat="44.874238" lon="8.370064"><ele>103.9</ele></trkpt>
      <trkpt lat="44.874387" lon="8.370398"><ele>103.9</ele></trkpt>
      <trkpt lat="44.874536" lon="8.370800"><ele>103.8</ele></trkpt>
      <trkpt lat="44.874685" lon="8.371736"><ele>103.6</ele></trkpt>
      <trkpt lat="44.874715" lon="8.372355"><ele>103.5</ele></trkpt>
      <trkpt lat="44.874629" lon="8.372933"><ele>103.4</ele></trkpt>
      <trkpt lat="44.874501" lon="8.373403"><ele>103.3</ele></trkpt>
      <trkpt lat="44.874502" lon="8.373571"><ele>103.3</ele></trkpt>
      <trkpt lat="44.874836" lon="8.375474"><ele>103.1</ele></trkpt>
      <trkpt lat="44.875563" lon="8.378829"><ele>103.4</ele></trkpt>
      <trkpt lat="44.875783" lon="8.379470"><ele>103.6</ele></trkpt>
      <trkpt lat="44.876066" lon="8.379786"><ele>103.7</ele></trkpt>
      <trkpt lat="44.876722" lon="8.380356"><ele>104.3</ele></trkpt>
      <trkpt lat="44.877169" lon="8.380744"><ele>104.7</ele></trkpt>
      <trkpt lat="44.877233" lon="8.380958"><ele>104.9</ele></trkpt>
      <trkpt lat="44.877384" lon="8.382320"><ele>105.5</ele></trkpt>
      <trkpt lat="44.877637" lon="8.383268"><ele>105.8</ele></trkpt>
      <trkpt lat="44.877885" lon="8.383988"><ele>106.0</ele></trkpt>
      <trkpt lat="44.878150" lon="8.384926"><ele>106.3</ele></trkpt>
      <trkpt lat="44.878603" lon="8.386879"><ele>106.7</ele></trkpt>
      <trkpt lat="44.878912" lon="8.387434"><ele>106.6</ele></trkpt>
      <trkpt lat="44.879046" lon="8.387763"><ele>106.6</ele></trkpt>
      <trkpt lat="44.879514" lon="8.388839"><ele>106.3</ele></trkpt>
      <trkpt lat="44.880012" lon="8.389724"><ele>105.7</ele></trkpt>
      <trkpt lat="44.881156" lon="8.391016"><ele>104.8</ele></trkpt>
      <trkpt lat="44.881208" lon="8.391068"><ele>104.8</ele></trkpt>
      <trkpt lat="44.881439" lon="8.391178"><ele>104.7</ele></trkpt>
      <trkpt lat="44.881633" lon="8.391340"><ele>104.6</ele></trkpt>
      <trkpt lat="44.882303" lon="8.392114"><ele>104.4</ele></trkpt>
      <trkpt lat="44.882606" lon="8.392578"><ele>104.3</ele></trkpt>
      <trkpt lat="44.882962" lon="8.393347"><ele>104.2</ele></trkpt>
      <trkpt lat="44.883104" lon="8.393700"><ele>104.1</ele></trkpt>
      <trkpt lat="44.883423" lon="8.394514"><ele>104.0</ele></trkpt>
      <trkpt lat="44.884098" lon="8.396052"><ele>103.9</ele></trkpt>
      <trkpt lat="44.884191" lon="8.396335"><ele>103.9</ele></trkpt>
      <trkpt lat="44.884221" lon="8.396599"><ele>103.9</ele></trkpt>
      <trkpt lat="44.884221" lon="8.397449"><ele>103.8</ele></trkpt>
      <trkpt lat="44.884140" lon="8.399362"><ele>103.8</ele></trkpt>
      <trkpt lat="44.884114" lon="8.399648"><ele>103.8</ele></trkpt>
      <trkpt lat="44.884109" lon="8.401622"><ele>103.9</ele></trkpt>
      <trkpt lat="44.884068" lon="8.402581"><ele>104.0</ele></trkpt>
      <trkpt lat="44.884072" lon="8.402836"><ele>104.1</ele></trkpt>
      <trkpt lat="44.884131" lon="8.403098"><ele>104.1</ele></trkpt>
      <trkpt lat="44.884204" lon="8.403373"><ele>104.1</ele></trkpt>
      <trkpt lat="44.884684" lon="8.404994"><ele>103.7</ele></trkpt>
      <trkpt lat="44.883618" lon="8.405391"><ele>103.3</ele></trkpt>
      <trkpt lat="44.883513" lon="8.405434"><ele>103.2</ele></trkpt>
      <trkpt lat="44.883469" lon="8.405489"><ele>103.2</ele></trkpt>
      <trkpt lat="44.883452" lon="8.405588"><ele>103.2</ele></trkpt>
      <trkpt lat="44.883602" lon="8.406026"><ele>103.0</ele></trkpt>
      <trkpt lat="44.883435" lon="8.406092"><ele>102.9</ele></trkpt>
      <trkpt lat="44.883595" lon="8.406754"><ele>102.6</ele></trkpt>
      <trkpt lat="44.883740" lon="8.407149"><ele>102.7</ele></trkpt>
      <trkpt lat="44.883999" lon="8.407708"><ele>103.0</ele></trkpt>
      <trkpt lat="44.884237" lon="8.408380"><ele>103.2</ele></trkpt>
      <trkpt lat="44.884373" lon="8.408626"><ele>103.4</ele></trkpt>
      <trkpt lat="44.884452" lon="8.408704"><ele>103.4</ele></trkpt>
      <trkpt lat="44.884688" lon="8.409425"><ele>103.6</ele></trkpt>
      <trkpt lat="44.884735" lon="8.409668"><ele>103.7</ele></trkpt>
      <trkpt lat="44.884750" lon="8.410026"><ele>103.7</ele></trkpt>
      <trkpt lat="44.884736" lon="8.410170"><ele>103.7</ele></trkpt>
      <trkpt lat="44.884681" lon="8.410302"><ele>103.8</ele></trkpt>
      <trkpt lat="44.884747" lon="8.410411"><ele>103.8</ele></trkpt>
      <trkpt lat="44.884769" lon="8.410607"><ele>103.8</ele></trkpt>
      <trkpt lat="44.884788" lon="8.411623"><ele>103.9</ele></trkpt>
      <trkpt lat="44.884994" lon="8.412656"><ele>103.7</ele></trkpt>
      <trkpt lat="44.885128" lon="8.413201"><ele>103.6</ele></trkpt>
      <trkpt lat="44.885346" lon="8.413658"><ele>103.5</ele></trkpt>
      <trkpt lat="44.885527" lon="8.413927"><ele>103.3</ele></trkpt>
      <trkpt lat="44.885546" lon="8.413937"><ele>103.3</ele></trkpt>
      <trkpt lat="44.885586" lon="8.414111"><ele>103.3</ele></trkpt>
      <trkpt lat="44.886068" lon="8.415052"><ele>102.9</ele></trkpt>
      <trkpt lat="44.886508" lon="8.415707"><ele>102.6</ele></trkpt>
      <trkpt lat="44.886691" lon="8.415978"><ele>102.4</ele></trkpt>
      <trkpt lat="44.886992" lon="8.416934"><ele>101.9</ele></trkpt>
      <trkpt lat="44.888644" lon="8.422329"><ele>100.0</ele></trkpt>
      <trkpt lat="44.889108" lon="8.423989"><ele>99.5</ele></trkpt>
      <trkpt lat="44.889123" lon="8.424163"><ele>99.5</ele></trkpt>
      <trkpt lat="44.889078" lon="8.424285"><ele>99.4</ele></trkpt>
      <trkpt lat="44.889004" lon="8.424331"><ele>99.4</ele></trkpt>
      <trkpt lat="44.888824" lon="8.424706"><ele>99.3</ele></trkpt>
      <trkpt lat="44.888899" lon="8.424713"><ele>99.3</ele></trkpt>
      <trkpt lat="44.888984" lon="8.424660"><ele>99.2</ele></trkpt>
      <trkpt lat="44.889079" lon="8.424647"><ele>99.2</ele></trkpt>
      <trkpt lat="44.889170" lon="8.424703"><ele>99.2</ele></trkpt>
      <trkpt lat="44.889246" lon="8.424826"><ele>99.2</ele></trkpt>
      <trkpt lat="44.889407" lon="8.425266"><ele>99.1</ele></trkpt>
      <trkpt lat="44.890427" lon="8.428794"><ele>98.8</ele></trkpt>
      <trkpt lat="44.890560" lon="8.428982"><ele>98.8</ele></trkpt>
      <trkpt lat="44.890973" lon="8.430279"><ele>98.7</ele></trkpt>
      <trkpt lat="44.891348" lon="8.431551"><ele>98.7</ele></trkpt>
      <trkpt lat="44.891394" lon="8.431524"><ele>98.7</ele></trkpt>
      <trkpt lat="44.891773" lon="8.431289"><ele>98.7</ele></trkpt>
      <trkpt lat="44.891789" lon="8.431277"><ele>98.7</ele></trkpt>
      <trkpt lat="44.891880" lon="8.431270"><ele>98.7</ele></trkpt>
      <trkpt lat="44.892117" lon="8.432013"><ele>98.7</ele></trkpt>
      <trkpt lat="44.892500" lon="8.433322"><ele>98.7</ele></trkpt>
      <trkpt lat="44.892588" lon="8.434196"><ele>98.6</ele></trkpt>
      <trkpt lat="44.892760" lon="8.434685"><ele>98.5</ele></trkpt>
      <trkpt lat="44.892687" lon="8.434728"><ele>98.5</ele></trkpt>
      <trkpt lat="44.892541" lon="8.434815"><ele>98.5</ele></trkpt>
      <trkpt lat="44.892477" lon="8.434851"><ele>98.5</ele></trkpt>
      <trkpt lat="44.892377" lon="8.434721"><ele>98.5</ele></trkpt>
      <trkpt lat="44.892185" lon="8.434825"><ele>98.5</ele></trkpt>
      <trkpt lat="44.892131" lon="8.434906"><ele>98.5</ele></trkpt>
      <trkpt lat="44.892144" lon="8.435064"><ele>98.6</ele></trkpt>
      <trkpt lat="44.892903" lon="8.438000"><ele>98.8</ele></trkpt>
      <trkpt lat="44.892896" lon="8.438135"><ele>98.8</ele></trkpt>
      <trkpt lat="44.892868" lon="8.438211"><ele>98.8</ele></trkpt>
      <trkpt lat="44.892723" lon="8.438351"><ele>98.8</ele></trkpt>
      <trkpt lat="44.892721" lon="8.438491"><ele>98.8</ele></trkpt>
      <trkpt lat="44.892640" lon="8.438439"><ele>98.8</ele></trkpt>
      <trkpt lat="44.892503" lon="8.438341"><ele>98.8</ele></trkpt>
      <trkpt lat="44.892187" lon="8.438190"><ele>98.8</ele></trkpt>
      <trkpt lat="44.891911" lon="8.438161"><ele>98.7</ele></trkpt>
      <trkpt lat="44.891551" lon="8.438265"><ele>98.7</ele></trkpt>
      <trkpt lat="44.891042" lon="8.438538"><ele>98.6</ele></trkpt>
      <trkpt lat="44.889345" lon="8.439550"><ele>99.2</ele></trkpt>
      <trkpt lat="44.888605" lon="8.440016"><ele>99.3</ele></trkpt>
      <trkpt lat="44.888570" lon="8.440036"><ele>99.3</ele></trkpt>
      <trkpt lat="44.887664" lon="8.440509"><ele>99.2</ele></trkpt>
      <trkpt lat="44.886848" lon="8.440819"><ele>99.2</ele></trkpt>
      <trkpt lat="44.884517" lon="8.441709"><ele>99.0</ele></trkpt>
      <trkpt lat="44.883282" lon="8.442184"><ele>98.9</ele></trkpt>
      <trkpt lat="44.883238" lon="8.442200"><ele>98.9</ele></trkpt>
      <trkpt lat="44.883258" lon="8.443351"><ele>98.8</ele></trkpt>
      <trkpt lat="44.883349" lon="8.444418"><ele>98.8</ele></trkpt>
      <trkpt lat="44.883443" lon="8.444766"><ele>98.9</ele></trkpt>
      <trkpt lat="44.883672" lon="8.445361"><ele>99.0</ele></trkpt>
      <trkpt lat="44.882850" lon="8.445165"><ele>99.2</ele></trkpt>
      <trkpt lat="44.882221" lon="8.445100"><ele>99.6</ele></trkpt>
      <trkpt lat="44.881959" lon="8.445043"><ele>99.8</ele></trkpt>
      <trkpt lat="44.880946" lon="8.444628"><ele>100.2</ele></trkpt>
      <trkpt lat="44.880322" lon="8.444887"><ele>100.2</ele></trkpt>
      <trkpt lat="44.879967" lon="8.445146"><ele>100.2</ele></trkpt>
      <trkpt lat="44.878280" lon="8.446836"><ele>100.4</ele></trkpt>
      <trkpt lat="44.875699" lon="8.449148"><ele>102.5</ele></trkpt>
      <trkpt lat="44.873901" lon="8.450883"><ele>105.9</ele></trkpt>
      <trkpt lat="44.873654" lon="8.451092"><ele>106.4</ele></trkpt>
      <trkpt lat="44.873536" lon="8.451172"><ele>106.6</ele></trkpt>
      <trkpt lat="44.873536" lon="8.451194"><ele>106.6</ele></trkpt>
      <trkpt lat="44.873435" lon="8.453754"><ele>107.6</ele></trkpt>
      <trkpt lat="44.873382" lon="8.454621"><ele>107.0</ele></trkpt>
      <trkpt lat="44.873338" lon="8.454921"><ele>106.8</ele></trkpt>
      <trkpt lat="44.873262" lon="8.455232"><ele>106.6</ele></trkpt>
      <trkpt lat="44.873040" lon="8.455813"><ele>106.2</ele></trkpt>
      <trkpt lat="44.872524" lon="8.456595"><ele>107.1</ele></trkpt>
      <trkpt lat="44.872275" lon="8.457048"><ele>107.9</ele></trkpt>
      <trkpt lat="44.872006" lon="8.457634"><ele>108.7</ele></trkpt>
      <trkpt lat="44.871414" lon="8.459105"><ele>111.7</ele></trkpt>
      <trkpt lat="44.871108" lon="8.459884"><ele>113.5</ele></trkpt>
      <trkpt lat="44.870820" lon="8.460595"><ele>114.9</ele></trkpt>
      <trkpt lat="44.870084" lon="8.462508"><ele>118.3</ele></trkpt>
      <trkpt lat="44.869999" lon="8.462832"><ele>118.3</ele></trkpt>
      <trkpt lat="44.869928" lon="8.463263"><ele>118.3</ele></trkpt>
      <trkpt lat="44.869757" lon="8.464683"><ele>118.3</ele></trkpt>
      <trkpt lat="44.869660" lon="8.465532"><ele>118.0</ele></trkpt>
      <trkpt lat="44.869428" lon="8.466635"><ele>117.5</ele></trkpt>
      <trkpt lat="44.869338" lon="8.467014"><ele>117.4</ele></trkpt>
      <trkpt lat="44.869114" lon="8.467924"><ele>116.8</ele></trkpt>
      <trkpt lat="44.868876" lon="8.468411"><ele>116.4</ele></trkpt>
      <trkpt lat="44.868805" lon="8.468542"><ele>116.3</ele></trkpt>
      <trkpt lat="44.868210" lon="8.469607"><ele>115.4</ele></trkpt>
      <trkpt lat="44.867965" lon="8.470095"><ele>115.1</ele></trkpt>
      <trkpt lat="44.867787" lon="8.470544"><ele>114.8</ele></trkpt>
      <trkpt lat="44.867642" lon="8.471010"><ele>114.5</ele></trkpt>
      <trkpt lat="44.867589" lon="8.471262"><ele>114.3</ele></trkpt>
      <trkpt lat="44.866679" lon="8.477336"><ele>115.7</ele></trkpt>
      <trkpt lat="44.866738" lon="8.477452"><ele>115.7</ele></trkpt>
      <trkpt lat="44.866845" lon="8.477968"><ele>115.6</ele></trkpt>
      <trkpt lat="44.866860" lon="8.478220"><ele>115.6</ele></trkpt>
      <trkpt lat="44.866830" lon="8.478444"><ele>115.5</ele></trkpt>
      <trkpt lat="44.866551" lon="8.479598"><ele>115.3</ele></trkpt>
      <trkpt lat="44.866392" lon="8.480235"><ele>115.2</ele></trkpt>
      <trkpt lat="44.866300" lon="8.480795"><ele>115.1</ele></trkpt>
      <trkpt lat="44.866194" lon="8.480776"><ele>115.1</ele></trkpt>
      <trkpt lat="44.866067" lon="8.481663"><ele>115.0</ele></trkpt>
      <trkpt lat="44.865977" lon="8.482124"><ele>115.1</ele></trkpt>
      <trkpt lat="44.865869" lon="8.482491"><ele>115.1</ele></trkpt>
      <trkpt lat="44.865573" lon="8.483199"><ele>115.2</ele></trkpt>
      <trkpt lat="44.865538" lon="8.483277"><ele>115.2</ele></trkpt>
      <trkpt lat="44.865398" lon="8.483477"><ele>115.2</ele></trkpt>
      <trkpt lat="44.865361" lon="8.483534"><ele>115.2</ele></trkpt>
      <trkpt lat="44.864816" lon="8.484236"><ele>114.6</ele></trkpt>
      <trkpt lat="44.864780" lon="8.484272"><ele>114.5</ele></trkpt>
      <trkpt lat="44.864488" lon="8.484545"><ele>114.2</ele></trkpt>
      <trkpt lat="44.864458" lon="8.484571"><ele>114.2</ele></trkpt>
      <trkpt lat="44.864221" lon="8.484765"><ele>113.9</ele></trkpt>
      <trkpt lat="44.864120" lon="8.484850"><ele>113.8</ele></trkpt>
      <trkpt lat="44.864113" lon="8.484857"><ele>113.8</ele></trkpt>
      <trkpt lat="44.864033" lon="8.484923"><ele>113.7</ele></trkpt>
      <trkpt lat="44.863864" lon="8.485064"><ele>113.5</ele></trkpt>
      <trkpt lat="44.863237" lon="8.485584"><ele>112.4</ele></trkpt>
      <trkpt lat="44.863056" lon="8.485803"><ele>112.1</ele></trkpt>
      <trkpt lat="44.863033" lon="8.485861"><ele>112.0</ele></trkpt>
      <trkpt lat="44.863095" lon="8.486269"><ele>111.6</ele></trkpt>
      <trkpt lat="44.863347" lon="8.487159"><ele>110.2</ele></trkpt>
      <trkpt lat="44.863382" lon="8.488063"><ele>108.1</ele></trkpt>
      <trkpt lat="44.863335" lon="8.488560"><ele>106.9</ele></trkpt>
      <trkpt lat="44.863290" lon="8.489611"><ele>104.6</ele></trkpt>
      <trkpt lat="44.863260" lon="8.489755"><ele>104.4</ele></trkpt>
      <trkpt lat="44.863140" lon="8.490035"><ele>103.9</ele></trkpt>
      <trkpt lat="44.862874" lon="8.490413"><ele>103.2</ele></trkpt>
      <trkpt lat="44.862282" lon="8.491127"><ele>101.5</ele></trkpt>
      <trkpt lat="44.861828" lon="8.491677"><ele>101.3</ele></trkpt>
      <trkpt lat="44.861767" lon="8.491758"><ele>101.3</ele></trkpt>
      <trkpt lat="44.861738" lon="8.491794"><ele>101.3</ele></trkpt>
      <trkpt lat="44.861669" lon="8.491884"><ele>101.3</ele></trkpt>
      <trkpt lat="44.860810" lon="8.492933"><ele>101.6</ele></trkpt>
      <trkpt lat="44.860730" lon="8.493028"><ele>101.6</ele></trkpt>
      <trkpt lat="44.860609" lon="8.493215"><ele>101.7</ele></trkpt>
      <trkpt lat="44.860491" lon="8.493332"><ele>101.7</ele></trkpt>
      <trkpt lat="44.860233" lon="8.493636"><ele>101.9</ele></trkpt>
      <trkpt lat="44.859958" lon="8.493854"><ele>102.0</ele></trkpt>
      <trkpt lat="44.859592" lon="8.494070"><ele>102.2</ele></trkpt>
      <trkpt lat="44.859370" lon="8.494252"><ele>102.3</ele></trkpt>
      <trkpt lat="44.859172" lon="8.494480"><ele>102.3</ele></trkpt>
      <trkpt lat="44.859135" lon="8.494564"><ele>102.3</ele></trkpt>
      <trkpt lat="44.859006" lon="8.494687"><ele>102.2</ele></trkpt>
      <trkpt lat="44.856360" lon="8.498122"><ele>101.0</ele></trkpt>
      <trkpt lat="44.856091" lon="8.498438"><ele>101.0</ele></trkpt>
      <trkpt lat="44.855845" lon="8.498876"><ele>101.0</ele></trkpt>
      <trkpt lat="44.855569" lon="8.499689"><ele>100.9</ele></trkpt>
      <trkpt lat="44.855562" lon="8.499711"><ele>100.9</ele></trkpt>
      <trkpt lat="44.854990" lon="8.501367"><ele>102.3</ele></trkpt>
      <trkpt lat="44.854052" lon="8.504091"><ele>107.1</ele></trkpt>
      <trkpt lat="44.853624" lon="8.505396"><ele>109.6</ele></trkpt>
      <trkpt lat="44.853174" lon="8.506347"><ele>111.5</ele></trkpt>
      <trkpt lat="44.852938" lon="8.507017"><ele>111.9</ele></trkpt>
      <trkpt lat="44.852744" lon="8.507898"><ele>112.1</ele></trkpt>
      <trkpt lat="44.852577" lon="8.508918"><ele>112.3</ele></trkpt>
      <trkpt lat="44.852205" lon="8.510360"><ele>111.9</ele></trkpt>
      <trkpt lat="44.851789" lon="8.512759"><ele>111.4</ele></trkpt>
      <trkpt lat="44.851711" lon="8.513010"><ele>111.4</ele></trkpt>
      <trkpt lat="44.851621" lon="8.513206"><ele>111.3</ele></trkpt>
      <trkpt lat="44.851481" lon="8.513389"><ele>111.3</ele></trkpt>
      <trkpt lat="44.851540" lon="8.513693"><ele>111.2</ele></trkpt>
      <trkpt lat="44.851539" lon="8.514024"><ele>111.1</ele></trkpt>
      <trkpt lat="44.851514" lon="8.514151"><ele>111.1</ele></trkpt>
      <trkpt lat="44.852097" lon="8.514374"><ele>110.9</ele></trkpt>
      <trkpt lat="44.853375" lon="8.514862"><ele>110.6</ele></trkpt>
      <trkpt lat="44.855247" lon="8.515576"><ele>110.1</ele></trkpt>
      <trkpt lat="44.857150" lon="8.516501"><ele>109.7</ele></trkpt>
      <trkpt lat="44.857271" lon="8.516509"><ele>109.7</ele></trkpt>
      <trkpt lat="44.857336" lon="8.516471"><ele>109.7</ele></trkpt>
      <trkpt lat="44.857436" lon="8.516323"><ele>109.6</ele></trkpt>
      <trkpt lat="44.858504" lon="8.512710"><ele>108.3</ele></trkpt>
      <trkpt lat="44.860332" lon="8.513511"><ele>107.3</ele></trkpt>
      <trkpt lat="44.860572" lon="8.513683"><ele>107.4</ele></trkpt>
      <trkpt lat="44.860573" lon="8.513777"><ele>107.4</ele></trkpt>
      <trkpt lat="44.860525" lon="8.513859"><ele>107.4</ele></trkpt>
      <trkpt lat="44.860070" lon="8.514500"><ele>107.4</ele></trkpt>
      <trkpt lat="44.858383" lon="8.516688"><ele>108.7</ele></trkpt>
      <trkpt lat="44.858331" lon="8.516791"><ele>108.7</ele></trkpt>
      <trkpt lat="44.858348" lon="8.516895"><ele>108.7</ele></trkpt>
      <trkpt lat="44.858423" lon="8.516964"><ele>108.7</ele></trkpt>
      <trkpt lat="44.859451" lon="8.517344"><ele>108.8</ele></trkpt>
      <trkpt lat="44.859510" lon="8.517376"><ele>108.8</ele></trkpt>
      <trkpt lat="44.859560" lon="8.517466"><ele>108.8</ele></trkpt>
      <trkpt lat="44.859557" lon="8.517639"><ele>108.8</ele></trkpt>
      <trkpt lat="44.859474" lon="8.518006"><ele>108.7</ele></trkpt>
      <trkpt lat="44.859441" lon="8.518331"><ele>108.6</ele></trkpt>
      <trkpt lat="44.859506" lon="8.519143"><ele>108.4</ele></trkpt>
      <trkpt lat="44.859455" lon="8.520410"><ele>108.1</ele></trkpt>
      <trkpt lat="44.859488" lon="8.520593"><ele>108.1</ele></trkpt>
      <trkpt lat="44.859545" lon="8.520715"><ele>108.1</ele></trkpt>
      <trkpt lat="44.859279" lon="8.523370"><ele>107.7</ele></trkpt>
      <trkpt lat="44.859261" lon="8.524094"><ele>107.3</ele></trkpt>
      <trkpt lat="44.859258" lon="8.524507"><ele>107.2</ele></trkpt>
      <trkpt lat="44.859139" lon="8.525967"><ele>106.6</ele></trkpt>
      <trkpt lat="44.859107" lon="8.527215"><ele>106.2</ele></trkpt>
      <trkpt lat="44.859051" lon="8.528196"><ele>106.0</ele></trkpt>
      <trkpt lat="44.859179" lon="8.530387"><ele>105.9</ele></trkpt>
      <trkpt lat="44.859226" lon="8.531593"><ele>105.4</ele></trkpt>
      <trkpt lat="44.859435" lon="8.533733"><ele>104.6</ele></trkpt>
      <trkpt lat="44.859774" lon="8.535659"><ele>103.9</ele></trkpt>
      <trkpt lat="44.859755" lon="8.535858"><ele>103.8</ele></trkpt>
      <trkpt lat="44.859675" lon="8.536039"><ele>103.8</ele></trkpt>
      <trkpt lat="44.859662" lon="8.536120"><ele>103.8</ele></trkpt>
      <trkpt lat="44.859672" lon="8.536345"><ele>103.7</ele></trkpt>
      <trkpt lat="44.860067" lon="8.537538"><ele>103.4</ele></trkpt>
      <trkpt lat="44.860069" lon="8.537789"><ele>103.4</ele></trkpt>
      <trkpt lat="44.860011" lon="8.538134"><ele>103.4</ele></trkpt>
      <trkpt lat="44.860023" lon="8.538423"><ele>103.5</ele></trkpt>
      <trkpt lat="44.860627" lon="8.540663"><ele>103.6</ele></trkpt>
      <trkpt lat="44.860644" lon="8.540767"><ele>103.6</ele></trkpt>
      <trkpt lat="44.860889" lon="8.542117"><ele>103.7</ele></trkpt>
      <trkpt lat="44.860937" lon="8.543641"><ele>103.5</ele></trkpt>
      <trkpt lat="44.860917" lon="8.544095"><ele>103.4</ele></trkpt>
      <trkpt lat="44.860925" lon="8.544701"><ele>103.3</ele></trkpt>
      <trkpt lat="44.860963" lon="8.545232"><ele>103.2</ele></trkpt>
      <trkpt lat="44.861069" lon="8.546052"><ele>103.3</ele></trkpt>
      <trkpt lat="44.861095" lon="8.546127"><ele>103.3</ele></trkpt>
      <trkpt lat="44.861173" lon="8.546552"><ele>103.3</ele></trkpt>
      <trkpt lat="44.861161" lon="8.547026"><ele>103.3</ele></trkpt>
      <trkpt lat="44.861095" lon="8.547154"><ele>103.3</ele></trkpt>
      <trkpt lat="44.860932" lon="8.547949"><ele>103.2</ele></trkpt>
      <trkpt lat="44.860872" lon="8.548521"><ele>103.2</ele></trkpt>
      <trkpt lat="44.860978" lon="8.549144"><ele>103.2</ele></trkpt>
      <trkpt lat="44.861024" lon="8.549631"><ele>103.1</ele></trkpt>
      <trkpt lat="44.861084" lon="8.550933"><ele>103.1</ele></trkpt>
      <trkpt lat="44.861106" lon="8.551431"><ele>103.0</ele></trkpt>
      <trkpt lat="44.861080" lon="8.552866"><ele>102.9</ele></trkpt>
      <trkpt lat="44.860700" lon="8.554921"><ele>102.3</ele></trkpt>
      <trkpt lat="44.860690" lon="8.555515"><ele>102.1</ele></trkpt>
      <trkpt lat="44.860683" lon="8.556997"><ele>101.6</ele></trkpt>
      <trkpt lat="44.860569" lon="8.557390"><ele>101.4</ele></trkpt>
      <trkpt lat="44.860341" lon="8.557754"><ele>101.3</ele></trkpt>
      <trkpt lat="44.860286" lon="8.557931"><ele>101.2</ele></trkpt>
      <trkpt lat="44.860217" lon="8.558029"><ele>101.2</ele></trkpt>
      <trkpt lat="44.860061" lon="8.558197"><ele>101.2</ele></trkpt>
      <trkpt lat="44.859974" lon="8.558234"><ele>101.1</ele></trkpt>
      <trkpt lat="44.859950" lon="8.558380"><ele>101.1</ele></trkpt>
      <trkpt lat="44.859795" lon="8.558816"><ele>101.0</ele></trkpt>
      <trkpt lat="44.859428" lon="8.559192"><ele>100.8</ele></trkpt>
      <trkpt lat="44.859167" lon="8.559501"><ele>100.7</ele></trkpt>
      <trkpt lat="44.859105" lon="8.559561"><ele>100.7</ele></trkpt>
      <trkpt lat="44.858972" lon="8.559615"><ele>100.6</ele></trkpt>
      <trkpt lat="44.858907" lon="8.559605"><ele>100.6</ele></trkpt>
      <trkpt lat="44.858817" lon="8.559544"><ele>100.5</ele></trkpt>
      <trkpt lat="44.858621" lon="8.559197"><ele>100.4</ele></trkpt>
      <trkpt lat="44.858340" lon="8.558617"><ele>100.2</ele></trkpt>
      <trkpt lat="44.858072" lon="8.558275"><ele>100.1</ele></trkpt>
      <trkpt lat="44.857934" lon="8.558198"><ele>99.9</ele></trkpt>
      <trkpt lat="44.857842" lon="8.558974"><ele>99.3</ele></trkpt>
      <trkpt lat="44.857771" lon="8.559186"><ele>99.1</ele></trkpt>
      <trkpt lat="44.857655" lon="8.559343"><ele>98.9</ele></trkpt>
      <trkpt lat="44.857543" lon="8.559415"><ele>98.7</ele></trkpt>
      <trkpt lat="44.857194" lon="8.559502"><ele>98.3</ele></trkpt>
      <trkpt lat="44.856171" lon="8.559684"><ele>98.9</ele></trkpt>
      <trkpt lat="44.855727" lon="8.559748"><ele>99.4</ele></trkpt>
      <trkpt lat="44.855556" lon="8.559802"><ele>99.6</ele></trkpt>
      <trkpt lat="44.855420" lon="8.559905"><ele>99.7</ele></trkpt>
      <trkpt lat="44.855249" lon="8.560087"><ele>100.0</ele></trkpt>
      <trkpt lat="44.855092" lon="8.560346"><ele>100.0</ele></trkpt>
      <trkpt lat="44.854951" lon="8.560645"><ele>100.1</ele></trkpt>
      <trkpt lat="44.854554" lon="8.561481"><ele>100.2</ele></trkpt>
      <trkpt lat="44.854048" lon="8.562531"><ele>100.2</ele></trkpt>
      <trkpt lat="44.853978" lon="8.562677"><ele>100.2</ele></trkpt>
      <trkpt lat="44.854062" lon="8.562974"><ele>100.1</ele></trkpt>
      <trkpt lat="44.854083" lon="8.563312"><ele>100.1</ele></trkpt>
      <trkpt lat="44.853961" lon="8.564581"><ele>99.8</ele></trkpt>
      <trkpt lat="44.853885" lon="8.564929"><ele>99.8</ele></trkpt>
      <trkpt lat="44.853758" lon="8.565334"><ele>99.8</ele></trkpt>
      <trkpt lat="44.853559" lon="8.565819"><ele>99.8</ele></trkpt>
      <trkpt lat="44.853469" lon="8.566033"><ele>99.8</ele></trkpt>
      <trkpt lat="44.853302" lon="8.566633"><ele>99.8</ele></trkpt>
      <trkpt lat="44.852995" lon="8.568159"><ele>99.9</ele></trkpt>
      <trkpt lat="44.852871" lon="8.568489"><ele>99.9</ele></trkpt>
      <trkpt lat="44.852812" lon="8.568623"><ele>99.9</ele></trkpt>
      <trkpt lat="44.852303" lon="8.569381"><ele>100.0</ele></trkpt>
      <trkpt lat="44.852181" lon="8.569441"><ele>100.0</ele></trkpt>
      <trkpt lat="44.852030" lon="8.569335"><ele>100.1</ele></trkpt>
      <trkpt lat="44.851893" lon="8.569332"><ele>100.1</ele></trkpt>
      <trkpt lat="44.851568" lon="8.569681"><ele>100.2</ele></trkpt>
      <trkpt lat="44.851240" lon="8.570166"><ele>100.3</ele></trkpt>
      <trkpt lat="44.850769" lon="8.571125"><ele>100.6</ele></trkpt>
      <trkpt lat="44.850603" lon="8.571588"><ele>100.8</ele></trkpt>
      <trkpt lat="44.850550" lon="8.571857"><ele>100.9</ele></trkpt>
      <trkpt lat="44.850471" lon="8.572414"><ele>101.0</ele></trkpt>
      <trkpt lat="44.850358" lon="8.572710"><ele>101.1</ele></trkpt>
      <trkpt lat="44.850161" lon="8.573167"><ele>101.5</ele></trkpt>
      <trkpt lat="44.849361" lon="8.574535"><ele>102.5</ele></trkpt>
      <trkpt lat="44.849192" lon="8.575051"><ele>102.7</ele></trkpt>
      <trkpt lat="44.848993" lon="8.575387"><ele>102.9</ele></trkpt>
      <trkpt lat="44.848091" lon="8.574956"><ele>103.3</ele></trkpt>
      <trkpt lat="44.847831" lon="8.575352"><ele>103.4</ele></trkpt>
      <trkpt lat="44.847048" lon="8.576560"><ele>103.8</ele></trkpt>
      <trkpt lat="44.846973" lon="8.576659"><ele>103.9</ele></trkpt>
      <trkpt lat="44.846777" lon="8.576776"><ele>103.9</ele></trkpt>
      <trkpt lat="44.846395" lon="8.577075"><ele>104.0</ele></trkpt>
      <trkpt lat="44.846287" lon="8.577176"><ele>104.0</ele></trkpt>
      <trkpt lat="44.846266" lon="8.577195"><ele>104.0</ele></trkpt>
      <trkpt lat="44.845939" lon="8.577267"><ele>103.9</ele></trkpt>
      <trkpt lat="44.845883" lon="8.577305"><ele>103.9</ele></trkpt>
      <trkpt lat="44.845727" lon="8.577429"><ele>103.9</ele></trkpt>
      <trkpt lat="44.845358" lon="8.577843"><ele>103.8</ele></trkpt>
      <trkpt lat="44.844897" lon="8.578383"><ele>103.7</ele></trkpt>
      <trkpt lat="44.844843" lon="8.578490"><ele>103.7</ele></trkpt>
      <trkpt lat="44.844729" lon="8.578746"><ele>103.7</ele></trkpt>
      <trkpt lat="44.844375" lon="8.579323"><ele>103.6</ele></trkpt>
      <trkpt lat="44.844155" lon="8.579667"><ele>103.5</ele></trkpt>
      <trkpt lat="44.843930" lon="8.580026"><ele>103.4</ele></trkpt>
      <trkpt lat="44.843888" lon="8.580093"><ele>103.4</ele></trkpt>
      <trkpt lat="44.843711" lon="8.580350"><ele>103.3</ele></trkpt>
      <trkpt lat="44.843399" lon="8.580915"><ele>103.1</ele></trkpt>
      <trkpt lat="44.843281" lon="8.581134"><ele>103.0</ele></trkpt>
      <trkpt lat="44.843051" lon="8.581496"><ele>102.8</ele></trkpt>
      <trkpt lat="44.842782" lon="8.581912"><ele>102.7</ele></trkpt>
      <trkpt lat="44.842641" lon="8.582109"><ele>102.6</ele></trkpt>
      <trkpt lat="44.842351" lon="8.582602"><ele>102.4</ele></trkpt>
      <trkpt lat="44.841928" lon="8.583492"><ele>102.2</ele></trkpt>
      <trkpt lat="44.841774" lon="8.583787"><ele>102.1</ele></trkpt>
      <trkpt lat="44.841412" lon="8.584325"><ele>101.9</ele></trkpt>
      <trkpt lat="44.841068" lon="8.584682"><ele>101.9</ele></trkpt>
      <trkpt lat="44.840120" lon="8.585402"><ele>101.7</ele></trkpt>
      <trkpt lat="44.839659" lon="8.585734"><ele>101.7</ele></trkpt>
      <trkpt lat="44.839365" lon="8.585998"><ele>101.8</ele></trkpt>
      <trkpt lat="44.839148" lon="8.586249"><ele>101.8</ele></trkpt>
      <trkpt lat="44.838831" lon="8.586684"><ele>101.8</ele></trkpt>
      <trkpt lat="44.838615" lon="8.587120"><ele>101.9</ele></trkpt>
      <trkpt lat="44.838571" lon="8.587132"><ele>101.9</ele></trkpt>
      <trkpt lat="44.838546" lon="8.587141"><ele>101.9</ele></trkpt>
      <trkpt lat="44.837724" lon="8.587670"><ele>102.2</ele></trkpt>
      <trkpt lat="44.837165" lon="8.588309"><ele>102.3</ele></trkpt>
      <trkpt lat="44.836804" lon="8.588787"><ele>102.3</ele></trkpt>
      <trkpt lat="44.836428" lon="8.589419"><ele>102.3</ele></trkpt>
      <trkpt lat="44.836043" lon="8.589880"><ele>102.4</ele></trkpt>
      <trkpt lat="44.835589" lon="8.590692"><ele>102.4</ele></trkpt>
      <trkpt lat="44.835284" lon="8.591107"><ele>102.5</ele></trkpt>
      <trkpt lat="44.835075" lon="8.591384"><ele>102.5</ele></trkpt>
      <trkpt lat="44.834888" lon="8.591515"><ele>102.5</ele></trkpt>
      <trkpt lat="44.834413" lon="8.591663"><ele>102.6</ele></trkpt>
      <trkpt lat="44.833984" lon="8.591839"><ele>102.8</ele></trkpt>
      <trkpt lat="44.833122" lon="8.592284"><ele>103.2</ele></trkpt>
      <trkpt lat="44.832617" lon="8.592354"><ele>103.4</ele></trkpt>
      <trkpt lat="44.832325" lon="8.592474"><ele>103.5</ele></trkpt>
      <trkpt lat="44.831658" lon="8.592957"><ele>103.8</ele></trkpt>
      <trkpt lat="44.831028" lon="8.593621"><ele>104.0</ele></trkpt>
      <trkpt lat="44.830672" lon="8.593902"><ele>104.1</ele></trkpt>
      <trkpt lat="44.830567" lon="8.593997"><ele>104.2</ele></trkpt>
      <trkpt lat="44.830067" lon="8.594386"><ele>104.3</ele></trkpt>
      <trkpt lat="44.829727" lon="8.594553"><ele>104.4</ele></trkpt>
      <trkpt lat="44.829168" lon="8.594685"><ele>104.4</ele></trkpt>
      <trkpt lat="44.828809" lon="8.594790"><ele>104.4</ele></trkpt>
      <trkpt lat="44.828591" lon="8.594928"><ele>104.5</ele></trkpt>
      <trkpt lat="44.828355" lon="8.595154"><ele>104.5</ele></trkpt>
      <trkpt lat="44.827562" lon="8.596336"><ele>104.7</ele></trkpt>
      <trkpt lat="44.826860" lon="8.597449"><ele>105.0</ele></trkpt>
      <trkpt lat="44.826623" lon="8.597697"><ele>105.1</ele></trkpt>
      <trkpt lat="44.826478" lon="8.597909"><ele>105.2</ele></trkpt>
      <trkpt lat="44.826380" lon="8.598105"><ele>105.2</ele></trkpt>
      <trkpt lat="44.826335" lon="8.598609"><ele>105.3</ele></trkpt>
      <trkpt lat="44.826348" lon="8.600390"><ele>105.6</ele></trkpt>
      <trkpt lat="44.826324" lon="8.600690"><ele>105.6</ele></trkpt>
      <trkpt lat="44.826221" lon="8.601025"><ele>105.7</ele></trkpt>
      <trkpt lat="44.826070" lon="8.601272"><ele>105.7</ele></trkpt>
      <trkpt lat="44.825903" lon="8.601435"><ele>105.8</ele></trkpt>
      <trkpt lat="44.825633" lon="8.601621"><ele>105.8</ele></trkpt>
      <trkpt lat="44.825001" lon="8.602038"><ele>106.0</ele></trkpt>
      <trkpt lat="44.824600" lon="8.602340"><ele>106.1</ele></trkpt>
      <trkpt lat="44.823715" lon="8.603000"><ele>106.4</ele></trkpt>
      <trkpt lat="44.823497" lon="8.603196"><ele>106.5</ele></trkpt>
      <trkpt lat="44.823319" lon="8.603402"><ele>106.6</ele></trkpt>
      <trkpt lat="44.822808" lon="8.604339"><ele>107.0</ele></trkpt>
      <trkpt lat="44.822640" lon="8.604572"><ele>107.1</ele></trkpt>
      <trkpt lat="44.822308" lon="8.604755"><ele>107.4</ele></trkpt>
      <trkpt lat="44.821869" lon="8.605050"><ele>107.8</ele></trkpt>
      <trkpt lat="44.821175" lon="8.605568"><ele>108.5</ele></trkpt>
      <trkpt lat="44.820885" lon="8.605810"><ele>108.7</ele></trkpt>
      <trkpt lat="44.820807" lon="8.605911"><ele>108.8</ele></trkpt>
      <trkpt lat="44.820702" lon="8.606181"><ele>108.9</ele></trkpt>
      <trkpt lat="44.820575" lon="8.606673"><ele>109.1</ele></trkpt>
      <trkpt lat="44.819754" lon="8.609237"><ele>109.9</ele></trkpt>
      <trkpt lat="44.819637" lon="8.609568"><ele>110.0</ele></trkpt>
      <trkpt lat="44.819562" lon="8.609683"><ele>110.1</ele></trkpt>
      <trkpt lat="44.819032" lon="8.610127"><ele>110.3</ele></trkpt>
      <trkpt lat="44.818414" lon="8.610705"><ele>110.5</ele></trkpt>
      <trkpt lat="44.817496" lon="8.611197"><ele>110.8</ele></trkpt>
      <trkpt lat="44.817044" lon="8.611372"><ele>110.9</ele></trkpt>
      <trkpt lat="44.816368" lon="8.611710"><ele>111.0</ele></trkpt>
      <trkpt lat="44.816027" lon="8.611908"><ele>111.1</ele></trkpt>
      <trkpt lat="44.815583" lon="8.612290"><ele>111.3</ele></trkpt>
      <trkpt lat="44.814574" lon="8.613076"><ele>111.7</ele></trkpt>
      <trkpt lat="44.814234" lon="8.613323"><ele>111.9</ele></trkpt>
      <trkpt lat="44.813425" lon="8.613843"><ele>112.1</ele></trkpt>
      <trkpt lat="44.812309" lon="8.614400"><ele>112.5</ele></trkpt>
      <trkpt lat="44.811618" lon="8.614941"><ele>112.9</ele></trkpt>
      <trkpt lat="44.810721" lon="8.615324"><ele>113.5</ele></trkpt>
      <trkpt lat="44.810396" lon="8.615419"><ele>113.8</ele></trkpt>
      <trkpt lat="44.810359" lon="8.615421"><ele>113.8</ele></trkpt>
      <trkpt lat="44.809913" lon="8.615468"><ele>114.1</ele></trkpt>
      <trkpt lat="44.809125" lon="8.615492"><ele>114.6</ele></trkpt>
      <trkpt lat="44.808932" lon="8.615582"><ele>114.7</ele></trkpt>
      <trkpt lat="44.806966" lon="8.616835"><ele>115.7</ele></trkpt>
      <trkpt lat="44.806379" lon="8.617275"><ele>116.0</ele></trkpt>
      <trkpt lat="44.805608" lon="8.617915"><ele>116.3</ele></trkpt>
      <trkpt lat="44.805185" lon="8.618206"><ele>116.4</ele></trkpt>
      <trkpt lat="44.804464" lon="8.618583"><ele>116.7</ele></trkpt>
      <trkpt lat="44.804066" lon="8.618777"><ele>117.0</ele></trkpt>
      <trkpt lat="44.803554" lon="8.618963"><ele>117.5</ele></trkpt>
      <trkpt lat="44.802803" lon="8.619250"><ele>118.1</ele></trkpt>
      <trkpt lat="44.802466" lon="8.619408"><ele>118.4</ele></trkpt>
      <trkpt lat="44.801789" lon="8.619805"><ele>118.9</ele></trkpt>
      <trkpt lat="44.801158" lon="8.620077"><ele>119.4</ele></trkpt>
      <trkpt lat="44.800178" lon="8.620660"><ele>120.0</ele></trkpt>
      <trkpt lat="44.799838" lon="8.620833"><ele>120.2</ele></trkpt>
      <trkpt lat="44.798695" lon="8.621241"><ele>120.9</ele></trkpt>
      <trkpt lat="44.798576" lon="8.621302"><ele>120.9</ele></trkpt>
      <trkpt lat="44.798378" lon="8.621371"><ele>121.0</ele></trkpt>
      <trkpt lat="44.798127" lon="8.621458"><ele>121.2</ele></trkpt>
      <trkpt lat="44.797782" lon="8.621577"><ele>121.4</ele></trkpt>
      <trkpt lat="44.797274" lon="8.621799"><ele>121.7</ele></trkpt>
      <trkpt lat="44.796588" lon="8.622324"><ele>122.0</ele></trkpt>
      <trkpt lat="44.795817" lon="8.622964"><ele>122.4</ele></trkpt>
      <trkpt lat="44.795004" lon="8.623410"><ele>122.9</ele></trkpt>
      <trkpt lat="44.794149" lon="8.624283"><ele>123.5</ele></trkpt>
      <trkpt lat="44.793283" lon="8.625010"><ele>124.1</ele></trkpt>
      <trkpt lat="44.793054" lon="8.625129"><ele>124.3</ele></trkpt>
      <trkpt lat="44.792213" lon="8.625427"><ele>124.6</ele></trkpt>
      <trkpt lat="44.791902" lon="8.625652"><ele>124.7</ele></trkpt>
      <trkpt lat="44.790839" lon="8.626613"><ele>124.8</ele></trkpt>
      <trkpt lat="44.789295" lon="8.628101"><ele>124.4</ele></trkpt>
      <trkpt lat="44.789221" lon="8.628175"><ele>124.4</ele></trkpt>
      <trkpt lat="44.788286" lon="8.629062"><ele>124.2</ele></trkpt>
      <trkpt lat="44.788236" lon="8.629110"><ele>124.2</ele></trkpt>
      <trkpt lat="44.785156" lon="8.632102"><ele>123.9</ele></trkpt>
      <trkpt lat="44.784979" lon="8.632334"><ele>123.8</ele></trkpt>
      <trkpt lat="44.784920" lon="8.632447"><ele>123.7</ele></trkpt>
      <trkpt lat="44.784820" lon="8.632813"><ele>123.6</ele></trkpt>
      <trkpt lat="44.784822" lon="8.633142"><ele>123.5</ele></trkpt>
      <trkpt lat="44.785452" lon="8.635874"><ele>122.4</ele></trkpt>
      <trkpt lat="44.785568" lon="8.636181"><ele>122.2</ele></trkpt>
      <trkpt lat="44.785814" lon="8.636688"><ele>122.2</ele></trkpt>
      <trkpt lat="44.785857" lon="8.636830"><ele>122.3</ele></trkpt>
      <trkpt lat="44.785843" lon="8.637017"><ele>122.4</ele></trkpt>
      <trkpt lat="44.785675" lon="8.637239"><ele>122.6</ele></trkpt>
      <trkpt lat="44.785698" lon="8.637486"><ele>122.7</ele></trkpt>
      <trkpt lat="44.784291" lon="8.632692"><ele>125.9</ele></trkpt>
      <trkpt lat="44.784246" lon="8.632539"><ele>126.0</ele></trkpt>
      <trkpt lat="44.784083" lon="8.631989"><ele>126.6</ele></trkpt>
      <trkpt lat="44.784023" lon="8.631789"><ele>126.8</ele></trkpt>
      <trkpt lat="44.783528" lon="8.630149"><ele>128.1</ele></trkpt>
      <trkpt lat="44.782182" lon="8.630695"><ele>128.8</ele></trkpt>
      <trkpt lat="44.781529" lon="8.630971"><ele>129.0</ele></trkpt>
      <trkpt lat="44.781421" lon="8.631051"><ele>129.0</ele></trkpt>
      <trkpt lat="44.781174" lon="8.631345"><ele>129.0</ele></trkpt>
      <trkpt lat="44.780975" lon="8.631443"><ele>129.1</ele></trkpt>
      <trkpt lat="44.779922" lon="8.631664"><ele>129.5</ele></trkpt>
      <trkpt lat="44.778605" lon="8.631759"><ele>130.2</ele></trkpt>
      <trkpt lat="44.777050" lon="8.632285"><ele>131.4</ele></trkpt>
      <trkpt lat="44.776747" lon="8.632360"><ele>131.7</ele></trkpt>
      <trkpt lat="44.776178" lon="8.632447"><ele>132.1</ele></trkpt>
      <trkpt lat="44.775670" lon="8.632461"><ele>132.5</ele></trkpt>
      <trkpt lat="44.775424" lon="8.632540"><ele>132.6</ele></trkpt>
      <trkpt lat="44.775247" lon="8.632660"><ele>132.7</ele></trkpt>
      <trkpt lat="44.775070" lon="8.632733"><ele>132.9</ele></trkpt>
      <trkpt lat="44.773415" lon="8.633098"><ele>133.7</ele></trkpt>
      <trkpt lat="44.773329" lon="8.633143"><ele>133.8</ele></trkpt>
      <trkpt lat="44.773267" lon="8.633226"><ele>133.8</ele></trkpt>
      <trkpt lat="44.773198" lon="8.633438"><ele>133.9</ele></trkpt>
      <trkpt lat="44.772954" lon="8.634539"><ele>134.2</ele></trkpt>
      <trkpt lat="44.772873" lon="8.634730"><ele>134.2</ele></trkpt>
      <trkpt lat="44.772780" lon="8.634868"><ele>134.3</ele></trkpt>
      <trkpt lat="44.771720" lon="8.636214"><ele>134.8</ele></trkpt>
      <trkpt lat="44.770801" lon="8.637431"><ele>134.4</ele></trkpt>
      <trkpt lat="44.769936" lon="8.639190"><ele>133.5</ele></trkpt>
      <trkpt lat="44.769795" lon="8.639436"><ele>133.4</ele></trkpt>
      <trkpt lat="44.769643" lon="8.639595"><ele>133.2</ele></trkpt>
      <trkpt lat="44.769204" lon="8.639900"><ele>133.0</ele></trkpt>
      <trkpt lat="44.767840" lon="8.640940"><ele>133.3</ele></trkpt>
      <trkpt lat="44.766564" lon="8.641932"><ele>133.9</ele></trkpt>
      <trkpt lat="44.765831" lon="8.642332"><ele>134.3</ele></trkpt>
      <trkpt lat="44.765570" lon="8.642623"><ele>134.6</ele></trkpt>
      <trkpt lat="44.765282" lon="8.643023"><ele>134.9</ele></trkpt>
      <trkpt lat="44.765066" lon="8.643219"><ele>135.2</ele></trkpt>
      <trkpt lat="44.764282" lon="8.643733"><ele>135.8</ele></trkpt>
      <trkpt lat="44.764094" lon="8.643883"><ele>136.0</ele></trkpt>
      <trkpt lat="44.763865" lon="8.644224"><ele>136.2</ele></trkpt>
      <trkpt lat="44.763701" lon="8.644646"><ele>136.5</ele></trkpt>
      <trkpt lat="44.763623" lon="8.645083"><ele>136.7</ele></trkpt>
      <trkpt lat="44.763530" lon="8.645533"><ele>136.8</ele></trkpt>
      <trkpt lat="44.763455" lon="8.645974"><ele>136.7</ele></trkpt>
      <trkpt lat="44.763484" lon="8.646488"><ele>136.5</ele></trkpt>
      <trkpt lat="44.763643" lon="8.647051"><ele>136.3</ele></trkpt>
      <trkpt lat="44.763719" lon="8.647245"><ele>136.2</ele></trkpt>
      <trkpt lat="44.763988" lon="8.647870"><ele>136.0</ele></trkpt>
      <trkpt lat="44.764164" lon="8.648186"><ele>135.7</ele></trkpt>
      <trkpt lat="44.764511" lon="8.648824"><ele>135.1</ele></trkpt>
      <trkpt lat="44.764540" lon="8.649143"><ele>134.9</ele></trkpt>
      <trkpt lat="44.764485" lon="8.649279"><ele>134.8</ele></trkpt>
      <trkpt lat="44.764447" lon="8.649320"><ele>134.7</ele></trkpt>
      <trkpt lat="44.764355" lon="8.649365"><ele>134.6</ele></trkpt>
      <trkpt lat="44.764017" lon="8.649497"><ele>134.3</ele></trkpt>
      <trkpt lat="44.763518" lon="8.649630"><ele>134.2</ele></trkpt>
      <trkpt lat="44.762931" lon="8.649679"><ele>134.1</ele></trkpt>
      <trkpt lat="44.762383" lon="8.649572"><ele>134.0</ele></trkpt>
      <trkpt lat="44.762253" lon="8.649599"><ele>134.0</ele></trkpt>
      <trkpt lat="44.762154" lon="8.649693"><ele>134.0</ele></trkpt>
      <trkpt lat="44.762109" lon="8.649825"><ele>134.0</ele></trkpt>
      <trkpt lat="44.762064" lon="8.650270"><ele>134.0</ele></trkpt>
      <trkpt lat="44.761990" lon="8.650680"><ele>134.0</ele></trkpt>
      <trkpt lat="44.761890" lon="8.650961"><ele>134.1</ele></trkpt>
      <trkpt lat="44.761880" lon="8.651266"><ele>134.1</ele></trkpt>
      <trkpt lat="44.762051" lon="8.652893"><ele>133.9</ele></trkpt>
      <trkpt lat="44.762049" lon="8.653176"><ele>133.8</ele></trkpt>
      <trkpt lat="44.762019" lon="8.653275"><ele>133.8</ele></trkpt>
      <trkpt lat="44.761864" lon="8.653539"><ele>133.7</ele></trkpt>
      <trkpt lat="44.761257" lon="8.654217"><ele>133.4</ele></trkpt>
      <trkpt lat="44.761066" lon="8.654492"><ele>133.3</ele></trkpt>
      <trkpt lat="44.760895" lon="8.654967"><ele>133.1</ele></trkpt>
      <trkpt lat="44.760769" lon="8.655517"><ele>133.0</ele></trkpt>
      <trkpt lat="44.760611" lon="8.655949"><ele>132.8</ele></trkpt>
      <trkpt lat="44.760192" lon="8.656872"><ele>132.7</ele></trkpt>
      <trkpt lat="44.759647" lon="8.658067"><ele>132.6</ele></trkpt>
      <trkpt lat="44.759499" lon="8.658088"><ele>132.6</ele></trkpt>
      <trkpt lat="44.759149" lon="8.658199"><ele>132.6</ele></trkpt>
      <trkpt lat="44.758977" lon="8.658235"><ele>132.7</ele></trkpt>
      <trkpt lat="44.758812" lon="8.658224"><ele>132.8</ele></trkpt>
      <trkpt lat="44.758726" lon="8.658141"><ele>132.8</ele></trkpt>
      <trkpt lat="44.758600" lon="8.658125"><ele>132.8</ele></trkpt>
      <trkpt lat="44.758539" lon="8.658155"><ele>132.9</ele></trkpt>
      <trkpt lat="44.758476" lon="8.658222"><ele>132.9</ele></trkpt>
      <trkpt lat="44.758390" lon="8.658247"><ele>132.9</ele></trkpt>
      <trkpt lat="44.758161" lon="8.658231"><ele>133.0</ele></trkpt>
      <trkpt lat="44.757793" lon="8.658232"><ele>133.1</ele></trkpt>
      <trkpt lat="44.757249" lon="8.658289"><ele>133.3</ele></trkpt>
      <trkpt lat="44.756980" lon="8.658316"><ele>133.4</ele></trkpt>
      <trkpt lat="44.756577" lon="8.658356"><ele>133.5</ele></trkpt>
      <trkpt lat="44.755783" lon="8.658435"><ele>133.8</ele></trkpt>
      <trkpt lat="44.755584" lon="8.658455"><ele>134.0</ele></trkpt>
      <trkpt lat="44.755220" lon="8.658492"><ele>134.3</ele></trkpt>
      <trkpt lat="44.754965" lon="8.658516"><ele>134.5</ele></trkpt>
      <trkpt lat="44.754903" lon="8.658489"><ele>134.5</ele></trkpt>
      <trkpt lat="44.754853" lon="8.658551"><ele>134.6</ele></trkpt>
      <trkpt lat="44.754705" lon="8.658603"><ele>134.7</ele></trkpt>
      <trkpt lat="44.754458" lon="8.658830"><ele>135.0</ele></trkpt>
      <trkpt lat="44.754284" lon="8.658923"><ele>135.1</ele></trkpt>
      <trkpt lat="44.754158" lon="8.658081"><ele>135.5</ele></trkpt>
      <trkpt lat="44.753844" lon="8.658076"><ele>135.6</ele></trkpt>
      <trkpt lat="44.753337" lon="8.658118"><ele>135.8</ele></trkpt>
      <trkpt lat="44.753070" lon="8.658155"><ele>136.0</ele></trkpt>
      <trkpt lat="44.753037" lon="8.658207"><ele>136.0</ele></trkpt>
      <trkpt lat="44.752971" lon="8.658197"><ele>136.0</ele></trkpt>
      <trkpt lat="44.752936" lon="8.658238"><ele>136.0</ele></trkpt>
      <trkpt lat="44.752929" lon="8.658330"><ele>136.1</ele></trkpt>
      <trkpt lat="44.752725" lon="8.658369"><ele>136.1</ele></trkpt>
      <trkpt lat="44.752711" lon="8.658372"><ele>136.1</ele></trkpt>
      <trkpt lat="44.752564" lon="8.658399"><ele>136.1</ele></trkpt>
      <trkpt lat="44.752536" lon="8.658401"><ele>136.1</ele></trkpt>
      <trkpt lat="44.752148" lon="8.658509"><ele>136.1</ele></trkpt>
      <trkpt lat="44.752072" lon="8.658531"><ele>136.1</ele></trkpt>
      <trkpt lat="44.751952" lon="8.658541"><ele>136.1</ele></trkpt>
      <trkpt lat="44.751357" lon="8.658486"><ele>136.1</ele></trkpt>
      <trkpt lat="44.751007" lon="8.658449"><ele>136.1</ele></trkpt>
      <trkpt lat="44.749901" lon="8.658169"><ele>136.6</ele></trkpt>
      <trkpt lat="44.749865" lon="8.658224"><ele>136.6</ele></trkpt>
      <trkpt lat="44.749403" lon="8.658553"><ele>136.9</ele></trkpt>
      <trkpt lat="44.748617" lon="8.659115"><ele>137.5</ele></trkpt>
      <trkpt lat="44.747953" lon="8.659596"><ele>138.0</ele></trkpt>
      <trkpt lat="44.747303" lon="8.660055"><ele>138.5</ele></trkpt>
      <trkpt lat="44.746911" lon="8.660329"><ele>138.8</ele></trkpt>
      <trkpt lat="44.746877" lon="8.660350"><ele>138.9</ele></trkpt>
      <trkpt lat="44.746591" lon="8.660530"><ele>139.1</ele></trkpt>
      <trkpt lat="44.745103" lon="8.661102"><ele>139.6</ele></trkpt>
      <trkpt lat="44.744728" lon="8.661059"><ele>139.6</ele></trkpt>
      <trkpt lat="44.744260" lon="8.660882"><ele>139.6</ele></trkpt>
      <trkpt lat="44.744237" lon="8.661036"><ele>139.5</ele></trkpt>
      <trkpt lat="44.744180" lon="8.661449"><ele>139.3</ele></trkpt>
      <trkpt lat="44.744151" lon="8.661716"><ele>139.1</ele></trkpt>
      <trkpt lat="44.744177" lon="8.662128"><ele>138.9</ele></trkpt>
      <trkpt lat="44.744266" lon="8.662743"><ele>138.5</ele></trkpt>
      <trkpt lat="44.744337" lon="8.664142"><ele>136.7</ele></trkpt>
      <trkpt lat="44.744391" lon="8.664236"><ele>136.5</ele></trkpt>
      <trkpt lat="44.744464" lon="8.664281"><ele>136.3</ele></trkpt>
      <trkpt lat="44.744833" lon="8.664359"><ele>135.4</ele></trkpt>
      <trkpt lat="44.745571" lon="8.664709"><ele>133.5</ele></trkpt>
      <trkpt lat="44.745785" lon="8.664892"><ele>132.8</ele></trkpt>
      <trkpt lat="44.746015" lon="8.665278"><ele>131.9</ele></trkpt>
      <trkpt lat="44.745938" lon="8.665600"><ele>131.2</ele></trkpt>
      <trkpt lat="44.746438" lon="8.666872"><ele>129.0</ele></trkpt>
      <trkpt lat="44.746168" lon="8.667228"><ele>128.8</ele></trkpt>
      <trkpt lat="44.745852" lon="8.667506"><ele>128.6</ele></trkpt>
      <trkpt lat="44.744993" lon="8.668010"><ele>128.3</ele></trkpt>
      <trkpt lat="44.744548" lon="8.668238"><ele>128.4</ele></trkpt>
      <trkpt lat="44.744284" lon="8.668321"><ele>128.5</ele></trkpt>
      <trkpt lat="44.743084" lon="8.668446"><ele>128.7</ele></trkpt>
      <trkpt lat="44.742732" lon="8.668539"><ele>128.8</ele></trkpt>
      <trkpt lat="44.741791" lon="8.668980"><ele>129.1</ele></trkpt>
      <trkpt lat="44.741188" lon="8.669248"><ele>129.4</ele></trkpt>
      <trkpt lat="44.740765" lon="8.669445"><ele>129.6</ele></trkpt>
      <trkpt lat="44.739211" lon="8.670454"><ele>130.4</ele></trkpt>
      <trkpt lat="44.738752" lon="8.670690"><ele>130.7</ele></trkpt>
      <trkpt lat="44.738413" lon="8.670787"><ele>130.9</ele></trkpt>
      <trkpt lat="44.736244" lon="8.672156"><ele>132.1</ele></trkpt>
      <trkpt lat="44.735893" lon="8.672535"><ele>132.3</ele></trkpt>
      <trkpt lat="44.734010" lon="8.673501"><ele>133.2</ele></trkpt>
      <trkpt lat="44.733832" lon="8.673488"><ele>133.2</ele></trkpt>
      <trkpt lat="44.733592" lon="8.673664"><ele>133.4</ele></trkpt>
      <trkpt lat="44.733437" lon="8.673740"><ele>133.4</ele></trkpt>
      <trkpt lat="44.732358" lon="8.673991"><ele>133.7</ele></trkpt>
      <trkpt lat="44.732379" lon="8.674939"><ele>133.8</ele></trkpt>
      <trkpt lat="44.732345" lon="8.676926"><ele>133.6</ele></trkpt>
      <trkpt lat="44.732307" lon="8.677176"><ele>133.6</ele></trkpt>
      <trkpt lat="44.732193" lon="8.677447"><ele>133.5</ele></trkpt>
      <trkpt lat="44.731639" lon="8.678361"><ele>133.3</ele></trkpt>
      <trkpt lat="44.731588" lon="8.678435"><ele>133.2</ele></trkpt>
      <trkpt lat="44.731197" lon="8.677948"><ele>133.1</ele></trkpt>
      <trkpt lat="44.731048" lon="8.677691"><ele>133.0</ele></trkpt>
      <trkpt lat="44.730923" lon="8.677366"><ele>133.0</ele></trkpt>
      <trkpt lat="44.730416" lon="8.676790"><ele>133.3</ele></trkpt>
      <trkpt lat="44.729993" lon="8.676191"><ele>133.7</ele></trkpt>
      <trkpt lat="44.729745" lon="8.675647"><ele>134.0</ele></trkpt>
      <trkpt lat="44.729641" lon="8.675510"><ele>134.1</ele></trkpt>
      <trkpt lat="44.729576" lon="8.675431"><ele>134.2</ele></trkpt>
      <trkpt lat="44.729622" lon="8.675305"><ele>134.2</ele></trkpt>
      <trkpt lat="44.729700" lon="8.675197"><ele>134.3</ele></trkpt>
      <trkpt lat="44.729693" lon="8.675130"><ele>134.4</ele></trkpt>
      <trkpt lat="44.729559" lon="8.675216"><ele>134.5</ele></trkpt>
      <trkpt lat="44.729462" lon="8.675197"><ele>134.5</ele></trkpt>
      <trkpt lat="44.729411" lon="8.675144"><ele>134.6</ele></trkpt>
      <trkpt lat="44.729334" lon="8.674940"><ele>134.7</ele></trkpt>
      <trkpt lat="44.729159" lon="8.674779"><ele>134.9</ele></trkpt>
      <trkpt lat="44.729075" lon="8.674414"><ele>135.1</ele></trkpt>
      <trkpt lat="44.728770" lon="8.674275"><ele>135.3</ele></trkpt>
      <trkpt lat="44.728641" lon="8.673867"><ele>135.4</ele></trkpt>
      <trkpt lat="44.727917" lon="8.672857"><ele>135.5</ele></trkpt>
      <trkpt lat="44.727938" lon="8.672597"><ele>135.6</ele></trkpt>
      <trkpt lat="44.726971" lon="8.671889"><ele>135.7</ele></trkpt>
      <trkpt lat="44.726506" lon="8.671304"><ele>135.7</ele></trkpt>
      <trkpt lat="44.725700" lon="8.670775"><ele>135.6</ele></trkpt>
      <trkpt lat="44.725373" lon="8.670658"><ele>135.5</ele></trkpt>
      <trkpt lat="44.724972" lon="8.670355"><ele>135.3</ele></trkpt>
      <trkpt lat="44.724674" lon="8.670005"><ele>135.2</ele></trkpt>
      <trkpt lat="44.724567" lon="8.669922"><ele>135.1</ele></trkpt>
      <trkpt lat="44.724371" lon="8.669867"><ele>135.0</ele></trkpt>
      <trkpt lat="44.724249" lon="8.669874"><ele>135.0</ele></trkpt>
      <trkpt lat="44.723966" lon="8.670032"><ele>134.8</ele></trkpt>
      <trkpt lat="44.723805" lon="8.670053"><ele>134.7</ele></trkpt>
      <trkpt lat="44.723722" lon="8.670094"><ele>134.6</ele></trkpt>
      <trkpt lat="44.723609" lon="8.670231"><ele>134.5</ele></trkpt>
      <trkpt lat="44.723189" lon="8.670335"><ele>134.3</ele></trkpt>
      <trkpt lat="44.723135" lon="8.670390"><ele>134.3</ele></trkpt>
      <trkpt lat="44.723106" lon="8.670472"><ele>134.2</ele></trkpt>
      <trkpt lat="44.722851" lon="8.670702"><ele>134.1</ele></trkpt>
      <trkpt lat="44.722646" lon="8.670841"><ele>134.1</ele></trkpt>
      <trkpt lat="44.722524" lon="8.670976"><ele>134.2</ele></trkpt>
      <trkpt lat="44.721929" lon="8.671405"><ele>134.3</ele></trkpt>
      <trkpt lat="44.721811" lon="8.671389"><ele>134.4</ele></trkpt>
      <trkpt lat="44.721765" lon="8.671448"><ele>134.4</ele></trkpt>
      <trkpt lat="44.721624" lon="8.671491"><ele>134.4</ele></trkpt>
      <trkpt lat="44.721468" lon="8.671587"><ele>134.5</ele></trkpt>
      <trkpt lat="44.720915" lon="8.671829"><ele>134.7</ele></trkpt>
      <trkpt lat="44.720378" lon="8.672209"><ele>135.0</ele></trkpt>
      <trkpt lat="44.720042" lon="8.672381"><ele>135.2</ele></trkpt>
      <trkpt lat="44.719482" lon="8.672885"><ele>135.5</ele></trkpt>
      <trkpt lat="44.719417" lon="8.672832"><ele>135.6</ele></trkpt>
      <trkpt lat="44.719314" lon="8.672901"><ele>135.7</ele></trkpt>
      <trkpt lat="44.719105" lon="8.672918"><ele>135.9</ele></trkpt>
      <trkpt lat="44.718392" lon="8.673787"><ele>136.7</ele></trkpt>
      <trkpt lat="44.717980" lon="8.674135"><ele>137.1</ele></trkpt>
      <trkpt lat="44.717755" lon="8.674269"><ele>137.2</ele></trkpt>
      <trkpt lat="44.717401" lon="8.674720"><ele>137.6</ele></trkpt>
      <trkpt lat="44.717100" lon="8.674935"><ele>137.9</ele></trkpt>
      <trkpt lat="44.716711" lon="8.675090"><ele>138.2</ele></trkpt>
      <trkpt lat="44.716421" lon="8.675460"><ele>138.3</ele></trkpt>
      <trkpt lat="44.716189" lon="8.675551"><ele>138.4</ele></trkpt>
      <trkpt lat="44.715964" lon="8.675573"><ele>138.4</ele></trkpt>
      <trkpt lat="44.715910" lon="8.675723"><ele>138.4</ele></trkpt>
      <trkpt lat="44.715689" lon="8.676050"><ele>138.5</ele></trkpt>
      <trkpt lat="44.715041" lon="8.676796"><ele>138.6</ele></trkpt>
      <trkpt lat="44.714666" lon="8.677131"><ele>138.7</ele></trkpt>
      <trkpt lat="44.714607" lon="8.677099"><ele>138.7</ele></trkpt>
      <trkpt lat="44.714570" lon="8.677013"><ele>138.7</ele></trkpt>
      <trkpt lat="44.714525" lon="8.677000"><ele>138.7</ele></trkpt>
      <trkpt lat="44.714418" lon="8.677062"><ele>138.8</ele></trkpt>
      <trkpt lat="44.714412" lon="8.677281"><ele>138.8</ele></trkpt>
      <trkpt lat="44.714376" lon="8.677394"><ele>138.8</ele></trkpt>
      <trkpt lat="44.714218" lon="8.677520"><ele>138.8</ele></trkpt>
      <trkpt lat="44.714101" lon="8.677542"><ele>138.9</ele></trkpt>
      <trkpt lat="44.713939" lon="8.678035"><ele>138.9</ele></trkpt>
      <trkpt lat="44.713875" lon="8.678317"><ele>138.9</ele></trkpt>
      <trkpt lat="44.713758" lon="8.678419"><ele>139.0</ele></trkpt>
      <trkpt lat="44.713634" lon="8.678451"><ele>139.0</ele></trkpt>
      <trkpt lat="44.713549" lon="8.678671"><ele>139.0</ele></trkpt>
      <trkpt lat="44.713451" lon="8.679604"><ele>139.1</ele></trkpt>
      <trkpt lat="44.713282" lon="8.679864"><ele>139.2</ele></trkpt>
      <trkpt lat="44.712915" lon="8.680292"><ele>139.4</ele></trkpt>
      <trkpt lat="44.712346" lon="8.680688"><ele>139.8</ele></trkpt>
      <trkpt lat="44.712270" lon="8.680817"><ele>139.9</ele></trkpt>
      <trkpt lat="44.712239" lon="8.680961"><ele>140.0</ele></trkpt>
      <trkpt lat="44.712094" lon="8.680991"><ele>140.1</ele></trkpt>
      <trkpt lat="44.711381" lon="8.681538"><ele>140.8</ele></trkpt>
      <trkpt lat="44.710649" lon="8.681849"><ele>141.9</ele></trkpt>
      <trkpt lat="44.710055" lon="8.681892"><ele>142.7</ele></trkpt>
      <trkpt lat="44.708957" lon="8.681640"><ele>142.8</ele></trkpt>
      <trkpt lat="44.708492" lon="8.681479"><ele>142.8</ele></trkpt>
      <trkpt lat="44.707310" lon="8.680712"><ele>142.7</ele></trkpt>
      <trkpt lat="44.707245" lon="8.680556"><ele>142.7</ele></trkpt>
      <trkpt lat="44.706303" lon="8.679269"><ele>142.6</ele></trkpt>
      <trkpt lat="44.705590" lon="8.678700"><ele>142.6</ele></trkpt>
      <trkpt lat="44.705148" lon="8.678432"><ele>142.5</ele></trkpt>
      <trkpt lat="44.705049" lon="8.678325"><ele>142.4</ele></trkpt>
      <trkpt lat="44.704950" lon="8.677762"><ele>142.1</ele></trkpt>
      <trkpt lat="44.704563" lon="8.676978"><ele>141.6</ele></trkpt>
      <trkpt lat="44.704267" lon="8.676702"><ele>141.4</ele></trkpt>
      <trkpt lat="44.703127" lon="8.675871"><ele>140.6</ele></trkpt>
      <trkpt lat="44.702641" lon="8.675755"><ele>140.4</ele></trkpt>
      <trkpt lat="44.702500" lon="8.675621"><ele>140.3</ele></trkpt>
      <trkpt lat="44.702229" lon="8.675562"><ele>140.4</ele></trkpt>
      <trkpt lat="44.702025" lon="8.675616"><ele>140.5</ele></trkpt>
      <trkpt lat="44.701774" lon="8.675524"><ele>140.6</ele></trkpt>
      <trkpt lat="44.701695" lon="8.675444"><ele>140.6</ele></trkpt>
      <trkpt lat="44.701465" lon="8.675345"><ele>140.7</ele></trkpt>
      <trkpt lat="44.701217" lon="8.675342"><ele>140.8</ele></trkpt>
      <trkpt lat="44.700681" lon="8.675264"><ele>141.0</ele></trkpt>
      <trkpt lat="44.700275" lon="8.675085"><ele>141.5</ele></trkpt>
      <trkpt lat="44.700102" lon="8.675079"><ele>141.6</ele></trkpt>
      <trkpt lat="44.699978" lon="8.675109"><ele>141.8</ele></trkpt>
      <trkpt lat="44.699865" lon="8.675173"><ele>141.9</ele></trkpt>
      <trkpt lat="44.699644" lon="8.675074"><ele>142.1</ele></trkpt>
      <trkpt lat="44.698472" lon="8.674894"><ele>143.3</ele></trkpt>
      <trkpt lat="44.697514" lon="8.674822"><ele>144.1</ele></trkpt>
      <trkpt lat="44.697204" lon="8.674736"><ele>144.4</ele></trkpt>
      <trkpt lat="44.696925" lon="8.674717"><ele>144.7</ele></trkpt>
      <trkpt lat="44.696576" lon="8.674929"><ele>145.1</ele></trkpt>
      <trkpt lat="44.696571" lon="8.674881"><ele>145.1</ele></trkpt>
      <trkpt lat="44.696508" lon="8.674846"><ele>145.2</ele></trkpt>
      <trkpt lat="44.696401" lon="8.674916"><ele>145.3</ele></trkpt>
      <trkpt lat="44.696338" lon="8.674916"><ele>145.4</ele></trkpt>
      <trkpt lat="44.696300" lon="8.674937"><ele>145.4</ele></trkpt>
      <trkpt lat="44.696260" lon="8.675058"><ele>145.5</ele></trkpt>
      <trkpt lat="44.696159" lon="8.675079"><ele>145.6</ele></trkpt>
      <trkpt lat="44.696006" lon="8.674851"><ele>145.8</ele></trkpt>
      <trkpt lat="44.695732" lon="8.674605"><ele>146.2</ele></trkpt>
      <trkpt lat="44.695602" lon="8.674527"><ele>146.3</ele></trkpt>
      <trkpt lat="44.695547" lon="8.674425"><ele>146.3</ele></trkpt>
      <trkpt lat="44.695425" lon="8.674328"><ele>146.4</ele></trkpt>
      <trkpt lat="44.694866" lon="8.674100"><ele>146.7</ele></trkpt>
      <trkpt lat="44.694153" lon="8.673658"><ele>147.1</ele></trkpt>
      <trkpt lat="44.693972" lon="8.673604"><ele>147.2</ele></trkpt>
      <trkpt lat="44.693793" lon="8.673440"><ele>147.4</ele></trkpt>
      <trkpt lat="44.693560" lon="8.673290"><ele>147.5</ele></trkpt>
      <trkpt lat="44.692933" lon="8.672998"><ele>147.9</ele></trkpt>
      <trkpt lat="44.692746" lon="8.672985"><ele>148.0</ele></trkpt>
      <trkpt lat="44.692666" lon="8.673006"><ele>148.1</ele></trkpt>
      <trkpt lat="44.692586" lon="8.673094"><ele>148.1</ele></trkpt>
      <trkpt lat="44.692532" lon="8.673065"><ele>148.2</ele></trkpt>
      <trkpt lat="44.692494" lon="8.672918"><ele>148.2</ele></trkpt>
      <trkpt lat="44.692016" lon="8.672781"><ele>148.0</ele></trkpt>
      <trkpt lat="44.691890" lon="8.672807"><ele>147.9</ele></trkpt>
      <trkpt lat="44.691756" lon="8.672697"><ele>147.8</ele></trkpt>
      <trkpt lat="44.691434" lon="8.672542"><ele>147.6</ele></trkpt>
      <trkpt lat="44.691320" lon="8.672448"><ele>147.6</ele></trkpt>
      <trkpt lat="44.691283" lon="8.672287"><ele>147.5</ele></trkpt>
      <trkpt lat="44.691314" lon="8.672183"><ele>147.5</ele></trkpt>
      <trkpt lat="44.691365" lon="8.672110"><ele>147.4</ele></trkpt>
      <trkpt lat="44.691457" lon="8.672140"><ele>147.4</ele></trkpt>
      <trkpt lat="44.691615" lon="8.672027"><ele>147.3</ele></trkpt>
      <trkpt lat="44.691688" lon="8.671764"><ele>147.2</ele></trkpt>
      <trkpt lat="44.691640" lon="8.671670"><ele>147.1</ele></trkpt>
      <trkpt lat="44.691548" lon="8.671617"><ele>147.1</ele></trkpt>
      <trkpt lat="44.691247" lon="8.671273"><ele>146.9</ele></trkpt>
      <trkpt lat="44.691028" lon="8.671145"><ele>146.8</ele></trkpt>
      <trkpt lat="44.690788" lon="8.670766"><ele>146.6</ele></trkpt>
      <trkpt lat="44.690511" lon="8.670514"><ele>146.4</ele></trkpt>
      <trkpt lat="44.689439" lon="8.669747"><ele>146.7</ele></trkpt>
      <trkpt lat="44.689127" lon="8.669589"><ele>146.8</ele></trkpt>
      <trkpt lat="44.688011" lon="8.668878"><ele>147.9</ele></trkpt>
      <trkpt lat="44.687855" lon="8.668800"><ele>148.1</ele></trkpt>
      <trkpt lat="44.687510" lon="8.668704"><ele>148.6</ele></trkpt>
      <trkpt lat="44.687384" lon="8.668588"><ele>148.8</ele></trkpt>
      <trkpt lat="44.687001" lon="8.668394"><ele>149.7</ele></trkpt>
      <trkpt lat="44.686772" lon="8.668547"><ele>150.9</ele></trkpt>
      <trkpt lat="44.685980" lon="8.669410"><ele>155.6</ele></trkpt>
      <trkpt lat="44.685857" lon="8.669517"><ele>156.3</ele></trkpt>
      <trkpt lat="44.685586" lon="8.669679"><ele>157.7</ele></trkpt>
      <trkpt lat="44.685233" lon="8.670043"><ele>160.5</ele></trkpt>
      <trkpt lat="44.684896" lon="8.670646"><ele>163.8</ele></trkpt>
      <trkpt lat="44.684807" lon="8.670958"><ele>165.3</ele></trkpt>
      <trkpt lat="44.684731" lon="8.671393"><ele>167.3</ele></trkpt>
      <trkpt lat="44.684700" lon="8.671420"><ele>167.5</ele></trkpt>
      <trkpt lat="44.684599" lon="8.671438"><ele>168.2</ele></trkpt>
      <trkpt lat="44.684396" lon="8.671573"><ele>169.5</ele></trkpt>
    </trkseg>
  </trk>
</gpx>
