<?xml version="1.0" encoding="UTF-8"?>
<kml xmlns="http://www.opengis.net/kml/2.2"><Document><name>Konstanz-Genua Gesamtroute</name><Style id="r"><LineStyle><color>ff3c14dc</color><width>3</width></LineStyle></Style><Placemark><name>Konstanz - Genova 667 km</name><styleUrl>#r</styleUrl><LineString><tessellate>1</tessellate><coordinates>9.175025,47.658938,403 9.175451,47.657790,402 9.175805,47.653892,403 9.174329,47.653166,406 9.173999,47.651771,411 9.173879,47.651098,412 9.173347,47.649874,414 9.172721,47.648744,415 9.172375,47.648111,415 9.173039,47.647604,416 9.172759,47.645288,420 9.171870,47.644467,424 9.171780,47.642844,433 9.172693,47.641139,446 9.173272,47.639521,458 9.175479,47.637011,472 9.174836,47.632914,497 9.174257,47.629484,511 9.172236,47.622969,531 9.170258,47.621966,532 9.171259,47.614120,539 9.169496,47.611526,546 9.169665,47.610096,548 9.170154,47.606469,552 9.169876,47.604463,557 9.170715,47.601883,567 9.170678,47.599753,570 9.170452,47.593185,564 9.170417,47.587841,556 9.169004,47.584569,557 9.167516,47.580688,554 9.166620,47.578541,550 9.165326,47.576048,534 9.164947,47.573212,515 9.164358,47.571916,507 9.162805,47.570723,493 9.162917,47.568718,478 9.159121,47.565732,461 9.157938,47.564194,447 9.160944,47.561070,437 9.157274,47.556014,434 9.153053,47.552332,439 9.153040,47.550609,440 9.152801,47.549876,440 9.152035,47.548149,440 9.151430,47.546927,440 9.149127,47.544565,442 9.148549,47.540515,441 9.146489,47.535496,461 9.145462,47.533134,477 9.144867,47.527224,482 9.144599,47.524507,490 9.142500,47.523829,505 9.138115,47.522807,530 9.141596,47.522587,532 9.139354,47.518224,554 9.139108,47.516239,566 9.138303,47.514772,573 9.135738,47.512030,591 9.133662,47.511044,605 9.134719,47.505797,634 9.131747,47.504193,632 9.136541,47.501027,647 9.134308,47.495309,668 9.136090,47.490853,685 9.130422,47.490922,678 9.126466,47.487513,668 9.123050,47.485795,659 9.120144,47.486430,659 9.116338,47.483845,635 9.114651,47.482918,621 9.112631,47.483429,606 9.109693,47.481229,568 9.110062,47.479905,557 9.109680,47.478386,554 9.108225,47.476181,553 9.105079,47.476747,545 9.105991,47.474314,532 9.105158,47.472500,527 9.105286,47.471548,526 9.101852,47.470704,523 9.100131,47.469777,522 9.099905,47.465263,514 9.098559,47.464761,508 9.098357,47.461328,508 9.079340,47.457738,511 9.069768,47.454714,516 9.068371,47.453278,517 9.066069,47.451010,517 9.065180,47.449055,517 9.062920,47.446837,524 9.061635,47.445628,533 9.060319,47.443347,549 9.054358,47.443251,563 9.053942,47.442096,569 9.053624,47.440385,574 9.061220,47.432633,603 9.060393,47.430135,610 9.062245,47.420619,625 9.063499,47.418496,620 9.064193,47.416894,614 9.065459,47.415895,613 9.067013,47.414944,612 9.068073,47.413701,607 9.069501,47.411132,599 9.070488,47.409645,595 9.071243,47.408509,591 9.070871,47.407136,580 9.068390,47.405532,574 9.069028,47.403757,575 9.071561,47.400728,575 9.075752,47.397612,570 9.075380,47.395437,558 9.075195,47.393709,556 9.073646,47.393684,559 9.072925,47.393040,567 9.071714,47.392013,583 9.071071,47.389811,603 9.071578,47.386514,599 9.072522,47.384023,593 9.073387,47.381096,592 9.075080,47.376410,594 9.070984,47.373632,602 9.073214,47.363723,612 9.073594,47.362411,613 9.073714,47.360151,613 9.073165,47.358337,613 9.073387,47.356678,613 9.073712,47.354951,613 9.074818,47.353060,611 9.077155,47.350439,610 9.079583,47.347303,605 9.078869,47.345880,598 9.080444,47.345920,594 9.081663,47.345755,594 9.081752,47.342340,602 9.081889,47.340625,609 9.083573,47.338789,620 9.083506,47.336764,622 9.085071,47.335558,624 9.087328,47.333980,628 9.084683,47.331995,629 9.084641,47.330750,628 9.084963,47.328332,627 9.085743,47.326558,630 9.086383,47.324684,633 9.087386,47.324110,629 9.085752,47.323059,616 9.084186,47.321366,612 9.085193,47.320165,608 9.083005,47.317430,604 9.081323,47.316459,605 9.079414,47.313151,606 9.085963,47.308591,610 9.085384,47.306956,609 9.082684,47.304771,609 9.084774,47.302485,611 9.087333,47.302166,612 9.089710,47.300961,612 9.089779,47.297631,612 9.091026,47.294737,613 9.092955,47.291935,615 9.097476,47.289943,615 9.099283,47.288065,616 9.099116,47.286229,617 9.096883,47.284574,617 9.097232,47.281355,617 9.103379,47.277727,619 9.107090,47.274391,621 9.111744,47.268148,624 9.113857,47.264980,630 9.117950,47.263769,630 9.120366,47.259739,636 9.124187,47.258167,639 9.125302,47.258530,637 9.128241,47.258294,641 9.129824,47.256078,651 9.130455,47.255049,660 9.132501,47.254936,665 9.133937,47.254702,664 9.136156,47.253368,666 9.138709,47.253706,676 9.140898,47.253938,684 9.142790,47.253460,695 9.144370,47.252799,705 9.145247,47.252987,713 9.146599,47.252320,722 9.148407,47.251333,729 9.150045,47.249800,736 9.150281,47.247388,745 9.152903,47.246604,742 9.155202,47.247211,737 9.157851,47.248295,734 9.161833,47.248950,736 9.165222,47.248757,721 9.166013,47.246570,721 9.169219,47.243857,727 9.173065,47.243283,737 9.176079,47.241311,747 9.176285,47.239629,759 9.176830,47.238311,761 9.179996,47.237208,765 9.180405,47.236049,763 9.182643,47.233572,750 9.185676,47.229744,742 9.185847,47.226828,748 9.189589,47.224962,757 9.193358,47.223587,753 9.197760,47.223921,754 9.198195,47.223201,754 9.200255,47.223277,756 9.201491,47.222648,759 9.202565,47.221156,760 9.202255,47.218958,774 9.200397,47.218117,799 9.204387,47.217221,823 9.205208,47.216563,835 9.206756,47.215058,842 9.208075,47.213953,842 9.211114,47.213239,833 9.213873,47.212860,833 9.215818,47.211316,833 9.216115,47.210086,832 9.216435,47.209013,834 9.216723,47.207811,834 9.216636,47.207058,833 9.217621,47.205510,832 9.218610,47.203603,831 9.219767,47.202261,832 9.222216,47.201273,837 9.225621,47.199475,841 9.227047,47.198982,840 9.228738,47.198817,841 9.231988,47.195780,847 9.231414,47.194111,849 9.232136,47.192704,856 9.232179,47.192210,871 9.232599,47.190265,901 9.231568,47.190875,914 9.233106,47.189288,931 9.237255,47.190142,881 9.238483,47.190472,873 9.241769,47.189790,870 9.242851,47.189208,870 9.244596,47.188458,872 9.248856,47.188897,879 9.249044,47.187674,881 9.250623,47.187247,882 9.252438,47.187181,881 9.256077,47.186496,883 9.258847,47.186472,881 9.263601,47.188092,880 9.269991,47.190386,883 9.275470,47.192020,886 9.280935,47.193693,888 9.283911,47.194498,890 9.285356,47.193843,891 9.286665,47.193664,891 9.291498,47.194024,897 9.294625,47.194461,897 9.298089,47.194604,898 9.301267,47.194950,899 9.305689,47.194742,905 9.308954,47.194973,909 9.310980,47.195768,912 9.311008,47.196417,913 9.313015,47.196765,921 9.313856,47.198576,938 9.317028,47.197867,954 9.321878,47.198892,975 9.325032,47.200249,989 9.327756,47.199644,996 9.332291,47.199566,1005 9.336087,47.199543,1017 9.339073,47.200407,1035 9.339968,47.200895,1038 9.344304,47.201042,1031 9.347734,47.200359,1023 9.360429,47.199402,1020 9.368825,47.198984,990 9.375839,47.198482,967 9.378349,47.197866,961 9.384131,47.198122,933 9.385779,47.197670,931 9.386988,47.196992,935 9.387581,47.196026,943 9.390379,47.194515,943 9.392578,47.194036,938 9.395922,47.193695,929 9.398473,47.193517,919 9.402235,47.192766,908 9.404318,47.192497,902 9.406273,47.191465,896 9.410191,47.191124,879 9.412572,47.189082,863 9.414958,47.189157,848 9.414538,47.190148,831 9.415333,47.190563,813 9.416013,47.191349,799 9.418320,47.190826,781 9.419724,47.190569,768 9.421767,47.190638,751 9.422661,47.188954,728 9.423405,47.188688,718 9.423929,47.188859,706 9.426074,47.188580,687 9.428419,47.186705,662 9.432287,47.183499,623 9.432750,47.181673,604 9.434863,47.185032,576 9.435485,47.186010,553 9.437119,47.184913,540 9.438086,47.182516,514 9.437385,47.180248,499 9.439114,47.180285,492 9.441530,47.179408,480 9.444531,47.178620,470 9.447527,47.178437,463 9.448691,47.177797,461 9.450329,47.176439,458 9.453359,47.174917,453 9.466010,47.175216,444 9.465982,47.174350,444 9.469473,47.174340,444 9.474210,47.174913,445 9.477339,47.175475,445 9.479786,47.175913,445 9.482788,47.176385,446 9.485679,47.176759,448 9.488101,47.170621,448 9.495144,47.155433,449 9.499749,47.148711,452 9.506410,47.141813,454 9.512184,47.127561,458 9.514684,47.118456,459 9.517107,47.109595,462 9.518711,47.097406,464 9.514883,47.087966,466 9.504218,47.081241,469 9.491543,47.074102,472 9.478261,47.068863,474 9.473632,47.066798,476 9.470898,47.062921,475 9.473494,47.055522,477 9.477784,47.047296,483 9.488939,47.035578,488 9.500092,47.024045,492 9.505883,47.018075,496 9.507827,47.014189,499 9.507718,47.012329,499 9.507473,47.010182,501 9.506539,47.009112,502 9.505518,47.007787,504 9.505106,47.006273,507 9.503882,47.004234,511 9.501523,47.001786,519 9.500323,47.001536,523 9.498620,47.001437,536 9.499044,46.998880,566 9.498827,46.999984,580 9.496801,46.997697,607 9.495603,46.997172,625 9.496742,46.999241,656 9.496313,46.999535,673 9.494943,46.998217,697 9.493619,46.997652,718 9.489220,46.994257,784 9.486515,46.992518,813 9.485472,46.989898,826 9.486034,46.989473,809 9.492284,46.990168,787 9.492331,46.989345,792 9.494158,46.988165,806 9.495896,46.987989,813 9.497996,46.987893,828 9.495179,46.985692,850 9.492735,46.981930,864 9.491321,46.978706,898 9.491259,46.975605,921 9.490908,46.973083,931 9.490739,46.969046,935 9.491488,46.966614,964 9.489945,46.965030,974 9.486740,46.961975,984 9.484863,46.960476,979 9.484735,46.957337,953 9.484800,46.955847,944 9.484037,46.952705,917 9.484725,46.949935,906 9.484257,46.948729,902 9.482917,46.948251,890 9.483310,46.946513,884 9.482344,46.944444,880 9.482144,46.943365,882 9.480513,46.941666,882 9.478615,46.940356,889 9.477113,46.938616,891 9.474978,46.936065,891 9.472026,46.933293,889 9.470692,46.932755,891 9.470600,46.929800,899 9.469243,46.928012,895 9.466093,46.926062,897 9.464011,46.924853,900 9.461706,46.923104,921 9.459856,46.921214,936 9.457796,46.921142,937 9.457688,46.919691,928 9.454788,46.918084,918 9.451817,46.914593,928 9.450747,46.912273,940 9.446626,46.909769,945 9.441853,46.908577,946 9.440746,46.908502,948 9.439634,46.907044,952 9.438354,46.905572,960 9.436675,46.902640,976 9.434309,46.901167,980 9.432605,46.900409,984 9.431562,46.898094,993 9.431337,46.895773,1006 9.430551,46.894301,1016 9.429633,46.891715,1032 9.427618,46.889162,1044 9.426197,46.887967,1054 9.424858,46.885990,1062 9.423233,46.883870,1070 9.421250,46.882780,1071 9.419001,46.880955,1076 9.417056,46.878519,1087 9.415181,46.876771,1096 9.414469,46.875118,1103 9.412550,46.871842,1124 9.409665,46.868839,1149 9.409327,46.865378,1186 9.409119,46.861637,1234 9.408497,46.860544,1254 9.408167,46.859174,1276 9.408363,46.857347,1300 9.409500,46.857338,1314 9.410619,46.858025,1330 9.411785,46.858190,1340 9.411702,46.855599,1349 9.413108,46.852324,1303 9.412124,46.850279,1249 9.410809,46.851319,1229 9.406017,46.851511,1192 9.402840,46.852112,1162 9.399572,46.851932,1130 9.400948,46.850981,1092 9.401076,46.850128,1056 9.398895,46.849338,1025 9.399817,46.848272,965 9.403130,46.847363,914 9.406429,46.846441,871 9.408464,46.845821,838 9.405212,46.842686,787 9.404216,46.841048,768 9.405347,46.836626,747 9.405753,46.834967,712 9.406013,46.833284,684 9.406595,46.831804,672 9.406607,46.830039,665 9.405922,46.828437,648 9.408572,46.827767,624 9.407125,46.827160,616 9.407936,46.825328,603 9.408079,46.824522,595 9.406600,46.822872,590 9.404704,46.822056,589 9.403740,46.816298,614 9.402544,46.813612,647 9.400032,46.812728,655 9.397512,46.812129,657 9.393722,46.812200,657 9.391460,46.812890,656 9.388380,46.813467,659 9.383945,46.815352,667 9.379576,46.816742,675 9.375867,46.816200,684 9.369329,46.815941,698 9.365593,46.816088,705 9.360477,46.814244,718 9.357349,46.812927,733 9.354074,46.812432,741 9.348816,46.811151,754 9.347101,46.810384,766 9.346398,46.809260,774 9.344724,46.808104,774 9.343849,46.806396,776 9.342780,46.805872,775 9.341655,46.803688,764 9.343339,46.801957,753 9.344712,46.800724,753 9.345177,46.798138,763 9.343597,46.797060,753 9.340991,46.795605,738 9.340253,46.794362,753 9.339939,46.794874,766 9.340288,46.793776,779 9.339256,46.793998,795 9.338855,46.793845,817 9.341481,46.791449,831 9.339638,46.789726,858 9.341151,46.788555,882 9.338250,46.789733,897 9.338361,46.791498,899 9.337612,46.792245,903 9.336452,46.793614,904 9.333109,46.794313,910 9.329126,46.793992,919 9.323078,46.793829,941 9.317773,46.794604,941 9.313743,46.792744,942 9.311680,46.791529,939 9.309173,46.791281,924 9.306022,46.791622,905 9.301782,46.790079,882 9.299428,46.788480,872 9.296943,46.788595,855 9.295656,46.788467,842 9.296070,46.783939,841 9.292343,46.786671,826 9.288916,46.787926,815 9.285588,46.788465,813 9.282708,46.787764,811 9.279772,46.787201,805 9.271675,46.786583,787 9.268033,46.786256,773 9.264840,46.784537,756 9.259692,46.781850,739 9.256368,46.780820,729 9.249683,46.779886,732 9.242350,46.779144,718 9.239350,46.778552,710 9.232747,46.777082,716 9.231239,46.776212,722 9.227877,46.774946,721 9.225033,46.773516,717 9.219996,46.772765,710 9.216071,46.774564,703 9.211146,46.774386,699 9.208777,46.774315,700 9.206720,46.774252,701 9.205120,46.774208,702 9.203262,46.774197,702 9.201645,46.774649,700 9.193982,46.772939,701 9.184105,46.769792,723 9.180599,46.770322,731 9.176694,46.771231,730 9.171735,46.771975,734 9.167441,46.772939,732 9.161481,46.773372,746 9.154875,46.774504,747 9.149025,46.774253,757 9.146141,46.773691,762 9.140436,46.773027,757 9.136101,46.771747,763 9.132198,46.771231,760 9.129396,46.770973,760 9.126201,46.770046,768 9.120824,46.768234,763 9.116018,46.766464,761 9.112469,46.764398,769 9.106087,46.763184,771 9.101826,46.761282,781 9.098304,46.759147,786 9.093479,46.757381,786 9.089112,46.756539,782 9.081436,46.756118,777 9.077303,46.756189,781 9.069958,46.754740,787 9.067426,46.755538,785 9.062274,46.754319,802 9.058857,46.754084,797 9.058696,46.753749,792 9.048851,46.752390,793 9.042070,46.750399,801 9.034751,46.748580,814 9.032433,46.747506,819 9.029447,46.746877,818 9.024368,46.746381,820 9.015249,46.745890,832 9.013472,46.745421,836 9.009725,46.745915,842 9.005863,46.745636,845 9.004017,46.744888,845 9.001166,46.745336,850 8.998295,46.745275,857 8.995479,46.743768,854 8.993129,46.743217,851 8.993424,46.741923,849 8.988010,46.740700,851 8.982926,46.738876,855 8.976598,46.736641,861 8.974706,46.734738,865 8.970776,46.733254,872 8.967386,46.729836,885 8.965817,46.728311,892 8.963124,46.727273,892 8.960380,46.725639,892 8.956540,46.724723,897 8.955061,46.722965,905 8.950999,46.722146,903 8.949435,46.723020,899 8.947506,46.722338,899 8.943148,46.720379,909 8.937846,46.720217,913 8.929590,46.720497,920 8.926072,46.720000,932 8.919584,46.720064,947 8.916960,46.720506,940 8.911419,46.719135,969 8.908716,46.718761,981 8.906261,46.719153,984 8.903154,46.718491,991 8.900749,46.717847,994 8.896772,46.716463,979 8.894569,46.717344,972 8.892148,46.717006,980 8.888940,46.715552,990 8.885834,46.714915,992 8.883188,46.714575,1001 8.879889,46.713288,1006 8.877519,46.711832,1009 8.877019,46.710772,1008 8.875010,46.709066,1004 8.872430,46.707681,1013 8.868462,46.706131,1022 8.867487,46.705072,1028 8.867914,46.704213,1033 8.864654,46.703051,1037 8.863646,46.700320,1041 8.861687,46.698738,1042 8.858324,46.698939,1044 8.854687,46.698118,1054 8.853181,46.697354,1064 8.853712,46.696042,1077 8.852443,46.696334,1084 8.855378,46.694503,1092 8.855035,46.692360,1112 8.854175,46.690524,1130 8.853361,46.688053,1159 8.855318,46.685462,1201 8.855123,46.682013,1229 8.854906,46.680809,1237 8.855206,46.677842,1244 8.855292,46.675440,1258 8.855548,46.677185,1272 8.856746,46.676368,1286 8.858750,46.675055,1311 8.857634,46.673673,1327 8.858886,46.669726,1341 8.857821,46.664655,1373 8.856733,46.661602,1387 8.853793,46.656973,1393 8.851603,46.653599,1409 8.851470,46.650918,1416 8.851138,46.646569,1421 8.849125,46.642664,1437 8.848938,46.640376,1452 8.847147,46.638340,1461 8.847396,46.635386,1479 8.843693,46.633271,1494 8.837787,46.630953,1522 8.836633,46.627908,1546 8.838185,46.626390,1561 8.834551,46.626663,1582 8.829450,46.625360,1608 8.824002,46.622473,1634 8.822105,46.616624,1656 8.821234,46.612685,1669 8.819657,46.608545,1685 8.817959,46.604282,1713 8.816614,46.601382,1737 8.814658,46.599303,1755 8.809691,46.596152,1774 8.806740,46.594503,1785 8.803891,46.592421,1799 8.805573,46.592420,1813 8.807679,46.593043,1828 8.806387,46.592036,1846 8.809069,46.592841,1865 8.805763,46.590162,1896 8.803711,46.585375,1917 8.801947,46.579448,1926 8.801359,46.573573,1924 8.801391,46.566111,1920 8.801245,46.563542,1917 8.799925,46.564548,1916 8.798313,46.564674,1919 8.796505,46.564110,1924 8.795505,46.565420,1919 8.794234,46.567776,1915 8.790660,46.568610,1917 8.787638,46.567703,1917 8.784562,46.566692,1924 8.782550,46.565873,1940 8.779815,46.564391,1972 8.777323,46.561909,2021 8.775257,46.560249,2064 8.773924,46.559370,2091 8.772023,46.558169,2127 8.769417,46.556730,2168 8.765018,46.554151,2207 8.763366,46.552215,2214 8.760221,46.549238,2207 8.758064,46.547201,2197 8.758757,46.546097,2194 8.760664,46.544549,2199 8.761230,46.543542,2209 8.761002,46.542738,2219 8.759338,46.541497,2232 8.759188,46.540577,2232 8.756863,46.540689,2219 8.755033,46.540657,2205 8.753609,46.540701,2192 8.752223,46.541522,2173 8.747582,46.541899,2142 8.745034,46.541181,2130 8.744163,46.539738,2125 8.741273,46.540140,2109 8.740214,46.539004,2097 8.737531,46.539059,2078 8.733632,46.541939,2041 8.729415,46.543739,2010 8.725992,46.545529,1985 8.722410,46.546489,1975 8.719419,46.546946,1968 8.713724,46.546363,1940 8.710668,46.547431,1930 8.707411,46.547850,1923 8.704346,46.547401,1914 8.701421,46.546459,1891 8.698510,46.546125,1876 8.695522,46.545189,1861 8.692585,46.544096,1847 8.688448,46.543180,1841 8.684754,46.542630,1846 8.682597,46.542459,1846 8.679608,46.540810,1842 8.677407,46.539243,1842 8.674450,46.536033,1850 8.675324,46.534335,1857 8.677308,46.533796,1842 8.677424,46.533751,1825 8.677032,46.532502,1800 8.674610,46.531976,1803 8.674125,46.530096,1805 8.675007,46.528774,1778 8.672345,46.527286,1754 8.666922,46.526324,1708 8.662402,46.526148,1681 8.654699,46.526881,1614 8.661373,46.524963,1555 8.662379,46.524330,1524 8.658409,46.525002,1516 8.654936,46.525250,1502 8.653649,46.524728,1485 8.651564,46.524917,1467 8.646980,46.525102,1440 8.644352,46.525173,1423 8.647231,46.524375,1399 8.650401,46.523216,1377 8.648010,46.523419,1342 8.643580,46.524074,1306 8.638344,46.525456,1281 8.634121,46.526710,1257 8.631073,46.527639,1223 8.634206,46.525273,1192 8.631910,46.525472,1173 8.629071,46.526577,1156 8.627427,46.527956,1140 8.625868,46.527890,1130 8.623452,46.526774,1116 8.620218,46.526723,1117 8.617125,46.526283,1126 8.612630,46.525435,1133 8.610623,46.525416,1147 8.607480,46.524862,1167 8.605124,46.524379,1173 8.602041,46.524198,1183 8.600493,46.523840,1192 8.596712,46.524272,1214 8.591188,46.523250,1244 8.585502,46.522275,1267 8.583010,46.521158,1283 8.581381,46.521174,1290 8.578879,46.520922,1291 8.571715,46.520289,1292 8.567971,46.519647,1296 8.564720,46.518745,1302 8.562311,46.518734,1293 8.560949,46.518730,1281 8.558373,46.517844,1279 8.551258,46.516752,1291 8.546159,46.514922,1309 8.540163,46.513434,1312 8.535656,46.511773,1318 8.532717,46.511119,1326 8.526995,46.509473,1342 8.523899,46.509077,1336 8.516600,46.506253,1358 8.508771,46.503459,1385 8.506561,46.500985,1404 8.502495,46.498303,1438 8.498498,46.497310,1467 8.494316,46.495635,1487 8.491015,46.493342,1511 8.488008,46.491292,1531 8.477657,46.487582,1591 8.475034,46.486708,1605 8.470729,46.485008,1624 8.468471,46.483048,1644 8.464525,46.482339,1670 8.459751,46.479240,1713 8.454718,46.476945,1756 8.451163,46.475111,1793 8.449846,46.474839,1812 8.449732,46.475324,1824 8.445200,46.473450,1867 8.445036,46.472466,1890 8.446184,46.471653,1924 8.447216,46.470994,1945 8.448910,46.470463,1969 8.452082,46.470494,2001 8.453133,46.470433,2016 8.452601,46.469893,2044 8.452500,46.469633,2070 8.453122,46.469103,2095 8.452340,46.468828,2118 8.452433,46.468271,2163 8.453179,46.467550,2189 8.453858,46.467310,2202 8.454701,46.466496,2217 8.456192,46.466964,2226 8.458987,46.465910,2233 8.460745,46.464937,2241 8.458468,46.463359,2258 8.455153,46.460802,2300 8.451588,46.458861,2300 8.448077,46.458462,2289 8.443678,46.457120,2280 8.440553,46.456285,2268 8.437650,46.453579,2248 8.436180,46.451956,2241 8.435255,46.450988,2236 8.434949,46.450188,2232 8.434379,46.449018,2226 8.433594,46.447413,2220 8.432887,46.446343,2216 8.432313,46.445045,2211 8.431422,46.443288,2205 8.430786,46.439608,2193 8.430350,46.437584,2184 8.430408,46.436421,2172 8.428273,46.434815,2158 8.429852,46.434914,2154 8.430399,46.433261,2154 8.430508,46.432408,2155 8.427558,46.430588,2142 8.424542,46.429267,2103 8.422694,46.429322,2079 8.421653,46.428911,2067 8.422759,46.428792,2060 8.421940,46.428654,2060 8.423521,46.428772,2058 8.423962,46.428355,2051 8.422678,46.427811,2037 8.423234,46.427716,2022 8.424316,46.426979,2015 8.425454,46.425100,2000 8.423396,46.426444,1968 8.421215,46.426509,1944 8.421984,46.426358,1937 8.423331,46.424820,1921 8.423966,46.422864,1899 8.422469,46.424284,1879 8.421530,46.424676,1868 8.422588,46.422396,1841 8.422759,46.419807,1813 8.421380,46.417199,1785 8.421539,46.418466,1773 8.420756,46.419886,1757 8.419567,46.420651,1745 8.417964,46.421213,1734 8.416307,46.420277,1729 8.416254,46.417578,1728 8.414269,46.415442,1723 8.411020,46.414443,1703 8.411092,46.410505,1679 8.413770,46.408782,1648 8.416196,46.407118,1629 8.417805,46.406629,1625 8.420414,46.404346,1597 8.420704,46.403395,1578 8.417049,46.405097,1551 8.415539,46.405888,1540 8.417707,46.402865,1514 8.419291,46.401706,1506 8.419726,46.399454,1491 8.420129,46.396898,1469 8.419617,46.397261,1459 8.419380,46.394802,1438 8.421063,46.392391,1419 8.421891,46.390236,1404 8.422956,46.388801,1383 8.422723,46.387886,1372 8.424020,46.387216,1360 8.425683,46.383729,1332 8.425065,46.380761,1310 8.425066,46.378938,1296 8.424503,46.377134,1292 8.424660,46.375365,1288 8.426927,46.373436,1276 8.428166,46.372528,1272 8.429098,46.369366,1266 8.430211,46.367455,1261 8.430692,46.362729,1252 8.431387,46.359067,1245 8.431990,46.354406,1235 8.429480,46.350255,1227 8.428079,46.346697,1223 8.425879,46.344563,1217 8.423803,46.341578,1199 8.416200,46.340370,1133 8.415274,46.344745,1146 8.421678,46.344656,1162 8.417087,46.335985,1070 8.414057,46.334604,1038 8.410254,46.333369,979 8.408126,46.333103,962 8.406884,46.331698,948 8.404569,46.331240,931 8.401261,46.330617,912 8.398902,46.332060,896 8.396383,46.331781,889 8.395245,46.330789,883 8.392350,46.328045,861 8.390087,46.327064,851 8.389318,46.325561,845 8.386251,46.322429,829 8.384057,46.319537,815 8.381552,46.315453,800 8.377381,46.310206,782 8.374749,46.307824,774 8.370730,46.305510,772 8.366323,46.301808,754 8.364949,46.297826,749 8.365874,46.296621,750 8.363219,46.294455,742 8.363728,46.292681,742 8.362392,46.290593,740 8.360268,46.289186,736 8.359433,46.286131,730 8.357451,46.284558,730 8.353971,46.280227,722 8.352488,46.279061,717 8.348591,46.276569,723 8.346972,46.274832,727 8.345933,46.273503,735 8.344509,46.271360,752 8.342382,46.269106,758 8.342761,46.268096,748 8.343125,46.266405,736 8.340031,46.264244,715 8.337820,46.262706,678 8.336479,46.260039,635 8.331365,46.257462,631 8.329139,46.256915,623 8.327794,46.254912,607 8.328890,46.255299,593 8.330700,46.254543,574 8.330562,46.254073,560 8.331343,46.253966,550 8.328061,46.251506,533 8.328570,46.249786,527 8.330403,46.247870,523 8.328233,46.246939,521 8.325136,46.243653,521 8.323646,46.235393,521 8.324957,46.230120,540 8.326307,46.226380,530 8.327680,46.227299,520 8.328634,46.225710,507 8.328242,46.223441,490 8.326493,46.220422,473 8.325349,46.218886,465 8.323484,46.216436,452 8.323119,46.214012,441 8.321545,46.212485,436 8.320476,46.210960,431 8.318929,46.206203,415 8.320196,46.204442,410 8.322092,46.202908,410 8.321405,46.201814,405 8.321590,46.199233,398 8.321768,46.195954,388 8.322264,46.191327,373 8.321363,46.190062,374 8.322581,46.185989,372 8.322942,46.183102,374 8.323146,46.180953,371 8.323580,46.179340,361 8.322229,46.176872,366 8.319050,46.175793,368 8.317967,46.174570,367 8.315860,46.174704,363 8.313151,46.173324,361 8.308931,46.168779,358 8.309152,46.166778,355 8.309122,46.164621,352 8.308162,46.163362,354 8.305852,46.162329,358 8.305339,46.159935,357 8.303690,46.157130,356 8.302972,46.155179,348 8.301735,46.152636,323 8.296738,46.149550,303 8.296365,46.147045,297 8.295652,46.141605,286 8.294690,46.134433,279 8.294244,46.133106,278 8.294274,46.130254,275 8.298718,46.123355,269 8.303363,46.116989,262 8.305538,46.112586,258 8.305184,46.109073,254 8.304179,46.103088,250 8.303539,46.095087,246 8.299044,46.093540,245 8.297697,46.091146,243 8.296172,46.089475,240 8.293851,46.089226,238 8.289588,46.089113,239 8.285420,46.085862,236 8.282213,46.083128,236 8.279146,46.082744,236 8.278155,46.081565,235 8.277765,46.079455,236 8.276590,46.077574,236 8.275213,46.076663,236 8.274762,46.076036,236 8.276335,46.071908,240 8.274904,46.070036,240 8.273388,46.067467,240 8.273972,46.064571,237 8.275648,46.063484,235 8.276168,46.059681,232 8.271779,46.054248,230 8.266295,46.046721,228 8.264189,46.046292,228 8.262060,46.045391,226 8.262193,46.043928,226 8.263761,46.039603,225 8.261741,46.038388,227 8.261741,46.031218,233 8.260507,46.026800,241 8.259286,46.026537,242 8.258878,46.025190,245 8.258617,46.022717,249 8.257651,46.020301,248 8.261863,46.021514,243 8.263696,46.021436,240 8.265947,46.021579,236 8.270491,46.020523,231 8.272645,46.020059,230 8.274326,46.017888,228 8.276575,46.017061,225 8.278071,46.014984,222 8.280019,46.013046,220 8.281087,46.010279,218 8.283173,46.009322,217 8.285265,46.005095,215 8.295065,46.000221,210 8.303447,45.999011,209 8.308360,45.996935,209 8.312143,45.993911,211 8.316458,45.993411,210 8.323416,45.993457,210 8.329384,45.992899,210 8.332392,45.994210,209 8.339105,45.997517,209 8.343580,45.998825,209 8.351179,45.994688,206 8.351719,45.996105,208 8.352847,45.994110,208 8.363088,45.990647,207 8.371426,45.990989,206 8.374388,45.992460,204 8.375838,45.990989,204 8.376663,45.989256,205 8.379239,45.987556,206 8.380049,45.988411,206 8.383174,45.985523,206 8.389878,45.986329,207 8.395194,45.987477,208 8.398620,45.988311,209 8.406194,45.987613,205 8.409353,45.986127,203 8.409862,45.982206,198 8.410283,45.977766,201 8.408784,45.976911,202 8.409515,45.976082,203 8.413390,45.974751,204 8.415538,45.974697,203 8.417192,45.974148,204 8.422305,45.972148,202 8.425948,45.970149,201 8.429313,45.966748,202 8.433157,45.959582,199 8.433136,45.957351,198 8.430210,45.953229,198 8.430164,45.951165,198 8.426660,45.949995,200 8.425740,45.947303,200 8.423576,45.945398,201 8.423166,45.941583,200 8.420903,45.939239,209 8.421651,45.937930,209 8.424295,45.934526,207 8.426009,45.930417,211 8.425848,45.924679,221 8.426825,45.920439,241 8.425859,45.917941,247 8.424341,45.913883,257 8.423305,45.912407,258 8.421416,45.909890,253 8.421642,45.908501,248 8.420563,45.906560,247 8.417291,45.901499,259 8.416082,45.899714,260 8.417244,45.898640,260 8.417642,45.896094,264 8.415734,45.893169,268 8.414546,45.888824,282 8.411209,45.884369,289 8.410343,45.882677,291 8.410320,45.882074,293 8.411514,45.879702,297 8.410229,45.877081,298 8.411448,45.874810,298 8.411081,45.873027,294 8.412167,45.869791,296 8.413899,45.866855,297 8.412219,45.861758,307 8.411908,45.860229,319 8.411022,45.857928,337 8.411673,45.857895,354 8.409071,45.852923,391 8.409624,45.849694,416 8.410151,45.847144,436 8.411507,45.845735,446 8.412709,45.845604,449 8.413451,45.844517,447 8.415238,45.843672,441 8.415878,45.842316,437 8.418635,45.839892,426 8.420060,45.838913,427 8.422632,45.839766,432 8.423650,45.838169,443 8.425726,45.836549,466 8.427865,45.835130,483 8.427285,45.832125,484 8.428273,45.829542,497 8.432598,45.824168,510 8.434028,45.822184,503 8.434128,45.820603,495 8.433785,45.818653,494 8.433584,45.815699,489 8.433217,45.814058,487 8.431356,45.811623,482 8.431881,45.808560,469 8.431252,45.806420,469 8.433776,45.803497,476 8.435976,45.802008,472 8.433820,45.799770,480 8.431795,45.797369,504 8.429401,45.796152,507 8.429374,45.792531,498 8.429751,45.789926,488 8.429319,45.787894,484 8.429351,45.786614,479 8.429490,45.783777,453 8.431055,45.780388,419 8.433682,45.774583,391 8.436048,45.771371,376 8.436472,45.770255,376 8.434507,45.768489,379 8.437898,45.767261,380 8.440623,45.764956,372 8.439740,45.761430,363 8.439551,45.759185,359 8.440436,45.756192,355 8.439023,45.753669,353 8.433348,45.750528,354 8.431717,45.747896,354 8.433502,45.744454,349 8.432308,45.741365,351 8.432019,45.738720,351 8.431350,45.737991,350 8.428026,45.733898,359 8.429408,45.730642,382 8.429773,45.728341,392 8.431392,45.723733,389 8.432387,45.720443,382 8.434329,45.718686,375 8.435471,45.717059,375 8.439410,45.712135,366 8.441880,45.709764,361 8.444365,45.706221,361 8.444128,45.705439,359 8.443663,45.704668,354 8.441823,45.702526,342 8.438795,45.701352,334 8.435753,45.697025,340 8.433553,45.693478,334 8.435710,45.691772,322 8.438516,45.689546,317 8.439490,45.687864,326 8.439780,45.686161,345 8.437717,45.685740,359 8.435530,45.684229,367 8.432751,45.682288,366 8.435825,45.673540,356 8.429782,45.667112,350 8.423267,45.665762,350 8.422504,45.659591,344 8.420034,45.653473,338 8.415508,45.651036,335 8.415090,45.643079,324 8.412173,45.638377,311 8.409904,45.638392,308 8.403644,45.635213,320 8.402381,45.634642,320 8.398878,45.633896,311 8.392947,45.632764,275 8.392695,45.630400,267 8.391042,45.629190,264 8.390614,45.628280,263 8.390055,45.627199,262 8.390822,45.624466,259 8.394014,45.620493,255 8.395079,45.616282,251 8.396412,45.600814,243 8.398598,45.577438,227 8.399803,45.576769,227 8.402723,45.567246,221 8.402140,45.564379,220 8.402809,45.561811,218 8.402971,45.554571,215 8.401191,45.541219,206 8.400032,45.530677,201 8.390671,45.529003,199 8.390148,45.526784,198 8.391339,45.525426,198 8.392659,45.524193,197 8.395620,45.520710,194 8.398543,45.509466,187 8.398612,45.502372,182 8.397307,45.494432,181 8.393457,45.495306,180 8.391300,45.495310,182 8.389186,45.495539,185 8.387669,45.494538,186 8.382905,45.491084,181 8.375393,45.486880,178 8.371730,45.484095,177 8.367630,45.483852,180 8.367004,45.480390,178 8.366162,45.468485,170 8.364545,45.464553,168 8.363059,45.460496,168 8.359337,45.460114,170 8.359381,45.458009,168 8.361718,45.456406,165 8.358993,45.454781,165 8.353413,45.454833,165 8.354246,45.452494,166 8.350302,45.448807,166 8.347363,45.443860,160 8.341599,45.435540,153 8.338252,45.435515,156 8.328340,45.432006,151 8.320628,45.432709,151 8.318102,45.431521,151 8.311089,45.431444,151 8.306035,45.433540,153 8.303534,45.434672,154 8.301367,45.434701,154 8.297583,45.435928,155 8.297234,45.432091,157 8.299450,45.429853,154 8.305015,45.426077,152 8.315970,45.424770,150 8.319671,45.420037,148 8.322710,45.416996,148 8.325542,45.413554,147 8.324344,45.410829,148 8.324783,45.409122,150 8.323177,45.407751,149 8.307519,45.405451,152 8.308085,45.403608,151 8.304443,45.403297,151 8.299387,45.400075,152 8.293760,45.397702,154 8.293748,45.395737,154 8.291860,45.395548,154 8.279220,45.380657,156 8.274288,45.381940,156 8.275663,45.377159,156 8.266167,45.375424,158 8.262627,45.369865,157 8.252685,45.366224,160 8.252680,45.364142,160 8.251776,45.360058,160 8.250347,45.353610,163 8.249449,45.352622,164 8.248613,45.351655,164 8.246452,45.349513,163 8.242462,45.348084,161 8.239740,45.348269,162 8.235038,45.347478,163 8.231180,45.346164,163 8.225029,45.340287,165 8.221434,45.338168,165 8.218485,45.336990,166 8.218876,45.335822,166 8.216112,45.335321,166 8.211034,45.329936,168 8.211046,45.326037,166 8.204762,45.324565,167 8.203862,45.321007,166 8.187964,45.313898,167 8.186952,45.314932,167 8.176455,45.306349,167 8.159612,45.292452,167 8.147884,45.282859,168 8.135622,45.273497,168 8.122775,45.266007,168 8.109820,45.258504,169 8.097493,45.250802,169 8.079800,45.238774,170 8.078007,45.236514,170 8.077988,45.232493,168 8.078814,45.226539,166 8.082838,45.222737,167 8.083244,45.218893,164 8.085511,45.213983,163 8.086337,45.207075,160 8.086882,45.202425,158 8.093650,45.198708,157 8.097524,45.197022,156 8.098909,45.196448,156 8.101101,45.195227,155 8.103160,45.193377,156 8.102325,45.190535,155 8.102213,45.190061,154 8.101112,45.185764,151 8.100819,45.184187,150 8.098301,45.175529,154 8.095284,45.174048,151 8.092310,45.173143,151 8.089698,45.171698,151 8.084961,45.168608,152 8.079094,45.167479,153 8.076537,45.164907,155 8.075522,45.161801,161 8.071293,45.160980,164 8.069254,45.156766,171 8.069192,45.154387,182 8.068213,45.151674,205 8.064680,45.148963,249 8.064681,45.146185,259 8.066749,45.142112,282 8.069583,45.140522,306 8.071550,45.139285,305 8.074110,45.137721,301 8.076016,45.132795,324 8.076853,45.129009,332 8.079505,45.125079,320 8.079102,45.122819,335 8.077239,45.118488,358 8.076860,45.115497,358 8.077587,45.112750,358 8.078372,45.110886,346 8.081565,45.107192,317 8.081690,45.104659,308 8.079498,45.104166,298 8.078546,45.102545,282 8.078724,45.100835,266 8.079712,45.099621,261 8.081614,45.097534,259 8.083963,45.095529,255 8.086557,45.091443,257 8.087359,45.087060,267 8.087386,45.084805,277 8.086415,45.082858,287 8.086369,45.080368,266 8.086729,45.078227,238 8.085575,45.074248,210 8.082917,45.071883,230 8.081185,45.070867,242 8.077543,45.070234,265 8.070095,45.069019,275 8.067254,45.067171,287 8.063225,45.067766,271 8.062953,45.065655,246 8.066506,45.062987,240 8.067827,45.060142,236 8.069356,45.056640,232 8.068696,45.053716,229 8.067269,45.050915,224 8.064815,45.045658,220 8.063946,45.043369,218 8.062413,45.040836,214 8.068058,45.033550,209 8.066337,45.029082,205 8.066353,45.025608,206 8.067766,45.022334,203 8.065613,45.018397,200 8.067287,45.016498,198 8.065094,45.011988,196 8.064010,45.007842,193 8.063349,45.005166,193 8.064219,45.004369,192 8.062639,45.001647,189 8.062108,44.998746,187 8.062919,44.995318,190 8.063316,44.992146,191 8.065202,44.989885,186 8.061069,44.989170,184 8.054597,44.989599,204 8.056160,44.988831,211 8.054654,44.990033,206 8.056695,44.986294,184 8.057452,44.983174,182 8.058795,44.980761,182 8.061808,44.976630,180 8.062647,44.971909,179 8.063846,44.966559,179 8.062549,44.962271,177 8.062388,44.960183,173 8.062507,44.957706,172 8.060163,44.957938,175 8.059831,44.957529,176 8.060824,44.955009,173 8.061518,44.953223,171 8.061014,44.950561,172 8.061394,44.948510,171 8.060194,44.945903,170 8.060590,44.942969,168 8.061663,44.938337,165 8.062309,44.934367,163 8.063883,44.932124,166 8.066844,44.929375,168 8.068014,44.927393,178 8.069185,44.924989,179 8.073266,44.919100,166 8.076979,44.915279,162 8.080473,44.910681,159 8.083657,44.907430,154 8.085768,44.906071,152 8.087707,44.905433,149 8.097790,44.905879,145 8.102136,44.904989,146 8.102552,44.903138,145 8.102703,44.901606,143 8.104789,44.899087,142 8.109289,44.895044,148 8.114744,44.893659,157 8.120685,44.891219,148 8.121302,44.889608,143 8.122527,44.888166,143 8.124553,44.887470,152 8.131754,44.886677,155 8.135930,44.889841,147 8.144299,44.890158,134 8.147709,44.889833,130 8.151285,44.890631,128 8.157603,44.894296,125 8.168652,44.895896,125 8.175377,44.894574,128 8.187458,44.893281,119 8.192524,44.892617,117 8.196295,44.892127,117 8.201097,44.893113,116 8.201429,44.891615,116 8.204045,44.890247,115 8.206729,44.888877,115 8.211431,44.885643,110 8.218001,44.887291,108 8.225334,44.888788,109 8.229238,44.891924,111 8.239264,44.895050,109 8.243852,44.892376,109 8.246776,44.888125,109 8.252011,44.886133,109 8.261098,44.888857,105 8.265199,44.890600,107 8.269891,44.889583,107 8.272352,44.891565,108 8.274151,44.891727,108 8.281734,44.891922,108 8.285451,44.893502,109 8.306328,44.881369,107 8.308423,44.880094,106 8.312135,44.878729,107 8.314572,44.877791,107 8.314974,44.876907,106 8.319016,44.875203,105 8.325689,44.876639,105 8.334842,44.877976,109 8.339123,44.877709,113 8.342420,44.876594,116 8.347151,44.876571,114 8.356117,44.874791,109 8.361711,44.874123,105 8.370398,44.874387,104 8.378829,44.875563,103 8.383988,44.877885,106 8.391068,44.881208,105 8.396052,44.884098,104 8.402836,44.884072,104 8.406026,44.883602,103 8.409425,44.884688,104 8.412656,44.884994,104 8.415978,44.886691,102 8.424713,44.888899,99 8.430279,44.890973,99 8.434196,44.892588,99 8.435064,44.892144,99 8.438190,44.892187,99 8.440819,44.886848,99 8.445165,44.882850,99 8.450883,44.873901,106 8.455813,44.873040,106 8.462832,44.869999,118 8.468542,44.868805,116 8.477968,44.866845,116 8.482124,44.865977,115 8.484545,44.864488,114 8.485803,44.863056,112 8.490035,44.863140,104 8.493028,44.860730,102 8.494564,44.859135,102 8.504091,44.854052,107 8.513010,44.851711,111 8.515576,44.855247,110 8.513777,44.860573,107 8.517376,44.859510,109 8.520715,44.859545,108 8.531593,44.859226,105 8.537789,44.860069,103 8.544701,44.860925,103 8.548521,44.860872,103 8.556997,44.860683,102 8.558816,44.859795,101 8.558617,44.858340,100 8.559684,44.856171,99 8.562531,44.854048,100 8.566033,44.853469,100 8.569332,44.851893,100 8.573167,44.850161,101 8.576776,44.846777,104 8.578383,44.844897,104 8.580915,44.843399,103 8.584325,44.841412,102 8.587132,44.838571,102 8.591107,44.835284,102 8.592957,44.831658,104 8.594928,44.828591,104 8.600390,44.826348,106 8.603000,44.823715,106 8.605810,44.820885,109 8.610705,44.818414,110 8.613843,44.813425,112 8.615582,44.808932,115 8.619250,44.802803,118 8.621371,44.798378,121 8.625010,44.793283,124 8.629110,44.788236,124 8.636688,44.785814,122 8.631789,44.784023,127 8.631759,44.778605,130 8.633098,44.773415,134 8.637431,44.770801,134 8.642623,44.765570,135 8.645533,44.763530,137 8.649143,44.764540,135 8.649599,44.762253,134 8.653176,44.762049,134 8.656872,44.760192,133 8.658155,44.758539,133 8.658435,44.755783,134 8.658923,44.754284,135 8.658330,44.752929,136 8.658486,44.751357,136 8.660329,44.746911,139 8.661716,44.744151,139 8.664892,44.745785,133 8.668321,44.744284,128 8.670787,44.738413,131 8.674939,44.732379,134 8.677366,44.730923,133 8.675130,44.729693,134 8.673867,44.728641,135 8.670005,44.724674,135 8.670335,44.723189,134 8.671448,44.721765,134 8.672901,44.719314,136 8.675460,44.716421,138 8.677013,44.714570,139 8.678317,44.713875,139 8.680817,44.712270,140 8.680712,44.707310,143 8.676702,44.704267,141 8.675345,44.701465,141 8.674894,44.698472,143 8.674916,44.696338,145 8.674328,44.695425,146 8.673006,44.692666,148 8.672448,44.691320,148 8.671617,44.691548,147 8.668800,44.687855,148 8.670043,44.685233,160 8.672135,44.684193,172 8.673232,44.682399,186 8.674515,44.680999,207 8.675604,44.680176,225 8.676367,44.680113,236 8.677752,44.679105,254 8.678147,44.677033,263 8.679852,44.675153,269 8.682387,44.674872,277 8.685877,44.673846,281 8.687112,44.670020,274 8.689049,44.666856,263 8.689695,44.664020,245 8.692100,44.660362,224 8.694463,44.658721,249 8.695737,44.657060,271 8.699469,44.656742,279 8.700273,44.655906,261 8.699399,44.654497,238 8.698094,44.652674,216 8.697142,44.650884,191 8.696639,44.649905,181 8.698432,44.648459,179 8.696224,44.646003,190 8.692432,44.645342,200 8.693300,44.635505,211 8.694935,44.634084,217 8.698145,44.631479,215 8.702173,44.631943,201 8.705309,44.628909,203 8.707619,44.626615,208 8.710239,44.623968,224 8.711401,44.619496,231 8.713955,44.616781,226 8.716889,44.615927,232 8.716875,44.612714,242 8.717178,44.610477,247 8.717397,44.608715,265 8.717399,44.608235,274 8.717538,44.607448,285 8.717173,44.606002,299 8.715421,44.604186,309 8.713466,44.602672,320 8.712400,44.602192,327 8.711662,44.600952,339 8.711362,44.599511,355 8.710054,44.598797,374 8.707871,44.599425,401 8.706349,44.599105,421 8.704686,44.598279,450 8.704024,44.597616,470 8.704629,44.596184,477 8.705818,44.593642,474 8.705374,44.592267,473 8.705067,44.590275,482 8.706243,44.591042,482 8.709655,44.591412,482 8.711375,44.592233,486 8.713632,44.591711,508 8.715891,44.591457,524 8.716643,44.591751,528 8.717264,44.591850,537 8.719259,44.591981,550 8.721672,44.590144,552 8.723363,44.588843,551 8.725048,44.588083,547 8.726442,44.587119,546 8.727885,44.585886,551 8.728895,44.585058,561 8.727637,44.582812,599 8.726864,44.581714,624 8.725767,44.581323,644 8.725760,44.580188,659 8.726026,44.579873,673 8.725740,44.577877,703 8.725320,44.577470,709 8.723502,44.577328,701 8.721645,44.576192,672 8.719285,44.575214,627 8.716981,44.574829,597 8.716982,44.574069,588 8.714921,44.574006,573 8.713433,44.573420,560 8.713905,44.572224,538 8.713351,44.570186,500 8.713622,44.569543,486 8.714577,44.570037,479 8.714263,44.569316,468 8.713769,44.567235,452 8.713129,44.565246,442 8.711917,44.563130,433 8.708591,44.563640,417 8.706816,44.562528,413 8.702839,44.561493,400 8.700653,44.561485,391 8.697362,44.560731,380 8.694520,44.560296,366 8.691058,44.560249,353 8.686581,44.560144,341 8.683202,44.559837,332 8.679419,44.559286,321 8.676348,44.558560,312 8.673448,44.558782,307 8.673736,44.558119,308 8.673461,44.557689,314 8.673350,44.557037,316 8.672398,44.556019,310 8.672186,44.554939,303 8.675202,44.548451,325 8.677048,44.547081,333 8.680435,44.544076,333 8.685308,44.544518,349 8.690201,44.543984,347 8.692886,44.543255,339 8.698379,44.540035,342 8.697955,44.538568,344 8.697225,44.536482,345 8.699218,44.533921,352 8.701250,44.531511,358 8.701432,44.529163,358 8.700418,44.526413,361 8.702777,44.525369,363 8.701125,44.521983,364 8.699814,44.518296,370 8.701055,44.512923,380 8.705137,44.507500,387 8.705859,44.506157,388 8.708350,44.505269,392 8.712394,44.507065,392 8.714012,44.504748,394 8.715172,44.502370,403 8.718203,44.501100,404 8.720847,44.499702,417 8.722967,44.497802,437 8.725686,44.496655,437 8.727907,44.497159,445 8.728356,44.494186,469 8.729107,44.491875,488 8.729276,44.490219,498 8.730641,44.488934,512 8.731939,44.488561,520 8.733429,44.488679,528 8.734389,44.487943,538 8.734654,44.487955,545 8.733083,44.488330,554 8.733175,44.488037,558 8.735299,44.487183,567 8.737395,44.484597,563 8.739885,44.483480,564 8.741550,44.483794,571 8.743554,44.484050,577 8.745960,44.485936,580 8.746967,44.485946,575 8.748277,44.485482,567 8.748764,44.484641,558 8.750651,44.484372,554 8.751942,44.484170,560 8.752586,44.485169,564 8.753567,44.483520,560 8.754317,44.482107,552 8.753978,44.479793,529 8.754451,44.479316,509 8.756285,44.481324,502 8.757130,44.482286,501 8.759162,44.482404,503 8.758711,44.481261,504 8.758642,44.478540,505 8.759679,44.479649,510 8.760040,44.479492,508 8.761448,44.478519,493 8.760464,44.476584,481 8.759752,44.475169,476 8.761381,44.476157,465 8.763050,44.476797,446 8.763678,44.477250,437 8.764033,44.476191,427 8.764898,44.477519,421 8.765829,44.478237,417 8.767857,44.477938,411 8.767310,44.476348,394 8.767275,44.475371,380 8.768848,44.474521,359 8.769196,44.473865,347 8.769189,44.473275,336 8.768769,44.472584,329 8.767182,44.473500,328 8.766627,44.471515,322 8.767195,44.470076,320 8.766493,44.468790,319 8.766180,44.468412,319 8.764942,44.467770,319 8.765029,44.466716,315 8.766805,44.465148,290 8.766458,44.463818,276 8.764558,44.462013,258 8.764802,44.460617,246 8.765518,44.461837,235 8.766737,44.461458,222 8.768305,44.462071,211 8.768686,44.463421,200 8.769129,44.462010,189 8.768940,44.460121,176 8.768505,44.458394,167 8.768913,44.458265,166 8.769576,44.458035,168 8.769373,44.456806,179 8.770632,44.457630,186 8.771153,44.458538,191 8.771343,44.458670,198 8.771594,44.457926,211 8.773717,44.457498,232 8.774304,44.456811,244 8.776938,44.457519,262 8.777859,44.457778,276 8.777874,44.457155,288 8.778670,44.456896,300 8.778698,44.456167,296 8.778627,44.455433,287 8.779673,44.453230,242 8.779297,44.452926,220 8.779038,44.452233,203 8.779096,44.450530,164 8.779474,44.449783,155 8.778902,44.448624,145 8.778820,44.447373,137 8.779518,44.445752,127 8.778535,44.445104,113 8.778251,44.444638,102 8.777570,44.443325,92 8.776644,44.441691,82 8.775635,44.440349,72 8.776207,44.438505,62 8.776753,44.437532,56 8.777171,44.436437,50 8.778086,44.435392,41 8.778337,44.433907,34 8.777989,44.431544,22 8.777451,44.429941,18 8.778420,44.428947,17 8.778244,44.427171,8 8.779319,44.427231,6 8.784426,44.426923,4 8.786538,44.426631,3 8.788137,44.426255,3 8.790080,44.425953,4 8.794289,44.425352,5 8.794854,44.425464,5 8.799091,44.424853,4 8.804827,44.423874,4 8.807907,44.423158,4 8.811075,44.424135,2 8.814832,44.424641,3 8.817448,44.424934,3 8.821687,44.424892,3 8.826894,44.425558,3 8.829838,44.426205,5 8.834289,44.426840,6 8.835129,44.426188,6 8.836989,44.425991,5 8.838896,44.427210,7 8.841774,44.425492,7 8.845232,44.424521,9 8.847635,44.424659,9 8.850353,44.423935,8 8.852943,44.423239,8 8.858280,44.420384,6 8.858980,44.419186,6 8.859815,44.416942,6 8.864365,44.415321,5 8.865716,44.414464,5 8.870706,44.413130,3 8.873254,44.412445,2 8.877906,44.411928,2 8.880978,44.411086,3 8.881176,44.411471,4 8.882942,44.411349,6 8.884942,44.411304,7 8.887880,44.410414,6 8.891442,44.409473,7 8.895758,44.408506,5 8.898512,44.408414,8 8.901911,44.409189,13 8.903537,44.409792,12 8.908245,44.410891,7 8.909928,44.412648,3 8.912766,44.414053,2 8.918896,44.415374,6 8.921314,44.415348,8 8.922542,44.414828,6 8.926065,44.413052,1 8.926724,44.412495,1 8.927344,44.411458,1 8.927644,44.410041,2 8.928306,44.408995,6 8.929244,44.408326,19 8.931021,44.407583,28 8.933067,44.406809,31</coordinates></LineString></Placemark></Document></kml>