<?xml version="1.0" encoding="UTF-8"?>
<gpx version="1.1" creator="radtour" xmlns="http://www.topografix.com/GPX/1/1">
  <metadata><name>Rueckweg A1 Edolo - Ponte di Legno</name></metadata>
  <trk><name>Rueckweg A1 Edolo - Ponte di Legno</name><trkseg>
      <trkpt lat="46.178019" lon="10.331607"><ele>674</ele></trkpt>
      <trkpt lat="46.178316" lon="10.331639"><ele>675</ele></trkpt>
      <trkpt lat="46.178273" lon="10.332836"><ele>676</ele></trkpt>
      <trkpt lat="46.178262" lon="10.333263"><ele>676</ele></trkpt>
      <trkpt lat="46.178255" lon="10.333444"><ele>675</ele></trkpt>
      <trkpt lat="46.178288" lon="10.333583"><ele>675</ele></trkpt>
      <trkpt lat="46.178348" lon="10.333680"><ele>675</ele></trkpt>
      <trkpt lat="46.178387" lon="10.333721"><ele>675</ele></trkpt>
      <trkpt lat="46.178432" lon="10.333749"><ele>675</ele></trkpt>
      <trkpt lat="46.178562" lon="10.333765"><ele>676</ele></trkpt>
      <trkpt lat="46.179133" lon="10.333673"><ele>678</ele></trkpt>
      <trkpt lat="46.179236" lon="10.333657"><ele>678</ele></trkpt>
      <trkpt lat="46.179582" lon="10.333553"><ele>679</ele></trkpt>
      <trkpt lat="46.179982" lon="10.333385"><ele>681</ele></trkpt>
      <trkpt lat="46.180087" lon="10.333334"><ele>681</ele></trkpt>
      <trkpt lat="46.180205" lon="10.333428"><ele>682</ele></trkpt>
      <trkpt lat="46.180284" lon="10.333450"><ele>682</ele></trkpt>
      <trkpt lat="46.180821" lon="10.333372"><ele>684</ele></trkpt>
      <trkpt lat="46.180922" lon="10.333359"><ele>684</ele></trkpt>
      <trkpt lat="46.180958" lon="10.333338"><ele>685</ele></trkpt>
      <trkpt lat="46.180994" lon="10.333205"><ele>685</ele></trkpt>
      <trkpt lat="46.181100" lon="10.333256"><ele>685</ele></trkpt>
      <trkpt lat="46.181499" lon="10.333464"><ele>688</ele></trkpt>
      <trkpt lat="46.181554" lon="10.333490"><ele>688</ele></trkpt>
      <trkpt lat="46.181536" lon="10.333577"><ele>688</ele></trkpt>
      <trkpt lat="46.181475" lon="10.333796"><ele>685</ele></trkpt>
      <trkpt lat="46.181432" lon="10.333999"><ele>686</ele></trkpt>
      <trkpt lat="46.181403" lon="10.334062"><ele>686</ele></trkpt>
      <trkpt lat="46.181448" lon="10.334089"><ele>686</ele></trkpt>
      <trkpt lat="46.181502" lon="10.334088"><ele>687</ele></trkpt>
      <trkpt lat="46.181654" lon="10.334042"><ele>686</ele></trkpt>
      <trkpt lat="46.181704" lon="10.334070"><ele>687</ele></trkpt>
      <trkpt lat="46.181818" lon="10.334205"><ele>688</ele></trkpt>
      <trkpt lat="46.181860" lon="10.334341"><ele>689</ele></trkpt>
      <trkpt lat="46.181951" lon="10.334543"><ele>690</ele></trkpt>
      <trkpt lat="46.181886" lon="10.334643"><ele>693</ele></trkpt>
      <trkpt lat="46.181840" lon="10.334710"><ele>694</ele></trkpt>
      <trkpt lat="46.181816" lon="10.334748"><ele>695</ele></trkpt>
      <trkpt lat="46.181780" lon="10.334821"><ele>696</ele></trkpt>
      <trkpt lat="46.181710" lon="10.334900"><ele>697</ele></trkpt>
      <trkpt lat="46.181679" lon="10.334911"><ele>697</ele></trkpt>
      <trkpt lat="46.181513" lon="10.334920"><ele>697</ele></trkpt>
      <trkpt lat="46.181253" lon="10.335080"><ele>699</ele></trkpt>
      <trkpt lat="46.181233" lon="10.335131"><ele>700</ele></trkpt>
      <trkpt lat="46.181224" lon="10.335219"><ele>703</ele></trkpt>
      <trkpt lat="46.181167" lon="10.335503"><ele>707</ele></trkpt>
      <trkpt lat="46.181113" lon="10.335686"><ele>708</ele></trkpt>
      <trkpt lat="46.181078" lon="10.335710"><ele>707</ele></trkpt>
      <trkpt lat="46.181036" lon="10.335714"><ele>706</ele></trkpt>
      <trkpt lat="46.180993" lon="10.335769"><ele>706</ele></trkpt>
      <trkpt lat="46.180944" lon="10.335933"><ele>706</ele></trkpt>
      <trkpt lat="46.180892" lon="10.336058"><ele>707</ele></trkpt>
      <trkpt lat="46.180532" lon="10.336314"><ele>710</ele></trkpt>
      <trkpt lat="46.179954" lon="10.336462"><ele>710</ele></trkpt>
      <trkpt lat="46.179908" lon="10.336516"><ele>711</ele></trkpt>
      <trkpt lat="46.179576" lon="10.337010"><ele>718</ele></trkpt>
      <trkpt lat="46.179576" lon="10.337071"><ele>718</ele></trkpt>
      <trkpt lat="46.180090" lon="10.337042"><ele>723</ele></trkpt>
      <trkpt lat="46.180315" lon="10.337053"><ele>723</ele></trkpt>
      <trkpt lat="46.181169" lon="10.337230"><ele>729</ele></trkpt>
      <trkpt lat="46.181332" lon="10.337315"><ele>730</ele></trkpt>
      <trkpt lat="46.181643" lon="10.337555"><ele>733</ele></trkpt>
      <trkpt lat="46.181774" lon="10.337608"><ele>735</ele></trkpt>
      <trkpt lat="46.181964" lon="10.337571"><ele>736</ele></trkpt>
      <trkpt lat="46.182010" lon="10.337608"><ele>737</ele></trkpt>
      <trkpt lat="46.182138" lon="10.337637"><ele>737</ele></trkpt>
      <trkpt lat="46.182172" lon="10.337680"><ele>737</ele></trkpt>
      <trkpt lat="46.182231" lon="10.337838"><ele>739</ele></trkpt>
      <trkpt lat="46.182315" lon="10.337783"><ele>738</ele></trkpt>
      <trkpt lat="46.182389" lon="10.337770"><ele>739</ele></trkpt>
      <trkpt lat="46.182472" lon="10.337773"><ele>740</ele></trkpt>
      <trkpt lat="46.182594" lon="10.337832"><ele>739</ele></trkpt>
      <trkpt lat="46.182689" lon="10.337900"><ele>739</ele></trkpt>
      <trkpt lat="46.182774" lon="10.338019"><ele>739</ele></trkpt>
      <trkpt lat="46.182838" lon="10.338159"><ele>741</ele></trkpt>
      <trkpt lat="46.182978" lon="10.338575"><ele>746</ele></trkpt>
      <trkpt lat="46.183034" lon="10.338707"><ele>747</ele></trkpt>
      <trkpt lat="46.183138" lon="10.338836"><ele>750</ele></trkpt>
      <trkpt lat="46.183248" lon="10.338907"><ele>752</ele></trkpt>
      <trkpt lat="46.183408" lon="10.338925"><ele>753</ele></trkpt>
      <trkpt lat="46.183520" lon="10.338988"><ele>756</ele></trkpt>
      <trkpt lat="46.183729" lon="10.339145"><ele>764</ele></trkpt>
      <trkpt lat="46.183889" lon="10.339183"><ele>771</ele></trkpt>
      <trkpt lat="46.184271" lon="10.339564"><ele>780</ele></trkpt>
      <trkpt lat="46.184358" lon="10.339591"><ele>782</ele></trkpt>
      <trkpt lat="46.184500" lon="10.339597"><ele>784</ele></trkpt>
      <trkpt lat="46.184551" lon="10.339614"><ele>784</ele></trkpt>
      <trkpt lat="46.184627" lon="10.339729"><ele>782</ele></trkpt>
      <trkpt lat="46.184741" lon="10.339984"><ele>782</ele></trkpt>
      <trkpt lat="46.184965" lon="10.340378"><ele>789</ele></trkpt>
      <trkpt lat="46.185254" lon="10.340775"><ele>795</ele></trkpt>
      <trkpt lat="46.185389" lon="10.340925"><ele>798</ele></trkpt>
      <trkpt lat="46.185910" lon="10.341287"><ele>802</ele></trkpt>
      <trkpt lat="46.186555" lon="10.341944"><ele>808</ele></trkpt>
      <trkpt lat="46.186718" lon="10.342339"><ele>813</ele></trkpt>
      <trkpt lat="46.186830" lon="10.342735"><ele>817</ele></trkpt>
      <trkpt lat="46.186808" lon="10.342868"><ele>818</ele></trkpt>
      <trkpt lat="46.186832" lon="10.342954"><ele>818</ele></trkpt>
      <trkpt lat="46.187420" lon="10.343495"><ele>820</ele></trkpt>
      <trkpt lat="46.187847" lon="10.343786"><ele>820</ele></trkpt>
      <trkpt lat="46.188117" lon="10.343939"><ele>822</ele></trkpt>
      <trkpt lat="46.188461" lon="10.343918"><ele>822</ele></trkpt>
      <trkpt lat="46.189004" lon="10.343992"><ele>824</ele></trkpt>
      <trkpt lat="46.189422" lon="10.344238"><ele>827</ele></trkpt>
      <trkpt lat="46.189635" lon="10.344421"><ele>825</ele></trkpt>
      <trkpt lat="46.189725" lon="10.344582"><ele>825</ele></trkpt>
      <trkpt lat="46.189861" lon="10.344725"><ele>826</ele></trkpt>
      <trkpt lat="46.190325" lon="10.345073"><ele>826</ele></trkpt>
      <trkpt lat="46.191162" lon="10.346349"><ele>837</ele></trkpt>
      <trkpt lat="46.191844" lon="10.346809"><ele>838</ele></trkpt>
      <trkpt lat="46.191914" lon="10.346958"><ele>835</ele></trkpt>
      <trkpt lat="46.191952" lon="10.347210"><ele>835</ele></trkpt>
      <trkpt lat="46.192103" lon="10.347406"><ele>844</ele></trkpt>
      <trkpt lat="46.192400" lon="10.347517"><ele>852</ele></trkpt>
      <trkpt lat="46.192735" lon="10.347806"><ele>857</ele></trkpt>
      <trkpt lat="46.193148" lon="10.348436"><ele>874</ele></trkpt>
      <trkpt lat="46.193264" lon="10.348704"><ele>884</ele></trkpt>
      <trkpt lat="46.193394" lon="10.348682"><ele>889</ele></trkpt>
      <trkpt lat="46.193542" lon="10.348325"><ele>888</ele></trkpt>
      <trkpt lat="46.193631" lon="10.348226"><ele>887</ele></trkpt>
      <trkpt lat="46.193814" lon="10.348306"><ele>884</ele></trkpt>
      <trkpt lat="46.194000" lon="10.348425"><ele>886</ele></trkpt>
      <trkpt lat="46.194290" lon="10.348531"><ele>891</ele></trkpt>
      <trkpt lat="46.194577" lon="10.348460"><ele>890</ele></trkpt>
      <trkpt lat="46.194886" lon="10.348369"><ele>889</ele></trkpt>
      <trkpt lat="46.195123" lon="10.348168"><ele>888</ele></trkpt>
      <trkpt lat="46.195360" lon="10.348078"><ele>892</ele></trkpt>
      <trkpt lat="46.195678" lon="10.348018"><ele>892</ele></trkpt>
      <trkpt lat="46.195916" lon="10.348107"><ele>892</ele></trkpt>
      <trkpt lat="46.196266" lon="10.348430"><ele>891</ele></trkpt>
      <trkpt lat="46.196596" lon="10.348589"><ele>890</ele></trkpt>
      <trkpt lat="46.196898" lon="10.349051"><ele>891</ele></trkpt>
      <trkpt lat="46.197135" lon="10.349202"><ele>894</ele></trkpt>
      <trkpt lat="46.197680" lon="10.349522"><ele>888</ele></trkpt>
      <trkpt lat="46.197771" lon="10.349686"><ele>892</ele></trkpt>
      <trkpt lat="46.197954" lon="10.349760"><ele>899</ele></trkpt>
      <trkpt lat="46.198211" lon="10.349673"><ele>893</ele></trkpt>
      <trkpt lat="46.198710" lon="10.349974"><ele>890</ele></trkpt>
      <trkpt lat="46.199396" lon="10.349647"><ele>890</ele></trkpt>
      <trkpt lat="46.200244" lon="10.349462"><ele>882</ele></trkpt>
      <trkpt lat="46.200636" lon="10.349528"><ele>881</ele></trkpt>
      <trkpt lat="46.201022" lon="10.349548"><ele>880</ele></trkpt>
      <trkpt lat="46.201252" lon="10.349646"><ele>880</ele></trkpt>
      <trkpt lat="46.201911" lon="10.349698"><ele>870</ele></trkpt>
      <trkpt lat="46.202743" lon="10.350216"><ele>874</ele></trkpt>
      <trkpt lat="46.203580" lon="10.350481"><ele>880</ele></trkpt>
      <trkpt lat="46.204245" lon="10.350795"><ele>882</ele></trkpt>
      <trkpt lat="46.204517" lon="10.351104"><ele>886</ele></trkpt>
      <trkpt lat="46.204866" lon="10.351316"><ele>888</ele></trkpt>
      <trkpt lat="46.205025" lon="10.351527"><ele>888</ele></trkpt>
      <trkpt lat="46.205095" lon="10.351784"><ele>889</ele></trkpt>
      <trkpt lat="46.205060" lon="10.352233"><ele>892</ele></trkpt>
      <trkpt lat="46.205088" lon="10.352334"><ele>893</ele></trkpt>
      <trkpt lat="46.205187" lon="10.352365"><ele>893</ele></trkpt>
      <trkpt lat="46.205281" lon="10.352313"><ele>893</ele></trkpt>
      <trkpt lat="46.205417" lon="10.352174"><ele>897</ele></trkpt>
      <trkpt lat="46.205589" lon="10.351814"><ele>898</ele></trkpt>
      <trkpt lat="46.205648" lon="10.351612"><ele>899</ele></trkpt>
      <trkpt lat="46.205693" lon="10.351420"><ele>899</ele></trkpt>
      <trkpt lat="46.205781" lon="10.351222"><ele>899</ele></trkpt>
      <trkpt lat="46.205901" lon="10.351110"><ele>899</ele></trkpt>
      <trkpt lat="46.206280" lon="10.351107"><ele>898</ele></trkpt>
      <trkpt lat="46.206481" lon="10.351228"><ele>898</ele></trkpt>
      <trkpt lat="46.206736" lon="10.351584"><ele>898</ele></trkpt>
      <trkpt lat="46.206889" lon="10.351998"><ele>901</ele></trkpt>
      <trkpt lat="46.207404" lon="10.352700"><ele>897</ele></trkpt>
      <trkpt lat="46.207714" lon="10.352887"><ele>896</ele></trkpt>
      <trkpt lat="46.207963" lon="10.353064"><ele>898</ele></trkpt>
      <trkpt lat="46.208288" lon="10.353145"><ele>900</ele></trkpt>
      <trkpt lat="46.208755" lon="10.353102"><ele>902</ele></trkpt>
      <trkpt lat="46.209137" lon="10.353112"><ele>902</ele></trkpt>
      <trkpt lat="46.209548" lon="10.353241"><ele>903</ele></trkpt>
      <trkpt lat="46.210093" lon="10.353723"><ele>908</ele></trkpt>
      <trkpt lat="46.210216" lon="10.353817"><ele>908</ele></trkpt>
      <trkpt lat="46.210494" lon="10.353915"><ele>910</ele></trkpt>
      <trkpt lat="46.212178" lon="10.354249"><ele>921</ele></trkpt>
      <trkpt lat="46.212935" lon="10.354356"><ele>924</ele></trkpt>
      <trkpt lat="46.212895" lon="10.354513"><ele>927</ele></trkpt>
      <trkpt lat="46.212895" lon="10.354684"><ele>928</ele></trkpt>
      <trkpt lat="46.213038" lon="10.354888"><ele>931</ele></trkpt>
      <trkpt lat="46.213965" lon="10.355190"><ele>938</ele></trkpt>
      <trkpt lat="46.214482" lon="10.355432"><ele>942</ele></trkpt>
      <trkpt lat="46.215030" lon="10.355790"><ele>946</ele></trkpt>
      <trkpt lat="46.215369" lon="10.355907"><ele>947</ele></trkpt>
      <trkpt lat="46.215611" lon="10.356110"><ele>947</ele></trkpt>
      <trkpt lat="46.215933" lon="10.356445"><ele>950</ele></trkpt>
      <trkpt lat="46.216015" lon="10.356539"><ele>951</ele></trkpt>
      <trkpt lat="46.216044" lon="10.356640"><ele>951</ele></trkpt>
      <trkpt lat="46.216077" lon="10.356979"><ele>954</ele></trkpt>
      <trkpt lat="46.216065" lon="10.357042"><ele>954</ele></trkpt>
      <trkpt lat="46.216346" lon="10.357196"><ele>951</ele></trkpt>
      <trkpt lat="46.216537" lon="10.357294"><ele>951</ele></trkpt>
      <trkpt lat="46.216578" lon="10.357294"><ele>951</ele></trkpt>
      <trkpt lat="46.216773" lon="10.357227"><ele>950</ele></trkpt>
      <trkpt lat="46.216862" lon="10.357227"><ele>950</ele></trkpt>
      <trkpt lat="46.216945" lon="10.357283"><ele>951</ele></trkpt>
      <trkpt lat="46.217039" lon="10.357378"><ele>950</ele></trkpt>
      <trkpt lat="46.217125" lon="10.357500"><ele>949</ele></trkpt>
      <trkpt lat="46.217240" lon="10.357722"><ele>948</ele></trkpt>
      <trkpt lat="46.217369" lon="10.357823"><ele>948</ele></trkpt>
      <trkpt lat="46.217595" lon="10.357948"><ele>947</ele></trkpt>
      <trkpt lat="46.217707" lon="10.357983"><ele>946</ele></trkpt>
      <trkpt lat="46.217837" lon="10.358057"><ele>946</ele></trkpt>
      <trkpt lat="46.218203" lon="10.358293"><ele>944</ele></trkpt>
      <trkpt lat="46.218395" lon="10.358431"><ele>942</ele></trkpt>
      <trkpt lat="46.218669" lon="10.358670"><ele>941</ele></trkpt>
      <trkpt lat="46.218763" lon="10.358706"><ele>940</ele></trkpt>
      <trkpt lat="46.218765" lon="10.358791"><ele>942</ele></trkpt>
      <trkpt lat="46.218905" lon="10.358968"><ele>943</ele></trkpt>
      <trkpt lat="46.219000" lon="10.359055"><ele>944</ele></trkpt>
      <trkpt lat="46.219089" lon="10.359149"><ele>944</ele></trkpt>
      <trkpt lat="46.219192" lon="10.359198"><ele>944</ele></trkpt>
      <trkpt lat="46.219246" lon="10.359257"><ele>946</ele></trkpt>
      <trkpt lat="46.219424" lon="10.359330"><ele>946</ele></trkpt>
      <trkpt lat="46.219512" lon="10.359400"><ele>947</ele></trkpt>
      <trkpt lat="46.219609" lon="10.359424"><ele>946</ele></trkpt>
      <trkpt lat="46.219705" lon="10.359377"><ele>943</ele></trkpt>
      <trkpt lat="46.219792" lon="10.359396"><ele>942</ele></trkpt>
      <trkpt lat="46.219906" lon="10.359437"><ele>941</ele></trkpt>
      <trkpt lat="46.219927" lon="10.359470"><ele>942</ele></trkpt>
      <trkpt lat="46.219938" lon="10.359527"><ele>942</ele></trkpt>
      <trkpt lat="46.220021" lon="10.359592"><ele>942</ele></trkpt>
      <trkpt lat="46.220073" lon="10.359668"><ele>943</ele></trkpt>
      <trkpt lat="46.220042" lon="10.359805"><ele>946</ele></trkpt>
      <trkpt lat="46.220118" lon="10.359889"><ele>947</ele></trkpt>
      <trkpt lat="46.220114" lon="10.359985"><ele>949</ele></trkpt>
      <trkpt lat="46.220182" lon="10.360086"><ele>950</ele></trkpt>
      <trkpt lat="46.220474" lon="10.360363"><ele>950</ele></trkpt>
      <trkpt lat="46.220687" lon="10.360545"><ele>951</ele></trkpt>
      <trkpt lat="46.220909" lon="10.360594"><ele>949</ele></trkpt>
      <trkpt lat="46.221370" lon="10.360969"><ele>946</ele></trkpt>
      <trkpt lat="46.221981" lon="10.361559"><ele>943</ele></trkpt>
      <trkpt lat="46.222890" lon="10.362596"><ele>946</ele></trkpt>
      <trkpt lat="46.223444" lon="10.363335"><ele>944</ele></trkpt>
      <trkpt lat="46.224400" lon="10.364350"><ele>943</ele></trkpt>
      <trkpt lat="46.224609" lon="10.364678"><ele>942</ele></trkpt>
      <trkpt lat="46.225273" lon="10.365644"><ele>935</ele></trkpt>
      <trkpt lat="46.225560" lon="10.366144"><ele>939</ele></trkpt>
      <trkpt lat="46.225649" lon="10.366364"><ele>940</ele></trkpt>
      <trkpt lat="46.225616" lon="10.366766"><ele>948</ele></trkpt>
      <trkpt lat="46.225692" lon="10.367425"><ele>953</ele></trkpt>
      <trkpt lat="46.225787" lon="10.367910"><ele>963</ele></trkpt>
      <trkpt lat="46.226084" lon="10.368560"><ele>954</ele></trkpt>
      <trkpt lat="46.226255" lon="10.368898"><ele>962</ele></trkpt>
      <trkpt lat="46.226729" lon="10.370649"><ele>968</ele></trkpt>
      <trkpt lat="46.226958" lon="10.371893"><ele>965</ele></trkpt>
      <trkpt lat="46.227131" lon="10.372424"><ele>965</ele></trkpt>
      <trkpt lat="46.227338" lon="10.372964"><ele>966</ele></trkpt>
      <trkpt lat="46.227502" lon="10.373318"><ele>961</ele></trkpt>
      <trkpt lat="46.227576" lon="10.373934"><ele>964</ele></trkpt>
      <trkpt lat="46.227845" lon="10.374712"><ele>965</ele></trkpt>
      <trkpt lat="46.228124" lon="10.375179"><ele>970</ele></trkpt>
      <trkpt lat="46.228366" lon="10.375605"><ele>974</ele></trkpt>
      <trkpt lat="46.228505" lon="10.375813"><ele>976</ele></trkpt>
      <trkpt lat="46.228732" lon="10.376049"><ele>979</ele></trkpt>
      <trkpt lat="46.229004" lon="10.376204"><ele>975</ele></trkpt>
      <trkpt lat="46.229099" lon="10.376360"><ele>975</ele></trkpt>
      <trkpt lat="46.229118" lon="10.376616"><ele>977</ele></trkpt>
      <trkpt lat="46.229181" lon="10.376854"><ele>978</ele></trkpt>
      <trkpt lat="46.229333" lon="10.377047"><ele>980</ele></trkpt>
      <trkpt lat="46.229604" lon="10.377449"><ele>980</ele></trkpt>
      <trkpt lat="46.229796" lon="10.378011"><ele>976</ele></trkpt>
      <trkpt lat="46.230025" lon="10.379465"><ele>972</ele></trkpt>
      <trkpt lat="46.230377" lon="10.380457"><ele>972</ele></trkpt>
      <trkpt lat="46.230692" lon="10.381158"><ele>974</ele></trkpt>
      <trkpt lat="46.230954" lon="10.381664"><ele>972</ele></trkpt>
      <trkpt lat="46.231285" lon="10.382683"><ele>970</ele></trkpt>
      <trkpt lat="46.231472" lon="10.383349"><ele>970</ele></trkpt>
      <trkpt lat="46.231543" lon="10.383560"><ele>970</ele></trkpt>
      <trkpt lat="46.231662" lon="10.384107"><ele>972</ele></trkpt>
      <trkpt lat="46.231817" lon="10.384286"><ele>972</ele></trkpt>
      <trkpt lat="46.231795" lon="10.384153"><ele>971</ele></trkpt>
      <trkpt lat="46.231788" lon="10.384079"><ele>970</ele></trkpt>
      <trkpt lat="46.231797" lon="10.384007"><ele>970</ele></trkpt>
      <trkpt lat="46.231816" lon="10.383953"><ele>969</ele></trkpt>
      <trkpt lat="46.231846" lon="10.383920"><ele>969</ele></trkpt>
      <trkpt lat="46.231893" lon="10.383896"><ele>968</ele></trkpt>
      <trkpt lat="46.232005" lon="10.383878"><ele>968</ele></trkpt>
      <trkpt lat="46.232173" lon="10.383821"><ele>967</ele></trkpt>
      <trkpt lat="46.232731" lon="10.383662"><ele>970</ele></trkpt>
      <trkpt lat="46.232879" lon="10.383603"><ele>974</ele></trkpt>
      <trkpt lat="46.233452" lon="10.384528"><ele>980</ele></trkpt>
      <trkpt lat="46.233692" lon="10.385082"><ele>982</ele></trkpt>
      <trkpt lat="46.234063" lon="10.385521"><ele>984</ele></trkpt>
      <trkpt lat="46.234200" lon="10.385678"><ele>986</ele></trkpt>
      <trkpt lat="46.234335" lon="10.385920"><ele>987</ele></trkpt>
      <trkpt lat="46.234817" lon="10.387651"><ele>992</ele></trkpt>
      <trkpt lat="46.234937" lon="10.387989"><ele>994</ele></trkpt>
      <trkpt lat="46.234941" lon="10.388574"><ele>987</ele></trkpt>
      <trkpt lat="46.234733" lon="10.389817"><ele>989</ele></trkpt>
      <trkpt lat="46.234724" lon="10.390696"><ele>988</ele></trkpt>
      <trkpt lat="46.234858" lon="10.391148"><ele>988</ele></trkpt>
      <trkpt lat="46.234877" lon="10.391440"><ele>988</ele></trkpt>
      <trkpt lat="46.235124" lon="10.391965"><ele>990</ele></trkpt>
      <trkpt lat="46.235157" lon="10.392494"><ele>990</ele></trkpt>
      <trkpt lat="46.235357" lon="10.392970"><ele>994</ele></trkpt>
      <trkpt lat="46.235472" lon="10.393554"><ele>996</ele></trkpt>
      <trkpt lat="46.235662" lon="10.394308"><ele>1000</ele></trkpt>
      <trkpt lat="46.235638" lon="10.395481"><ele>1002</ele></trkpt>
      <trkpt lat="46.235783" lon="10.396073"><ele>1004</ele></trkpt>
      <trkpt lat="46.235774" lon="10.396160"><ele>1004</ele></trkpt>
      <trkpt lat="46.235761" lon="10.396246"><ele>1004</ele></trkpt>
      <trkpt lat="46.235773" lon="10.396427"><ele>1004</ele></trkpt>
      <trkpt lat="46.236099" lon="10.396859"><ele>1008</ele></trkpt>
      <trkpt lat="46.236060" lon="10.397323"><ele>1008</ele></trkpt>
      <trkpt lat="46.235816" lon="10.397246"><ele>1003</ele></trkpt>
      <trkpt lat="46.235672" lon="10.397230"><ele>1001</ele></trkpt>
      <trkpt lat="46.235574" lon="10.397287"><ele>1000</ele></trkpt>
      <trkpt lat="46.235564" lon="10.397410"><ele>1002</ele></trkpt>
      <trkpt lat="46.235710" lon="10.397731"><ele>1005</ele></trkpt>
      <trkpt lat="46.235739" lon="10.397903"><ele>1005</ele></trkpt>
      <trkpt lat="46.235770" lon="10.398315"><ele>1006</ele></trkpt>
      <trkpt lat="46.235856" lon="10.398793"><ele>1008</ele></trkpt>
      <trkpt lat="46.236024" lon="10.399080"><ele>1008</ele></trkpt>
      <trkpt lat="46.236259" lon="10.399598"><ele>1008</ele></trkpt>
      <trkpt lat="46.236319" lon="10.399684"><ele>1008</ele></trkpt>
      <trkpt lat="46.236842" lon="10.399923"><ele>1013</ele></trkpt>
      <trkpt lat="46.236923" lon="10.399942"><ele>1014</ele></trkpt>
      <trkpt lat="46.237030" lon="10.399957"><ele>1015</ele></trkpt>
      <trkpt lat="46.237123" lon="10.400012"><ele>1016</ele></trkpt>
      <trkpt lat="46.237123" lon="10.400124"><ele>1014</ele></trkpt>
      <trkpt lat="46.237167" lon="10.400183"><ele>1014</ele></trkpt>
      <trkpt lat="46.237245" lon="10.400319"><ele>1015</ele></trkpt>
      <trkpt lat="46.237283" lon="10.400412"><ele>1015</ele></trkpt>
      <trkpt lat="46.237316" lon="10.400526"><ele>1015</ele></trkpt>
      <trkpt lat="46.237330" lon="10.400693"><ele>1014</ele></trkpt>
      <trkpt lat="46.237332" lon="10.400862"><ele>1014</ele></trkpt>
      <trkpt lat="46.237318" lon="10.401036"><ele>1014</ele></trkpt>
      <trkpt lat="46.237283" lon="10.401173"><ele>1014</ele></trkpt>
      <trkpt lat="46.237238" lon="10.401302"><ele>1014</ele></trkpt>
      <trkpt lat="46.237088" lon="10.401682"><ele>1014</ele></trkpt>
      <trkpt lat="46.236929" lon="10.402039"><ele>1013</ele></trkpt>
      <trkpt lat="46.236802" lon="10.402224"><ele>1013</ele></trkpt>
      <trkpt lat="46.236601" lon="10.402465"><ele>1013</ele></trkpt>
      <trkpt lat="46.236499" lon="10.402647"><ele>1014</ele></trkpt>
      <trkpt lat="46.236361" lon="10.402951"><ele>1014</ele></trkpt>
      <trkpt lat="46.236269" lon="10.403188"><ele>1014</ele></trkpt>
      <trkpt lat="46.236208" lon="10.403480"><ele>1014</ele></trkpt>
      <trkpt lat="46.236180" lon="10.403763"><ele>1015</ele></trkpt>
      <trkpt lat="46.236195" lon="10.404261"><ele>1016</ele></trkpt>
      <trkpt lat="46.236355" lon="10.404988"><ele>1017</ele></trkpt>
      <trkpt lat="46.236446" lon="10.405363"><ele>1018</ele></trkpt>
      <trkpt lat="46.236557" lon="10.405683"><ele>1018</ele></trkpt>
      <trkpt lat="46.236836" lon="10.406159"><ele>1019</ele></trkpt>
      <trkpt lat="46.236897" lon="10.406259"><ele>1019</ele></trkpt>
      <trkpt lat="46.236953" lon="10.406393"><ele>1020</ele></trkpt>
      <trkpt lat="46.237038" lon="10.406626"><ele>1020</ele></trkpt>
      <trkpt lat="46.237102" lon="10.406924"><ele>1020</ele></trkpt>
      <trkpt lat="46.237105" lon="10.407290"><ele>1020</ele></trkpt>
      <trkpt lat="46.237323" lon="10.407757"><ele>1020</ele></trkpt>
      <trkpt lat="46.237450" lon="10.408251"><ele>1021</ele></trkpt>
      <trkpt lat="46.237469" lon="10.408521"><ele>1022</ele></trkpt>
      <trkpt lat="46.237500" lon="10.408705"><ele>1022</ele></trkpt>
      <trkpt lat="46.237586" lon="10.408917"><ele>1022</ele></trkpt>
      <trkpt lat="46.237696" lon="10.408964"><ele>1022</ele></trkpt>
      <trkpt lat="46.237740" lon="10.409088"><ele>1023</ele></trkpt>
      <trkpt lat="46.237857" lon="10.409085"><ele>1023</ele></trkpt>
      <trkpt lat="46.237866" lon="10.409108"><ele>1023</ele></trkpt>
      <trkpt lat="46.237889" lon="10.409166"><ele>1023</ele></trkpt>
      <trkpt lat="46.237761" lon="10.409241"><ele>1023</ele></trkpt>
      <trkpt lat="46.237733" lon="10.409309"><ele>1023</ele></trkpt>
      <trkpt lat="46.237815" lon="10.409560"><ele>1023</ele></trkpt>
      <trkpt lat="46.237853" lon="10.409638"><ele>1024</ele></trkpt>
      <trkpt lat="46.237966" lon="10.409835"><ele>1025</ele></trkpt>
      <trkpt lat="46.238170" lon="10.410075"><ele>1027</ele></trkpt>
      <trkpt lat="46.238290" lon="10.410341"><ele>1027</ele></trkpt>
      <trkpt lat="46.238371" lon="10.410554"><ele>1026</ele></trkpt>
      <trkpt lat="46.238425" lon="10.410975"><ele>1026</ele></trkpt>
      <trkpt lat="46.238577" lon="10.411642"><ele>1027</ele></trkpt>
      <trkpt lat="46.238622" lon="10.411888"><ele>1026</ele></trkpt>
      <trkpt lat="46.238644" lon="10.412211"><ele>1026</ele></trkpt>
      <trkpt lat="46.238747" lon="10.412833"><ele>1028</ele></trkpt>
      <trkpt lat="46.238725" lon="10.413402"><ele>1028</ele></trkpt>
      <trkpt lat="46.238680" lon="10.413823"><ele>1028</ele></trkpt>
      <trkpt lat="46.238635" lon="10.414179"><ele>1029</ele></trkpt>
      <trkpt lat="46.238653" lon="10.414677"><ele>1029</ele></trkpt>
      <trkpt lat="46.238756" lon="10.415208"><ele>1030</ele></trkpt>
      <trkpt lat="46.238842" lon="10.415585"><ele>1030</ele></trkpt>
      <trkpt lat="46.239039" lon="10.416326"><ele>1031</ele></trkpt>
      <trkpt lat="46.239210" lon="10.416912"><ele>1032</ele></trkpt>
      <trkpt lat="46.239295" lon="10.417141"><ele>1032</ele></trkpt>
      <trkpt lat="46.239427" lon="10.417305"><ele>1032</ele></trkpt>
      <trkpt lat="46.239774" lon="10.417763"><ele>1034</ele></trkpt>
      <trkpt lat="46.239856" lon="10.417911"><ele>1034</ele></trkpt>
      <trkpt lat="46.239965" lon="10.418225"><ele>1034</ele></trkpt>
      <trkpt lat="46.240100" lon="10.418687"><ele>1036</ele></trkpt>
      <trkpt lat="46.240169" lon="10.419090"><ele>1036</ele></trkpt>
      <trkpt lat="46.240154" lon="10.419324"><ele>1037</ele></trkpt>
      <trkpt lat="46.240172" lon="10.419489"><ele>1037</ele></trkpt>
      <trkpt lat="46.240237" lon="10.419650"><ele>1038</ele></trkpt>
      <trkpt lat="46.240300" lon="10.419763"><ele>1039</ele></trkpt>
      <trkpt lat="46.240375" lon="10.419852"><ele>1039</ele></trkpt>
      <trkpt lat="46.240468" lon="10.420003"><ele>1040</ele></trkpt>
      <trkpt lat="46.240591" lon="10.420225"><ele>1041</ele></trkpt>
      <trkpt lat="46.240680" lon="10.420451"><ele>1042</ele></trkpt>
      <trkpt lat="46.240727" lon="10.420709"><ele>1042</ele></trkpt>
      <trkpt lat="46.240756" lon="10.420989"><ele>1044</ele></trkpt>
      <trkpt lat="46.240734" lon="10.421248"><ele>1044</ele></trkpt>
      <trkpt lat="46.240686" lon="10.421467"><ele>1044</ele></trkpt>
      <trkpt lat="46.240583" lon="10.421683"><ele>1042</ele></trkpt>
      <trkpt lat="46.240483" lon="10.421880"><ele>1041</ele></trkpt>
      <trkpt lat="46.240253" lon="10.422164"><ele>1040</ele></trkpt>
      <trkpt lat="46.240087" lon="10.422338"><ele>1041</ele></trkpt>
      <trkpt lat="46.240008" lon="10.422459"><ele>1042</ele></trkpt>
      <trkpt lat="46.239939" lon="10.422633"><ele>1043</ele></trkpt>
      <trkpt lat="46.239809" lon="10.423085"><ele>1044</ele></trkpt>
      <trkpt lat="46.239661" lon="10.423510"><ele>1046</ele></trkpt>
      <trkpt lat="46.239593" lon="10.423780"><ele>1046</ele></trkpt>
      <trkpt lat="46.239559" lon="10.424161"><ele>1046</ele></trkpt>
      <trkpt lat="46.239527" lon="10.424779"><ele>1046</ele></trkpt>
      <trkpt lat="46.239639" lon="10.424818"><ele>1048</ele></trkpt>
      <trkpt lat="46.239713" lon="10.424797"><ele>1050</ele></trkpt>
      <trkpt lat="46.240168" lon="10.424612"><ele>1052</ele></trkpt>
      <trkpt lat="46.240356" lon="10.424615"><ele>1052</ele></trkpt>
      <trkpt lat="46.240561" lon="10.424669"><ele>1052</ele></trkpt>
      <trkpt lat="46.240673" lon="10.424655"><ele>1054</ele></trkpt>
      <trkpt lat="46.241001" lon="10.424522"><ele>1058</ele></trkpt>
      <trkpt lat="46.241073" lon="10.424503"><ele>1059</ele></trkpt>
      <trkpt lat="46.241286" lon="10.424861"><ele>1060</ele></trkpt>
      <trkpt lat="46.241382" lon="10.424947"><ele>1061</ele></trkpt>
      <trkpt lat="46.241508" lon="10.425091"><ele>1062</ele></trkpt>
      <trkpt lat="46.241664" lon="10.425331"><ele>1062</ele></trkpt>
      <trkpt lat="46.241918" lon="10.425611"><ele>1063</ele></trkpt>
      <trkpt lat="46.241972" lon="10.425630"><ele>1064</ele></trkpt>
      <trkpt lat="46.242007" lon="10.425813"><ele>1062</ele></trkpt>
      <trkpt lat="46.242191" lon="10.426962"><ele>1057</ele></trkpt>
      <trkpt lat="46.242191" lon="10.427242"><ele>1056</ele></trkpt>
      <trkpt lat="46.242191" lon="10.427597"><ele>1056</ele></trkpt>
      <trkpt lat="46.242098" lon="10.428122"><ele>1056</ele></trkpt>
      <trkpt lat="46.242018" lon="10.428486"><ele>1056</ele></trkpt>
      <trkpt lat="46.241976" lon="10.428755"><ele>1058</ele></trkpt>
      <trkpt lat="46.241945" lon="10.429059"><ele>1058</ele></trkpt>
      <trkpt lat="46.241941" lon="10.429287"><ele>1058</ele></trkpt>
      <trkpt lat="46.241958" lon="10.429507"><ele>1058</ele></trkpt>
      <trkpt lat="46.242043" lon="10.429958"><ele>1058</ele></trkpt>
      <trkpt lat="46.242166" lon="10.430488"><ele>1058</ele></trkpt>
      <trkpt lat="46.242178" lon="10.430624"><ele>1058</ele></trkpt>
      <trkpt lat="46.242120" lon="10.431320"><ele>1058</ele></trkpt>
      <trkpt lat="46.242044" lon="10.432079"><ele>1057</ele></trkpt>
      <trkpt lat="46.242035" lon="10.432382"><ele>1058</ele></trkpt>
      <trkpt lat="46.242053" lon="10.432704"><ele>1058</ele></trkpt>
      <trkpt lat="46.242052" lon="10.433039"><ele>1060</ele></trkpt>
      <trkpt lat="46.242036" lon="10.433382"><ele>1061</ele></trkpt>
      <trkpt lat="46.242012" lon="10.433536"><ele>1062</ele></trkpt>
      <trkpt lat="46.241874" lon="10.434194"><ele>1064</ele></trkpt>
      <trkpt lat="46.241849" lon="10.434372"><ele>1064</ele></trkpt>
      <trkpt lat="46.241846" lon="10.434526"><ele>1064</ele></trkpt>
      <trkpt lat="46.241853" lon="10.434672"><ele>1065</ele></trkpt>
      <trkpt lat="46.241881" lon="10.434808"><ele>1065</ele></trkpt>
      <trkpt lat="46.241916" lon="10.434880"><ele>1066</ele></trkpt>
      <trkpt lat="46.242472" lon="10.435465"><ele>1073</ele></trkpt>
      <trkpt lat="46.242623" lon="10.435608"><ele>1073</ele></trkpt>
      <trkpt lat="46.242886" lon="10.435775"><ele>1073</ele></trkpt>
      <trkpt lat="46.243089" lon="10.435996"><ele>1072</ele></trkpt>
      <trkpt lat="46.243145" lon="10.436065"><ele>1072</ele></trkpt>
      <trkpt lat="46.243147" lon="10.436260"><ele>1068</ele></trkpt>
      <trkpt lat="46.243136" lon="10.436382"><ele>1067</ele></trkpt>
      <trkpt lat="46.243095" lon="10.436493"><ele>1066</ele></trkpt>
      <trkpt lat="46.242966" lon="10.436649"><ele>1064</ele></trkpt>
      <trkpt lat="46.242943" lon="10.436683"><ele>1064</ele></trkpt>
      <trkpt lat="46.242878" lon="10.436836"><ele>1065</ele></trkpt>
      <trkpt lat="46.242847" lon="10.437027"><ele>1065</ele></trkpt>
      <trkpt lat="46.242831" lon="10.437216"><ele>1065</ele></trkpt>
      <trkpt lat="46.242839" lon="10.437491"><ele>1066</ele></trkpt>
      <trkpt lat="46.242820" lon="10.437757"><ele>1065</ele></trkpt>
      <trkpt lat="46.242772" lon="10.438022"><ele>1066</ele></trkpt>
      <trkpt lat="46.242715" lon="10.438235"><ele>1066</ele></trkpt>
      <trkpt lat="46.242644" lon="10.438409"><ele>1066</ele></trkpt>
      <trkpt lat="46.242546" lon="10.438831"><ele>1068</ele></trkpt>
      <trkpt lat="46.242460" lon="10.438946"><ele>1068</ele></trkpt>
      <trkpt lat="46.242399" lon="10.438966"><ele>1069</ele></trkpt>
      <trkpt lat="46.242182" lon="10.438922"><ele>1072</ele></trkpt>
      <trkpt lat="46.242082" lon="10.438914"><ele>1073</ele></trkpt>
      <trkpt lat="46.241877" lon="10.438942"><ele>1076</ele></trkpt>
      <trkpt lat="46.241749" lon="10.438994"><ele>1077</ele></trkpt>
      <trkpt lat="46.241523" lon="10.439149"><ele>1080</ele></trkpt>
      <trkpt lat="46.241442" lon="10.439173"><ele>1081</ele></trkpt>
      <trkpt lat="46.241329" lon="10.439167"><ele>1083</ele></trkpt>
      <trkpt lat="46.241216" lon="10.439176"><ele>1086</ele></trkpt>
      <trkpt lat="46.241604" lon="10.441404"><ele>1086</ele></trkpt>
      <trkpt lat="46.241617" lon="10.441558"><ele>1086</ele></trkpt>
      <trkpt lat="46.241685" lon="10.443336"><ele>1086</ele></trkpt>
      <trkpt lat="46.241648" lon="10.443644"><ele>1085</ele></trkpt>
      <trkpt lat="46.241513" lon="10.444075"><ele>1086</ele></trkpt>
      <trkpt lat="46.241310" lon="10.444676"><ele>1086</ele></trkpt>
      <trkpt lat="46.241280" lon="10.444826"><ele>1086</ele></trkpt>
      <trkpt lat="46.241292" lon="10.444984"><ele>1085</ele></trkpt>
      <trkpt lat="46.241659" lon="10.446177"><ele>1084</ele></trkpt>
      <trkpt lat="46.241692" lon="10.446332"><ele>1085</ele></trkpt>
      <trkpt lat="46.241738" lon="10.446749"><ele>1087</ele></trkpt>
      <trkpt lat="46.241762" lon="10.446879"><ele>1087</ele></trkpt>
      <trkpt lat="46.241812" lon="10.447014"><ele>1088</ele></trkpt>
      <trkpt lat="46.241892" lon="10.447087"><ele>1088</ele></trkpt>
      <trkpt lat="46.242009" lon="10.447147"><ele>1087</ele></trkpt>
      <trkpt lat="46.242377" lon="10.447287"><ele>1086</ele></trkpt>
      <trkpt lat="46.242522" lon="10.447348"><ele>1086</ele></trkpt>
      <trkpt lat="46.242687" lon="10.447440"><ele>1085</ele></trkpt>
      <trkpt lat="46.242837" lon="10.447599"><ele>1085</ele></trkpt>
      <trkpt lat="46.243484" lon="10.448566"><ele>1086</ele></trkpt>
      <trkpt lat="46.243611" lon="10.448841"><ele>1085</ele></trkpt>
      <trkpt lat="46.244036" lon="10.449970"><ele>1088</ele></trkpt>
      <trkpt lat="46.244066" lon="10.450142"><ele>1089</ele></trkpt>
      <trkpt lat="46.244076" lon="10.450163"><ele>1089</ele></trkpt>
      <trkpt lat="46.244128" lon="10.450151"><ele>1088</ele></trkpt>
      <trkpt lat="46.244165" lon="10.450139"><ele>1088</ele></trkpt>
      <trkpt lat="46.244200" lon="10.450106"><ele>1086</ele></trkpt>
      <trkpt lat="46.244265" lon="10.449968"><ele>1084</ele></trkpt>
      <trkpt lat="46.244292" lon="10.449807"><ele>1084</ele></trkpt>
      <trkpt lat="46.244310" lon="10.449639"><ele>1082</ele></trkpt>
      <trkpt lat="46.244309" lon="10.449491"><ele>1082</ele></trkpt>
      <trkpt lat="46.244324" lon="10.449391"><ele>1081</ele></trkpt>
      <trkpt lat="46.244376" lon="10.449312"><ele>1080</ele></trkpt>
      <trkpt lat="46.244564" lon="10.449232"><ele>1081</ele></trkpt>
      <trkpt lat="46.244599" lon="10.449253"><ele>1081</ele></trkpt>
      <trkpt lat="46.244616" lon="10.449289"><ele>1082</ele></trkpt>
      <trkpt lat="46.244620" lon="10.449380"><ele>1081</ele></trkpt>
      <trkpt lat="46.244609" lon="10.450205"><ele>1082</ele></trkpt>
      <trkpt lat="46.244630" lon="10.450539"><ele>1082</ele></trkpt>
      <trkpt lat="46.244676" lon="10.450776"><ele>1083</ele></trkpt>
      <trkpt lat="46.244891" lon="10.451362"><ele>1084</ele></trkpt>
      <trkpt lat="46.244920" lon="10.451449"><ele>1084</ele></trkpt>
      <trkpt lat="46.244938" lon="10.451544"><ele>1084</ele></trkpt>
      <trkpt lat="46.244920" lon="10.452096"><ele>1085</ele></trkpt>
      <trkpt lat="46.244917" lon="10.452503"><ele>1086</ele></trkpt>
      <trkpt lat="46.244995" lon="10.453696"><ele>1088</ele></trkpt>
      <trkpt lat="46.245033" lon="10.453977"><ele>1089</ele></trkpt>
      <trkpt lat="46.245049" lon="10.454194"><ele>1089</ele></trkpt>
      <trkpt lat="46.245076" lon="10.454358"><ele>1089</ele></trkpt>
      <trkpt lat="46.245139" lon="10.454610"><ele>1090</ele></trkpt>
      <trkpt lat="46.245257" lon="10.455169"><ele>1090</ele></trkpt>
      <trkpt lat="46.245412" lon="10.456013"><ele>1092</ele></trkpt>
      <trkpt lat="46.245429" lon="10.456210"><ele>1092</ele></trkpt>
      <trkpt lat="46.245430" lon="10.456257"><ele>1092</ele></trkpt>
      <trkpt lat="46.245433" lon="10.456477"><ele>1092</ele></trkpt>
      <trkpt lat="46.245499" lon="10.456956"><ele>1094</ele></trkpt>
      <trkpt lat="46.245584" lon="10.457432"><ele>1095</ele></trkpt>
      <trkpt lat="46.245606" lon="10.457527"><ele>1095</ele></trkpt>
      <trkpt lat="46.245652" lon="10.457624"><ele>1095</ele></trkpt>
      <trkpt lat="46.245664" lon="10.457689"><ele>1095</ele></trkpt>
      <trkpt lat="46.245653" lon="10.457767"><ele>1094</ele></trkpt>
      <trkpt lat="46.245588" lon="10.458016"><ele>1095</ele></trkpt>
      <trkpt lat="46.245573" lon="10.458171"><ele>1095</ele></trkpt>
      <trkpt lat="46.245569" lon="10.458276"><ele>1096</ele></trkpt>
      <trkpt lat="46.245592" lon="10.458405"><ele>1096</ele></trkpt>
      <trkpt lat="46.245723" lon="10.458783"><ele>1096</ele></trkpt>
      <trkpt lat="46.245762" lon="10.458922"><ele>1096</ele></trkpt>
      <trkpt lat="46.245849" lon="10.459327"><ele>1098</ele></trkpt>
      <trkpt lat="46.245889" lon="10.459596"><ele>1098</ele></trkpt>
      <trkpt lat="46.245929" lon="10.459952"><ele>1098</ele></trkpt>
      <trkpt lat="46.245965" lon="10.460366"><ele>1098</ele></trkpt>
      <trkpt lat="46.245976" lon="10.460506"><ele>1099</ele></trkpt>
      <trkpt lat="46.245973" lon="10.460655"><ele>1099</ele></trkpt>
      <trkpt lat="46.245946" lon="10.460836"><ele>1099</ele></trkpt>
      <trkpt lat="46.245867" lon="10.461222"><ele>1100</ele></trkpt>
      <trkpt lat="46.245853" lon="10.461479"><ele>1100</ele></trkpt>
      <trkpt lat="46.245866" lon="10.461596"><ele>1101</ele></trkpt>
      <trkpt lat="46.245904" lon="10.461718"><ele>1101</ele></trkpt>
      <trkpt lat="46.245971" lon="10.461836"><ele>1101</ele></trkpt>
      <trkpt lat="46.246087" lon="10.461978"><ele>1102</ele></trkpt>
      <trkpt lat="46.246226" lon="10.462193"><ele>1102</ele></trkpt>
      <trkpt lat="46.246296" lon="10.462319"><ele>1102</ele></trkpt>
      <trkpt lat="46.246374" lon="10.462499"><ele>1103</ele></trkpt>
      <trkpt lat="46.246408" lon="10.462630"><ele>1103</ele></trkpt>
      <trkpt lat="46.246429" lon="10.462757"><ele>1103</ele></trkpt>
      <trkpt lat="46.246443" lon="10.462933"><ele>1104</ele></trkpt>
      <trkpt lat="46.246434" lon="10.463067"><ele>1104</ele></trkpt>
      <trkpt lat="46.246407" lon="10.463224"><ele>1104</ele></trkpt>
      <trkpt lat="46.246335" lon="10.463516"><ele>1106</ele></trkpt>
      <trkpt lat="46.246285" lon="10.463675"><ele>1106</ele></trkpt>
      <trkpt lat="46.246262" lon="10.463814"><ele>1106</ele></trkpt>
      <trkpt lat="46.246260" lon="10.463967"><ele>1106</ele></trkpt>
      <trkpt lat="46.246269" lon="10.464134"><ele>1107</ele></trkpt>
      <trkpt lat="46.246283" lon="10.464261"><ele>1107</ele></trkpt>
      <trkpt lat="46.246294" lon="10.464664"><ele>1109</ele></trkpt>
      <trkpt lat="46.246302" lon="10.464780"><ele>1109</ele></trkpt>
      <trkpt lat="46.246341" lon="10.464935"><ele>1110</ele></trkpt>
      <trkpt lat="46.246379" lon="10.465011"><ele>1111</ele></trkpt>
      <trkpt lat="46.246579" lon="10.465218"><ele>1113</ele></trkpt>
      <trkpt lat="46.246636" lon="10.465292"><ele>1114</ele></trkpt>
      <trkpt lat="46.246654" lon="10.465342"><ele>1114</ele></trkpt>
      <trkpt lat="46.246666" lon="10.465420"><ele>1114</ele></trkpt>
      <trkpt lat="46.246670" lon="10.465494"><ele>1115</ele></trkpt>
      <trkpt lat="46.246656" lon="10.465543"><ele>1115</ele></trkpt>
      <trkpt lat="46.246631" lon="10.465578"><ele>1114</ele></trkpt>
      <trkpt lat="46.246609" lon="10.465608"><ele>1114</ele></trkpt>
      <trkpt lat="46.246556" lon="10.465682"><ele>1114</ele></trkpt>
      <trkpt lat="46.246508" lon="10.465800"><ele>1114</ele></trkpt>
      <trkpt lat="46.246489" lon="10.465964"><ele>1115</ele></trkpt>
      <trkpt lat="46.246488" lon="10.466290"><ele>1114</ele></trkpt>
      <trkpt lat="46.246443" lon="10.466444"><ele>1113</ele></trkpt>
      <trkpt lat="46.246190" lon="10.466980"><ele>1111</ele></trkpt>
      <trkpt lat="46.246147" lon="10.467197"><ele>1111</ele></trkpt>
      <trkpt lat="46.246140" lon="10.467450"><ele>1111</ele></trkpt>
      <trkpt lat="46.246172" lon="10.467655"><ele>1112</ele></trkpt>
      <trkpt lat="46.246250" lon="10.467903"><ele>1112</ele></trkpt>
      <trkpt lat="46.246440" lon="10.468404"><ele>1112</ele></trkpt>
      <trkpt lat="46.246575" lon="10.468807"><ele>1113</ele></trkpt>
      <trkpt lat="46.246699" lon="10.469154"><ele>1114</ele></trkpt>
      <trkpt lat="46.246788" lon="10.469492"><ele>1118</ele></trkpt>
      <trkpt lat="46.246899" lon="10.469738"><ele>1121</ele></trkpt>
      <trkpt lat="46.246940" lon="10.469865"><ele>1120</ele></trkpt>
      <trkpt lat="46.246979" lon="10.470013"><ele>1118</ele></trkpt>
      <trkpt lat="46.247069" lon="10.470874"><ele>1118</ele></trkpt>
      <trkpt lat="46.247147" lon="10.471249"><ele>1120</ele></trkpt>
      <trkpt lat="46.247146" lon="10.471385"><ele>1120</ele></trkpt>
      <trkpt lat="46.247120" lon="10.471395"><ele>1120</ele></trkpt>
      <trkpt lat="46.246980" lon="10.471459"><ele>1117</ele></trkpt>
      <trkpt lat="46.246952" lon="10.471464"><ele>1117</ele></trkpt>
      <trkpt lat="46.246965" lon="10.471538"><ele>1118</ele></trkpt>
      <trkpt lat="46.247052" lon="10.471857"><ele>1120</ele></trkpt>
      <trkpt lat="46.247144" lon="10.472153"><ele>1119</ele></trkpt>
      <trkpt lat="46.247332" lon="10.472688"><ele>1120</ele></trkpt>
      <trkpt lat="46.247368" lon="10.472752"><ele>1120</ele></trkpt>
      <trkpt lat="46.247517" lon="10.472896"><ele>1120</ele></trkpt>
      <trkpt lat="46.247563" lon="10.472924"><ele>1120</ele></trkpt>
      <trkpt lat="46.247694" lon="10.472980"><ele>1120</ele></trkpt>
      <trkpt lat="46.247886" lon="10.473176"><ele>1121</ele></trkpt>
      <trkpt lat="46.248100" lon="10.473337"><ele>1122</ele></trkpt>
      <trkpt lat="46.248493" lon="10.473603"><ele>1122</ele></trkpt>
      <trkpt lat="46.248572" lon="10.473671"><ele>1123</ele></trkpt>
      <trkpt lat="46.248618" lon="10.473732"><ele>1123</ele></trkpt>
      <trkpt lat="46.248658" lon="10.473839"><ele>1124</ele></trkpt>
      <trkpt lat="46.248782" lon="10.474232"><ele>1125</ele></trkpt>
      <trkpt lat="46.248858" lon="10.474425"><ele>1124</ele></trkpt>
      <trkpt lat="46.248934" lon="10.474593"><ele>1126</ele></trkpt>
      <trkpt lat="46.249001" lon="10.474694"><ele>1126</ele></trkpt>
      <trkpt lat="46.249310" lon="10.475099"><ele>1127</ele></trkpt>
      <trkpt lat="46.249443" lon="10.475303"><ele>1126</ele></trkpt>
      <trkpt lat="46.249487" lon="10.475382"><ele>1128</ele></trkpt>
      <trkpt lat="46.249533" lon="10.475481"><ele>1129</ele></trkpt>
      <trkpt lat="46.249586" lon="10.475657"><ele>1129</ele></trkpt>
      <trkpt lat="46.249627" lon="10.475773"><ele>1128</ele></trkpt>
      <trkpt lat="46.249688" lon="10.475909"><ele>1128</ele></trkpt>
      <trkpt lat="46.249738" lon="10.476068"><ele>1129</ele></trkpt>
      <trkpt lat="46.249758" lon="10.476208"><ele>1130</ele></trkpt>
      <trkpt lat="46.249763" lon="10.476381"><ele>1131</ele></trkpt>
      <trkpt lat="46.249785" lon="10.476682"><ele>1132</ele></trkpt>
      <trkpt lat="46.249781" lon="10.476764"><ele>1132</ele></trkpt>
      <trkpt lat="46.249758" lon="10.476833"><ele>1132</ele></trkpt>
      <trkpt lat="46.249563" lon="10.477015"><ele>1132</ele></trkpt>
      <trkpt lat="46.249373" lon="10.477156"><ele>1132</ele></trkpt>
      <trkpt lat="46.249287" lon="10.477245"><ele>1131</ele></trkpt>
      <trkpt lat="46.249585" lon="10.477694"><ele>1133</ele></trkpt>
      <trkpt lat="46.249702" lon="10.477904"><ele>1134</ele></trkpt>
      <trkpt lat="46.249783" lon="10.478164"><ele>1134</ele></trkpt>
      <trkpt lat="46.249977" lon="10.479077"><ele>1136</ele></trkpt>
      <trkpt lat="46.250067" lon="10.479507"><ele>1138</ele></trkpt>
      <trkpt lat="46.250296" lon="10.480216"><ele>1142</ele></trkpt>
      <trkpt lat="46.250439" lon="10.480660"><ele>1143</ele></trkpt>
      <trkpt lat="46.250615" lon="10.481165"><ele>1146</ele></trkpt>
      <trkpt lat="46.250743" lon="10.481474"><ele>1145</ele></trkpt>
      <trkpt lat="46.250830" lon="10.481654"><ele>1145</ele></trkpt>
      <trkpt lat="46.250956" lon="10.481983"><ele>1146</ele></trkpt>
      <trkpt lat="46.251030" lon="10.482199"><ele>1145</ele></trkpt>
      <trkpt lat="46.251077" lon="10.482445"><ele>1146</ele></trkpt>
      <trkpt lat="46.251121" lon="10.482617"><ele>1147</ele></trkpt>
      <trkpt lat="46.251224" lon="10.482830"><ele>1149</ele></trkpt>
      <trkpt lat="46.251232" lon="10.482912"><ele>1149</ele></trkpt>
      <trkpt lat="46.251388" lon="10.483204"><ele>1148</ele></trkpt>
      <trkpt lat="46.251655" lon="10.483797"><ele>1150</ele></trkpt>
      <trkpt lat="46.251816" lon="10.484301"><ele>1154</ele></trkpt>
      <trkpt lat="46.251900" lon="10.484542"><ele>1154</ele></trkpt>
      <trkpt lat="46.251929" lon="10.484750"><ele>1153</ele></trkpt>
      <trkpt lat="46.251935" lon="10.485290"><ele>1155</ele></trkpt>
      <trkpt lat="46.251969" lon="10.485486"><ele>1157</ele></trkpt>
      <trkpt lat="46.252031" lon="10.485802"><ele>1163</ele></trkpt>
      <trkpt lat="46.252042" lon="10.485952"><ele>1165</ele></trkpt>
      <trkpt lat="46.252063" lon="10.486196"><ele>1166</ele></trkpt>
      <trkpt lat="46.252100" lon="10.486468"><ele>1166</ele></trkpt>
      <trkpt lat="46.252208" lon="10.486890"><ele>1164</ele></trkpt>
      <trkpt lat="46.252241" lon="10.487046"><ele>1165</ele></trkpt>
      <trkpt lat="46.252255" lon="10.487216"><ele>1166</ele></trkpt>
      <trkpt lat="46.252284" lon="10.488043"><ele>1167</ele></trkpt>
      <trkpt lat="46.252343" lon="10.488493"><ele>1168</ele></trkpt>
      <trkpt lat="46.252419" lon="10.488819"><ele>1169</ele></trkpt>
      <trkpt lat="46.252516" lon="10.489004"><ele>1170</ele></trkpt>
      <trkpt lat="46.252786" lon="10.489434"><ele>1170</ele></trkpt>
      <trkpt lat="46.252862" lon="10.489690"><ele>1173</ele></trkpt>
      <trkpt lat="46.252876" lon="10.490025"><ele>1174</ele></trkpt>
      <trkpt lat="46.252841" lon="10.490405"><ele>1176</ele></trkpt>
      <trkpt lat="46.252682" lon="10.491216"><ele>1179</ele></trkpt>
      <trkpt lat="46.252603" lon="10.491686"><ele>1183</ele></trkpt>
      <trkpt lat="46.252578" lon="10.491972"><ele>1187</ele></trkpt>
      <trkpt lat="46.252524" lon="10.492049"><ele>1189</ele></trkpt>
      <trkpt lat="46.252417" lon="10.492070"><ele>1190</ele></trkpt>
      <trkpt lat="46.252416" lon="10.492124"><ele>1190</ele></trkpt>
      <trkpt lat="46.252416" lon="10.492436"><ele>1186</ele></trkpt>
      <trkpt lat="46.252374" lon="10.492825"><ele>1189</ele></trkpt>
      <trkpt lat="46.252373" lon="10.492922"><ele>1189</ele></trkpt>
      <trkpt lat="46.252388" lon="10.492965"><ele>1189</ele></trkpt>
      <trkpt lat="46.252423" lon="10.492992"><ele>1188</ele></trkpt>
      <trkpt lat="46.252421" lon="10.493112"><ele>1188</ele></trkpt>
      <trkpt lat="46.252476" lon="10.493252"><ele>1186</ele></trkpt>
      <trkpt lat="46.252530" lon="10.493416"><ele>1186</ele></trkpt>
      <trkpt lat="46.252593" lon="10.493570"><ele>1189</ele></trkpt>
      <trkpt lat="46.252625" lon="10.493727"><ele>1190</ele></trkpt>
      <trkpt lat="46.252659" lon="10.493976"><ele>1190</ele></trkpt>
      <trkpt lat="46.252668" lon="10.494082"><ele>1190</ele></trkpt>
      <trkpt lat="46.252653" lon="10.494732"><ele>1190</ele></trkpt>
      <trkpt lat="46.252613" lon="10.495239"><ele>1191</ele></trkpt>
      <trkpt lat="46.252609" lon="10.495466"><ele>1191</ele></trkpt>
      <trkpt lat="46.252613" lon="10.495837"><ele>1192</ele></trkpt>
      <trkpt lat="46.252620" lon="10.495910"><ele>1192</ele></trkpt>
      <trkpt lat="46.252639" lon="10.495977"><ele>1192</ele></trkpt>
      <trkpt lat="46.252801" lon="10.496425"><ele>1192</ele></trkpt>
      <trkpt lat="46.252844" lon="10.496511"><ele>1193</ele></trkpt>
      <trkpt lat="46.252942" lon="10.496663"><ele>1193</ele></trkpt>
      <trkpt lat="46.253040" lon="10.496797"><ele>1194</ele></trkpt>
      <trkpt lat="46.253104" lon="10.496864"><ele>1194</ele></trkpt>
      <trkpt lat="46.253245" lon="10.496985"><ele>1194</ele></trkpt>
      <trkpt lat="46.253333" lon="10.497050"><ele>1194</ele></trkpt>
      <trkpt lat="46.253462" lon="10.497174"><ele>1195</ele></trkpt>
      <trkpt lat="46.253663" lon="10.497406"><ele>1195</ele></trkpt>
      <trkpt lat="46.253734" lon="10.497508"><ele>1195</ele></trkpt>
      <trkpt lat="46.253782" lon="10.497636"><ele>1196</ele></trkpt>
      <trkpt lat="46.253913" lon="10.498060"><ele>1197</ele></trkpt>
      <trkpt lat="46.254001" lon="10.498262"><ele>1197</ele></trkpt>
      <trkpt lat="46.254094" lon="10.498391"><ele>1197</ele></trkpt>
      <trkpt lat="46.254168" lon="10.498558"><ele>1198</ele></trkpt>
      <trkpt lat="46.254235" lon="10.498729"><ele>1198</ele></trkpt>
      <trkpt lat="46.254094" lon="10.498666"><ele>1198</ele></trkpt>
      <trkpt lat="46.253883" lon="10.498608"><ele>1199</ele></trkpt>
      <trkpt lat="46.253835" lon="10.498574"><ele>1199</ele></trkpt>
      <trkpt lat="46.253727" lon="10.498475"><ele>1199</ele></trkpt>
      <trkpt lat="46.253566" lon="10.498299"><ele>1200</ele></trkpt>
      <trkpt lat="46.253308" lon="10.498068"><ele>1205</ele></trkpt>
      <trkpt lat="46.253225" lon="10.497917"><ele>1204</ele></trkpt>
      <trkpt lat="46.253109" lon="10.497742"><ele>1204</ele></trkpt>
      <trkpt lat="46.253037" lon="10.497647"><ele>1204</ele></trkpt>
      <trkpt lat="46.252816" lon="10.497308"><ele>1203</ele></trkpt>
      <trkpt lat="46.252779" lon="10.497300"><ele>1204</ele></trkpt>
      <trkpt lat="46.252747" lon="10.497322"><ele>1205</ele></trkpt>
      <trkpt lat="46.252730" lon="10.497351"><ele>1206</ele></trkpt>
      <trkpt lat="46.252729" lon="10.497400"><ele>1207</ele></trkpt>
      <trkpt lat="46.252903" lon="10.498001"><ele>1210</ele></trkpt>
      <trkpt lat="46.253036" lon="10.498577"><ele>1214</ele></trkpt>
      <trkpt lat="46.253102" lon="10.499023"><ele>1213</ele></trkpt>
      <trkpt lat="46.253764" lon="10.501566"><ele>1223</ele></trkpt>
      <trkpt lat="46.253832" lon="10.501708"><ele>1223</ele></trkpt>
      <trkpt lat="46.253951" lon="10.501855"><ele>1224</ele></trkpt>
      <trkpt lat="46.254082" lon="10.501914"><ele>1223</ele></trkpt>
      <trkpt lat="46.254166" lon="10.502005"><ele>1222</ele></trkpt>
      <trkpt lat="46.254222" lon="10.502171"><ele>1224</ele></trkpt>
      <trkpt lat="46.254214" lon="10.502240"><ele>1224</ele></trkpt>
      <trkpt lat="46.254175" lon="10.502277"><ele>1226</ele></trkpt>
      <trkpt lat="46.254146" lon="10.502280"><ele>1226</ele></trkpt>
      <trkpt lat="46.254126" lon="10.502261"><ele>1226</ele></trkpt>
      <trkpt lat="46.254060" lon="10.502136"><ele>1226</ele></trkpt>
      <trkpt lat="46.254030" lon="10.502096"><ele>1226</ele></trkpt>
      <trkpt lat="46.254008" lon="10.502091"><ele>1226</ele></trkpt>
      <trkpt lat="46.253985" lon="10.502099"><ele>1227</ele></trkpt>
      <trkpt lat="46.253958" lon="10.502129"><ele>1228</ele></trkpt>
      <trkpt lat="46.253938" lon="10.502176"><ele>1229</ele></trkpt>
      <trkpt lat="46.253927" lon="10.502224"><ele>1230</ele></trkpt>
      <trkpt lat="46.253921" lon="10.502333"><ele>1231</ele></trkpt>
      <trkpt lat="46.253934" lon="10.502423"><ele>1232</ele></trkpt>
      <trkpt lat="46.254043" lon="10.502770"><ele>1233</ele></trkpt>
      <trkpt lat="46.254094" lon="10.502860"><ele>1234</ele></trkpt>
      <trkpt lat="46.254130" lon="10.502902"><ele>1234</ele></trkpt>
      <trkpt lat="46.254186" lon="10.502950"><ele>1235</ele></trkpt>
      <trkpt lat="46.254207" lon="10.503059"><ele>1236</ele></trkpt>
      <trkpt lat="46.254256" lon="10.503351"><ele>1236</ele></trkpt>
      <trkpt lat="46.254267" lon="10.503414"><ele>1236</ele></trkpt>
      <trkpt lat="46.254278" lon="10.503578"><ele>1236</ele></trkpt>
      <trkpt lat="46.254311" lon="10.503784"><ele>1236</ele></trkpt>
      <trkpt lat="46.254342" lon="10.503887"><ele>1236</ele></trkpt>
      <trkpt lat="46.254432" lon="10.504113"><ele>1235</ele></trkpt>
      <trkpt lat="46.254472" lon="10.504265"><ele>1235</ele></trkpt>
      <trkpt lat="46.254611" lon="10.505044"><ele>1240</ele></trkpt>
      <trkpt lat="46.254651" lon="10.505430"><ele>1244</ele></trkpt>
      <trkpt lat="46.254696" lon="10.505676"><ele>1246</ele></trkpt>
      <trkpt lat="46.254715" lon="10.505783"><ele>1246</ele></trkpt>
      <trkpt lat="46.254745" lon="10.506052"><ele>1250</ele></trkpt>
      <trkpt lat="46.254875" lon="10.506681"><ele>1252</ele></trkpt>
      <trkpt lat="46.254975" lon="10.507251"><ele>1252</ele></trkpt>
      <trkpt lat="46.255068" lon="10.507529"><ele>1252</ele></trkpt>
      <trkpt lat="46.255081" lon="10.507904"><ele>1250</ele></trkpt>
      <trkpt lat="46.255139" lon="10.509033"><ele>1249</ele></trkpt>
      <trkpt lat="46.255164" lon="10.509210"><ele>1249</ele></trkpt>
      <trkpt lat="46.255244" lon="10.509424"><ele>1249</ele></trkpt>
      <trkpt lat="46.255377" lon="10.509704"><ele>1250</ele></trkpt>
      <trkpt lat="46.255449" lon="10.509856"><ele>1250</ele></trkpt>
      <trkpt lat="46.255464" lon="10.509902"><ele>1250</ele></trkpt>
      <trkpt lat="46.255623" lon="10.509773"><ele>1250</ele></trkpt>
      <trkpt lat="46.255781" lon="10.509645"><ele>1249</ele></trkpt>
      <trkpt lat="46.255891" lon="10.509579"><ele>1249</ele></trkpt>
      <trkpt lat="46.256497" lon="10.509300"><ele>1247</ele></trkpt>
      <trkpt lat="46.256795" lon="10.509241"><ele>1246</ele></trkpt>
      <trkpt lat="46.256915" lon="10.509264"><ele>1246</ele></trkpt>
      <trkpt lat="46.257069" lon="10.509334"><ele>1246</ele></trkpt>
      <trkpt lat="46.257150" lon="10.509281"><ele>1245</ele></trkpt>
      <trkpt lat="46.257450" lon="10.509095"><ele>1244</ele></trkpt>
      <trkpt lat="46.257573" lon="10.509032"><ele>1244</ele></trkpt>
      <trkpt lat="46.257623" lon="10.509008"><ele>1244</ele></trkpt>
      <trkpt lat="46.257857" lon="10.508929"><ele>1243</ele></trkpt>
      <trkpt lat="46.257876" lon="10.508967"><ele>1243</ele></trkpt>
      <trkpt lat="46.257891" lon="10.508977"><ele>1243</ele></trkpt>
      <trkpt lat="46.257924" lon="10.508973"><ele>1243</ele></trkpt>
      <trkpt lat="46.258028" lon="10.509136"><ele>1243</ele></trkpt>
      <trkpt lat="46.258258" lon="10.509477"><ele>1243</ele></trkpt>
      <trkpt lat="46.258288" lon="10.509522"><ele>1242</ele></trkpt>
      <trkpt lat="46.258446" lon="10.509756"><ele>1242</ele></trkpt>
      <trkpt lat="46.258478" lon="10.509805"><ele>1243</ele></trkpt>
      <trkpt lat="46.258520" lon="10.509867"><ele>1243</ele></trkpt>
      <trkpt lat="46.258581" lon="10.509975"><ele>1243</ele></trkpt>
      <trkpt lat="46.258621" lon="10.510092"><ele>1244</ele></trkpt>
      <trkpt lat="46.258642" lon="10.510319"><ele>1245</ele></trkpt>
      <trkpt lat="46.258901" lon="10.510370"><ele>1244</ele></trkpt>
      <trkpt lat="46.258955" lon="10.510389"><ele>1245</ele></trkpt>
      <trkpt lat="46.259057" lon="10.510249"><ele>1244</ele></trkpt>
      <trkpt lat="46.259119" lon="10.510119"><ele>1244</ele></trkpt>
    </trkseg></trk>
</gpx>
