<?xml version="1.0" encoding="UTF-8"?>
<gpx version="1.1" creator="radtour" xmlns="http://www.topografix.com/GPX/1/1">
  <metadata><name>Bozen-Oy 1.4 Reutte - Oy-Mittelberg</name></metadata>
  <trk><name>Bozen-Oy 1.4 Reutte - Oy-Mittelberg</name><trkseg>
      <trkpt lat="47.486024" lon="10.718077"><ele>853</ele></trkpt>
      <trkpt lat="47.486414" lon="10.717813"><ele>853</ele></trkpt>
      <trkpt lat="47.486522" lon="10.717739"><ele>853</ele></trkpt>
      <trkpt lat="47.486629" lon="10.717716"><ele>853</ele></trkpt>
      <trkpt lat="47.486685" lon="10.717729"><ele>853</ele></trkpt>
      <trkpt lat="47.486771" lon="10.717784"><ele>853</ele></trkpt>
      <trkpt lat="47.486808" lon="10.717793"><ele>853</ele></trkpt>
      <trkpt lat="47.486874" lon="10.717756"><ele>853</ele></trkpt>
      <trkpt lat="47.487036" lon="10.717625"><ele>852</ele></trkpt>
      <trkpt lat="47.487018" lon="10.717467"><ele>852</ele></trkpt>
      <trkpt lat="47.486984" lon="10.717228"><ele>852</ele></trkpt>
      <trkpt lat="47.486995" lon="10.717224"><ele>852</ele></trkpt>
      <trkpt lat="47.487115" lon="10.717179"><ele>851</ele></trkpt>
      <trkpt lat="47.487196" lon="10.716784"><ele>851</ele></trkpt>
      <trkpt lat="47.487202" lon="10.716646"><ele>851</ele></trkpt>
      <trkpt lat="47.487250" lon="10.716249"><ele>852</ele></trkpt>
      <trkpt lat="47.487388" lon="10.715895"><ele>853</ele></trkpt>
      <trkpt lat="47.487548" lon="10.715356"><ele>854</ele></trkpt>
      <trkpt lat="47.487621" lon="10.715066"><ele>854</ele></trkpt>
      <trkpt lat="47.487769" lon="10.714368"><ele>854</ele></trkpt>
      <trkpt lat="47.487848" lon="10.714127"><ele>853</ele></trkpt>
      <trkpt lat="47.487895" lon="10.714078"><ele>853</ele></trkpt>
      <trkpt lat="47.488221" lon="10.713977"><ele>854</ele></trkpt>
      <trkpt lat="47.488192" lon="10.713472"><ele>854</ele></trkpt>
      <trkpt lat="47.488164" lon="10.713005"><ele>855</ele></trkpt>
      <trkpt lat="47.488164" lon="10.712874"><ele>854</ele></trkpt>
      <trkpt lat="47.488179" lon="10.712723"><ele>854</ele></trkpt>
      <trkpt lat="47.488214" lon="10.712564"><ele>853</ele></trkpt>
      <trkpt lat="47.488269" lon="10.712427"><ele>852</ele></trkpt>
      <trkpt lat="47.488374" lon="10.712250"><ele>852</ele></trkpt>
      <trkpt lat="47.488364" lon="10.712179"><ele>852</ele></trkpt>
      <trkpt lat="47.488779" lon="10.711654"><ele>848</ele></trkpt>
      <trkpt lat="47.488805" lon="10.711575"><ele>848</ele></trkpt>
      <trkpt lat="47.488797" lon="10.711421"><ele>848</ele></trkpt>
      <trkpt lat="47.488822" lon="10.711327"><ele>847</ele></trkpt>
      <trkpt lat="47.488837" lon="10.711283"><ele>847</ele></trkpt>
      <trkpt lat="47.488893" lon="10.711239"><ele>847</ele></trkpt>
      <trkpt lat="47.488944" lon="10.711185"><ele>846</ele></trkpt>
      <trkpt lat="47.488960" lon="10.711141"><ele>846</ele></trkpt>
      <trkpt lat="47.488979" lon="10.710945"><ele>844</ele></trkpt>
      <trkpt lat="47.488975" lon="10.710825"><ele>844</ele></trkpt>
      <trkpt lat="47.488961" lon="10.710596"><ele>844</ele></trkpt>
      <trkpt lat="47.488750" lon="10.709082"><ele>846</ele></trkpt>
      <trkpt lat="47.488679" lon="10.708547"><ele>846</ele></trkpt>
      <trkpt lat="47.488573" lon="10.708567"><ele>846</ele></trkpt>
      <trkpt lat="47.488354" lon="10.708611"><ele>845</ele></trkpt>
      <trkpt lat="47.488304" lon="10.708698"><ele>845</ele></trkpt>
      <trkpt lat="47.488289" lon="10.708788"><ele>844</ele></trkpt>
      <trkpt lat="47.488393" lon="10.708940"><ele>844</ele></trkpt>
      <trkpt lat="47.488516" lon="10.709066"><ele>843</ele></trkpt>
      <trkpt lat="47.488638" lon="10.709130"><ele>842</ele></trkpt>
      <trkpt lat="47.488904" lon="10.709201"><ele>843</ele></trkpt>
      <trkpt lat="47.489295" lon="10.709266"><ele>843</ele></trkpt>
      <trkpt lat="47.490394" lon="10.709373"><ele>842</ele></trkpt>
      <trkpt lat="47.492434" lon="10.709505"><ele>842</ele></trkpt>
      <trkpt lat="47.492720" lon="10.709471"><ele>842</ele></trkpt>
      <trkpt lat="47.493186" lon="10.709469"><ele>842</ele></trkpt>
      <trkpt lat="47.493494" lon="10.709497"><ele>842</ele></trkpt>
      <trkpt lat="47.494165" lon="10.709487"><ele>842</ele></trkpt>
      <trkpt lat="47.494579" lon="10.709481"><ele>842</ele></trkpt>
      <trkpt lat="47.496655" lon="10.709600"><ele>839</ele></trkpt>
      <trkpt lat="47.496979" lon="10.709584"><ele>840</ele></trkpt>
      <trkpt lat="47.497062" lon="10.709587"><ele>840</ele></trkpt>
      <trkpt lat="47.497286" lon="10.709615"><ele>840</ele></trkpt>
      <trkpt lat="47.497855" lon="10.709670"><ele>840</ele></trkpt>
      <trkpt lat="47.498176" lon="10.709728"><ele>840</ele></trkpt>
      <trkpt lat="47.498602" lon="10.709862"><ele>838</ele></trkpt>
      <trkpt lat="47.498707" lon="10.709895"><ele>838</ele></trkpt>
      <trkpt lat="47.499037" lon="10.709958"><ele>839</ele></trkpt>
      <trkpt lat="47.499378" lon="10.710045"><ele>839</ele></trkpt>
      <trkpt lat="47.499644" lon="10.710129"><ele>838</ele></trkpt>
      <trkpt lat="47.499743" lon="10.710150"><ele>838</ele></trkpt>
      <trkpt lat="47.499833" lon="10.710158"><ele>838</ele></trkpt>
      <trkpt lat="47.499905" lon="10.710141"><ele>838</ele></trkpt>
      <trkpt lat="47.499968" lon="10.710101"><ele>838</ele></trkpt>
      <trkpt lat="47.500043" lon="10.710028"><ele>839</ele></trkpt>
      <trkpt lat="47.500157" lon="10.709882"><ele>838</ele></trkpt>
      <trkpt lat="47.500181" lon="10.709829"><ele>839</ele></trkpt>
      <trkpt lat="47.500179" lon="10.709764"><ele>839</ele></trkpt>
      <trkpt lat="47.500166" lon="10.709703"><ele>839</ele></trkpt>
      <trkpt lat="47.500159" lon="10.709617"><ele>839</ele></trkpt>
      <trkpt lat="47.500167" lon="10.709546"><ele>838</ele></trkpt>
      <trkpt lat="47.500214" lon="10.709428"><ele>838</ele></trkpt>
      <trkpt lat="47.500302" lon="10.709157"><ele>838</ele></trkpt>
      <trkpt lat="47.500281" lon="10.709077"><ele>838</ele></trkpt>
      <trkpt lat="47.500212" lon="10.709067"><ele>838</ele></trkpt>
      <trkpt lat="47.500130" lon="10.708868"><ele>838</ele></trkpt>
      <trkpt lat="47.500096" lon="10.708786"><ele>839</ele></trkpt>
      <trkpt lat="47.500077" lon="10.708740"><ele>839</ele></trkpt>
      <trkpt lat="47.499910" lon="10.708127"><ele>838</ele></trkpt>
      <trkpt lat="47.499835" lon="10.707998"><ele>838</ele></trkpt>
      <trkpt lat="47.499771" lon="10.707861"><ele>838</ele></trkpt>
      <trkpt lat="47.499726" lon="10.707774"><ele>838</ele></trkpt>
      <trkpt lat="47.499561" lon="10.707508"><ele>839</ele></trkpt>
      <trkpt lat="47.499414" lon="10.707317"><ele>839</ele></trkpt>
      <trkpt lat="47.499346" lon="10.707209"><ele>839</ele></trkpt>
      <trkpt lat="47.499271" lon="10.707037"><ele>839</ele></trkpt>
      <trkpt lat="47.499262" lon="10.706952"><ele>840</ele></trkpt>
      <trkpt lat="47.499389" lon="10.706885"><ele>840</ele></trkpt>
      <trkpt lat="47.499453" lon="10.706901"><ele>839</ele></trkpt>
      <trkpt lat="47.499601" lon="10.706889"><ele>839</ele></trkpt>
      <trkpt lat="47.500309" lon="10.706526"><ele>838</ele></trkpt>
      <trkpt lat="47.501043" lon="10.705953"><ele>838</ele></trkpt>
      <trkpt lat="47.501996" lon="10.705097"><ele>838</ele></trkpt>
      <trkpt lat="47.502052" lon="10.705065"><ele>838</ele></trkpt>
      <trkpt lat="47.502197" lon="10.705015"><ele>838</ele></trkpt>
      <trkpt lat="47.502271" lon="10.705022"><ele>839</ele></trkpt>
      <trkpt lat="47.502344" lon="10.705056"><ele>840</ele></trkpt>
      <trkpt lat="47.502430" lon="10.705120"><ele>840</ele></trkpt>
      <trkpt lat="47.502587" lon="10.705295"><ele>840</ele></trkpt>
      <trkpt lat="47.502636" lon="10.705408"><ele>840</ele></trkpt>
      <trkpt lat="47.502676" lon="10.705475"><ele>839</ele></trkpt>
      <trkpt lat="47.502774" lon="10.705575"><ele>839</ele></trkpt>
      <trkpt lat="47.502854" lon="10.705640"><ele>840</ele></trkpt>
      <trkpt lat="47.502968" lon="10.705707"><ele>840</ele></trkpt>
      <trkpt lat="47.503500" lon="10.705985"><ele>842</ele></trkpt>
      <trkpt lat="47.503646" lon="10.706062"><ele>842</ele></trkpt>
      <trkpt lat="47.503821" lon="10.706155"><ele>843</ele></trkpt>
      <trkpt lat="47.504668" lon="10.706868"><ele>848</ele></trkpt>
      <trkpt lat="47.505401" lon="10.707370"><ele>839</ele></trkpt>
      <trkpt lat="47.505424" lon="10.707379"><ele>839</ele></trkpt>
      <trkpt lat="47.505507" lon="10.707409"><ele>839</ele></trkpt>
      <trkpt lat="47.505522" lon="10.707414"><ele>839</ele></trkpt>
      <trkpt lat="47.505606" lon="10.707499"><ele>842</ele></trkpt>
      <trkpt lat="47.505665" lon="10.707639"><ele>841</ele></trkpt>
      <trkpt lat="47.505777" lon="10.707771"><ele>840</ele></trkpt>
      <trkpt lat="47.506025" lon="10.707930"><ele>840</ele></trkpt>
      <trkpt lat="47.506384" lon="10.708190"><ele>838</ele></trkpt>
      <trkpt lat="47.506504" lon="10.708343"><ele>838</ele></trkpt>
      <trkpt lat="47.506703" lon="10.708634"><ele>837</ele></trkpt>
      <trkpt lat="47.506804" lon="10.708947"><ele>842</ele></trkpt>
      <trkpt lat="47.506859" lon="10.709479"><ele>840</ele></trkpt>
      <trkpt lat="47.506775" lon="10.709735"><ele>839</ele></trkpt>
      <trkpt lat="47.506764" lon="10.709864"><ele>838</ele></trkpt>
      <trkpt lat="47.506810" lon="10.710027"><ele>837</ele></trkpt>
      <trkpt lat="47.506872" lon="10.710086"><ele>838</ele></trkpt>
      <trkpt lat="47.507335" lon="10.710129"><ele>840</ele></trkpt>
      <trkpt lat="47.507469" lon="10.710240"><ele>838</ele></trkpt>
      <trkpt lat="47.507569" lon="10.710563"><ele>838</ele></trkpt>
      <trkpt lat="47.507650" lon="10.710610"><ele>838</ele></trkpt>
      <trkpt lat="47.507833" lon="10.710550"><ele>839</ele></trkpt>
      <trkpt lat="47.508164" lon="10.710490"><ele>837</ele></trkpt>
      <trkpt lat="47.508720" lon="10.710095"><ele>836</ele></trkpt>
      <trkpt lat="47.509410" lon="10.709322"><ele>836</ele></trkpt>
      <trkpt lat="47.509926" lon="10.708610"><ele>836</ele></trkpt>
      <trkpt lat="47.510118" lon="10.708378"><ele>836</ele></trkpt>
      <trkpt lat="47.510280" lon="10.708069"><ele>836</ele></trkpt>
      <trkpt lat="47.510338" lon="10.707820"><ele>838</ele></trkpt>
      <trkpt lat="47.510405" lon="10.707459"><ele>840</ele></trkpt>
      <trkpt lat="47.510436" lon="10.707391"><ele>840</ele></trkpt>
      <trkpt lat="47.510593" lon="10.707219"><ele>840</ele></trkpt>
      <trkpt lat="47.511072" lon="10.707016"><ele>840</ele></trkpt>
      <trkpt lat="47.511233" lon="10.706861"><ele>841</ele></trkpt>
      <trkpt lat="47.511347" lon="10.706745"><ele>840</ele></trkpt>
      <trkpt lat="47.511544" lon="10.706620"><ele>840</ele></trkpt>
      <trkpt lat="47.511661" lon="10.706443"><ele>840</ele></trkpt>
      <trkpt lat="47.511821" lon="10.706257"><ele>840</ele></trkpt>
      <trkpt lat="47.511915" lon="10.706157"><ele>840</ele></trkpt>
      <trkpt lat="47.513602" lon="10.704384"><ele>839</ele></trkpt>
      <trkpt lat="47.513848" lon="10.704101"><ele>839</ele></trkpt>
      <trkpt lat="47.514052" lon="10.703740"><ele>839</ele></trkpt>
      <trkpt lat="47.514477" lon="10.702791"><ele>839</ele></trkpt>
      <trkpt lat="47.514616" lon="10.702138"><ele>848</ele></trkpt>
      <trkpt lat="47.514678" lon="10.701282"><ele>841</ele></trkpt>
      <trkpt lat="47.514684" lon="10.700864"><ele>840</ele></trkpt>
      <trkpt lat="47.514714" lon="10.700451"><ele>840</ele></trkpt>
      <trkpt lat="47.514725" lon="10.700018"><ele>840</ele></trkpt>
      <trkpt lat="47.514639" lon="10.698977"><ele>841</ele></trkpt>
      <trkpt lat="47.514535" lon="10.697642"><ele>841</ele></trkpt>
      <trkpt lat="47.514410" lon="10.696343"><ele>841</ele></trkpt>
      <trkpt lat="47.514310" lon="10.695133"><ele>842</ele></trkpt>
      <trkpt lat="47.514309" lon="10.694715"><ele>842</ele></trkpt>
      <trkpt lat="47.514324" lon="10.694379"><ele>842</ele></trkpt>
      <trkpt lat="47.514364" lon="10.694143"><ele>842</ele></trkpt>
      <trkpt lat="47.514450" lon="10.693931"><ele>843</ele></trkpt>
      <trkpt lat="47.514734" lon="10.693544"><ele>844</ele></trkpt>
      <trkpt lat="47.515376" lon="10.692772"><ele>845</ele></trkpt>
      <trkpt lat="47.515709" lon="10.692383"><ele>847</ele></trkpt>
      <trkpt lat="47.515848" lon="10.692193"><ele>846</ele></trkpt>
      <trkpt lat="47.516314" lon="10.691630"><ele>846</ele></trkpt>
      <trkpt lat="47.516503" lon="10.691380"><ele>847</ele></trkpt>
      <trkpt lat="47.516684" lon="10.691100"><ele>847</ele></trkpt>
      <trkpt lat="47.516785" lon="10.690958"><ele>847</ele></trkpt>
      <trkpt lat="47.516842" lon="10.690878"><ele>847</ele></trkpt>
      <trkpt lat="47.517015" lon="10.690644"><ele>846</ele></trkpt>
      <trkpt lat="47.517316" lon="10.690186"><ele>846</ele></trkpt>
      <trkpt lat="47.517556" lon="10.689794"><ele>845</ele></trkpt>
      <trkpt lat="47.517770" lon="10.689365"><ele>844</ele></trkpt>
      <trkpt lat="47.518131" lon="10.688700"><ele>842</ele></trkpt>
      <trkpt lat="47.518668" lon="10.687838"><ele>841</ele></trkpt>
      <trkpt lat="47.519796" lon="10.686053"><ele>841</ele></trkpt>
      <trkpt lat="47.520192" lon="10.685547"><ele>841</ele></trkpt>
      <trkpt lat="47.520372" lon="10.685281"><ele>842</ele></trkpt>
      <trkpt lat="47.520608" lon="10.684806"><ele>842</ele></trkpt>
      <trkpt lat="47.520952" lon="10.684060"><ele>844</ele></trkpt>
      <trkpt lat="47.521173" lon="10.683631"><ele>844</ele></trkpt>
      <trkpt lat="47.521532" lon="10.683058"><ele>844</ele></trkpt>
      <trkpt lat="47.522559" lon="10.681585"><ele>844</ele></trkpt>
      <trkpt lat="47.523055" lon="10.680876"><ele>844</ele></trkpt>
      <trkpt lat="47.523457" lon="10.680294"><ele>843</ele></trkpt>
      <trkpt lat="47.523488" lon="10.680344"><ele>843</ele></trkpt>
      <trkpt lat="47.523546" lon="10.680258"><ele>843</ele></trkpt>
      <trkpt lat="47.523700" lon="10.680020"><ele>842</ele></trkpt>
      <trkpt lat="47.523895" lon="10.680332"><ele>842</ele></trkpt>
      <trkpt lat="47.524146" lon="10.680545"><ele>840</ele></trkpt>
      <trkpt lat="47.524227" lon="10.680615"><ele>840</ele></trkpt>
      <trkpt lat="47.524308" lon="10.680656"><ele>839</ele></trkpt>
      <trkpt lat="47.524576" lon="10.680677"><ele>839</ele></trkpt>
      <trkpt lat="47.525016" lon="10.680904"><ele>837</ele></trkpt>
      <trkpt lat="47.525253" lon="10.680910"><ele>836</ele></trkpt>
      <trkpt lat="47.525455" lon="10.680992"><ele>836</ele></trkpt>
      <trkpt lat="47.525666" lon="10.681144"><ele>834</ele></trkpt>
      <trkpt lat="47.526004" lon="10.681261"><ele>833</ele></trkpt>
      <trkpt lat="47.526424" lon="10.681340"><ele>832</ele></trkpt>
      <trkpt lat="47.527058" lon="10.681397"><ele>830</ele></trkpt>
      <trkpt lat="47.527485" lon="10.681397"><ele>830</ele></trkpt>
      <trkpt lat="47.527829" lon="10.681380"><ele>828</ele></trkpt>
      <trkpt lat="47.528126" lon="10.681549"><ele>828</ele></trkpt>
      <trkpt lat="47.528283" lon="10.681410"><ele>826</ele></trkpt>
      <trkpt lat="47.528359" lon="10.681179"><ele>824</ele></trkpt>
      <trkpt lat="47.528486" lon="10.680772"><ele>822</ele></trkpt>
      <trkpt lat="47.528531" lon="10.680638"><ele>822</ele></trkpt>
      <trkpt lat="47.528583" lon="10.680520"><ele>823</ele></trkpt>
      <trkpt lat="47.528784" lon="10.680302"><ele>821</ele></trkpt>
      <trkpt lat="47.528855" lon="10.680218"><ele>821</ele></trkpt>
      <trkpt lat="47.529056" lon="10.679645"><ele>821</ele></trkpt>
      <trkpt lat="47.529376" lon="10.678675"><ele>819</ele></trkpt>
      <trkpt lat="47.529582" lon="10.677996"><ele>821</ele></trkpt>
      <trkpt lat="47.529685" lon="10.677627"><ele>821</ele></trkpt>
      <trkpt lat="47.529766" lon="10.677227"><ele>823</ele></trkpt>
      <trkpt lat="47.529801" lon="10.676940"><ele>822</ele></trkpt>
      <trkpt lat="47.529842" lon="10.676789"><ele>822</ele></trkpt>
      <trkpt lat="47.530111" lon="10.676114"><ele>821</ele></trkpt>
      <trkpt lat="47.530416" lon="10.675424"><ele>821</ele></trkpt>
      <trkpt lat="47.530572" lon="10.674933"><ele>823</ele></trkpt>
      <trkpt lat="47.530630" lon="10.674790"><ele>822</ele></trkpt>
      <trkpt lat="47.530926" lon="10.674453"><ele>822</ele></trkpt>
      <trkpt lat="47.531089" lon="10.674203"><ele>822</ele></trkpt>
      <trkpt lat="47.531539" lon="10.673479"><ele>822</ele></trkpt>
      <trkpt lat="47.531967" lon="10.672790"><ele>821</ele></trkpt>
      <trkpt lat="47.532018" lon="10.672709"><ele>821</ele></trkpt>
      <trkpt lat="47.532358" lon="10.672471"><ele>821</ele></trkpt>
      <trkpt lat="47.532809" lon="10.672173"><ele>821</ele></trkpt>
      <trkpt lat="47.533663" lon="10.671592"><ele>821</ele></trkpt>
      <trkpt lat="47.533786" lon="10.671534"><ele>821</ele></trkpt>
      <trkpt lat="47.533906" lon="10.671499"><ele>821</ele></trkpt>
      <trkpt lat="47.533996" lon="10.671488"><ele>821</ele></trkpt>
      <trkpt lat="47.534030" lon="10.671484"><ele>821</ele></trkpt>
      <trkpt lat="47.534139" lon="10.671478"><ele>821</ele></trkpt>
      <trkpt lat="47.534431" lon="10.671506"><ele>821</ele></trkpt>
      <trkpt lat="47.534633" lon="10.671520"><ele>821</ele></trkpt>
      <trkpt lat="47.534742" lon="10.671526"><ele>821</ele></trkpt>
      <trkpt lat="47.534991" lon="10.671532"><ele>821</ele></trkpt>
      <trkpt lat="47.535285" lon="10.671505"><ele>821</ele></trkpt>
      <trkpt lat="47.535475" lon="10.671474"><ele>821</ele></trkpt>
      <trkpt lat="47.535595" lon="10.671473"><ele>821</ele></trkpt>
      <trkpt lat="47.535648" lon="10.671490"><ele>821</ele></trkpt>
      <trkpt lat="47.535706" lon="10.671526"><ele>821</ele></trkpt>
      <trkpt lat="47.535857" lon="10.671715"><ele>821</ele></trkpt>
      <trkpt lat="47.535892" lon="10.671747"><ele>821</ele></trkpt>
      <trkpt lat="47.535925" lon="10.671768"><ele>821</ele></trkpt>
      <trkpt lat="47.535973" lon="10.671782"><ele>821</ele></trkpt>
      <trkpt lat="47.536002" lon="10.671781"><ele>821</ele></trkpt>
      <trkpt lat="47.536057" lon="10.671752"><ele>821</ele></trkpt>
      <trkpt lat="47.536095" lon="10.671714"><ele>821</ele></trkpt>
      <trkpt lat="47.536131" lon="10.671650"><ele>821</ele></trkpt>
      <trkpt lat="47.536152" lon="10.671587"><ele>821</ele></trkpt>
      <trkpt lat="47.536160" lon="10.671511"><ele>821</ele></trkpt>
      <trkpt lat="47.536064" lon="10.670338"><ele>821</ele></trkpt>
      <trkpt lat="47.536041" lon="10.670181"><ele>821</ele></trkpt>
      <trkpt lat="47.536010" lon="10.670074"><ele>821</ele></trkpt>
      <trkpt lat="47.535954" lon="10.669895"><ele>821</ele></trkpt>
      <trkpt lat="47.535941" lon="10.669846"><ele>821</ele></trkpt>
      <trkpt lat="47.535861" lon="10.669473"><ele>820</ele></trkpt>
      <trkpt lat="47.535853" lon="10.669433"><ele>820</ele></trkpt>
      <trkpt lat="47.535745" lon="10.668856"><ele>822</ele></trkpt>
      <trkpt lat="47.535711" lon="10.668752"><ele>822</ele></trkpt>
      <trkpt lat="47.535663" lon="10.668681"><ele>822</ele></trkpt>
      <trkpt lat="47.535512" lon="10.668537"><ele>822</ele></trkpt>
      <trkpt lat="47.535434" lon="10.668408"><ele>822</ele></trkpt>
      <trkpt lat="47.535417" lon="10.668239"><ele>822</ele></trkpt>
      <trkpt lat="47.535399" lon="10.667776"><ele>824</ele></trkpt>
      <trkpt lat="47.535542" lon="10.667620"><ele>824</ele></trkpt>
      <trkpt lat="47.535673" lon="10.667488"><ele>823</ele></trkpt>
      <trkpt lat="47.536033" lon="10.667090"><ele>823</ele></trkpt>
      <trkpt lat="47.536333" lon="10.666818"><ele>824</ele></trkpt>
      <trkpt lat="47.536579" lon="10.666655"><ele>825</ele></trkpt>
      <trkpt lat="47.536935" lon="10.666548"><ele>824</ele></trkpt>
      <trkpt lat="47.537173" lon="10.666534"><ele>827</ele></trkpt>
      <trkpt lat="47.537464" lon="10.666554"><ele>828</ele></trkpt>
      <trkpt lat="47.537945" lon="10.666693"><ele>826</ele></trkpt>
      <trkpt lat="47.538224" lon="10.666740"><ele>825</ele></trkpt>
      <trkpt lat="47.538446" lon="10.666727"><ele>824</ele></trkpt>
      <trkpt lat="47.538592" lon="10.666704"><ele>823</ele></trkpt>
      <trkpt lat="47.538759" lon="10.666646"><ele>823</ele></trkpt>
      <trkpt lat="47.538969" lon="10.666560"><ele>822</ele></trkpt>
      <trkpt lat="47.539068" lon="10.666510"><ele>822</ele></trkpt>
      <trkpt lat="47.539106" lon="10.666473"><ele>822</ele></trkpt>
      <trkpt lat="47.539430" lon="10.666250"><ele>820</ele></trkpt>
      <trkpt lat="47.539761" lon="10.665982"><ele>820</ele></trkpt>
      <trkpt lat="47.540084" lon="10.665695"><ele>820</ele></trkpt>
      <trkpt lat="47.540583" lon="10.665287"><ele>818</ele></trkpt>
      <trkpt lat="47.540826" lon="10.665124"><ele>818</ele></trkpt>
      <trkpt lat="47.541104" lon="10.664986"><ele>818</ele></trkpt>
      <trkpt lat="47.541366" lon="10.664916"><ele>818</ele></trkpt>
      <trkpt lat="47.541635" lon="10.664871"><ele>818</ele></trkpt>
      <trkpt lat="47.541928" lon="10.664803"><ele>820</ele></trkpt>
      <trkpt lat="47.542180" lon="10.664708"><ele>821</ele></trkpt>
      <trkpt lat="47.542558" lon="10.664502"><ele>820</ele></trkpt>
      <trkpt lat="47.542593" lon="10.664599"><ele>818</ele></trkpt>
      <trkpt lat="47.542770" lon="10.665091"><ele>818</ele></trkpt>
      <trkpt lat="47.542812" lon="10.665100"><ele>818</ele></trkpt>
      <trkpt lat="47.542923" lon="10.665022"><ele>818</ele></trkpt>
      <trkpt lat="47.542984" lon="10.664990"><ele>818</ele></trkpt>
      <trkpt lat="47.543032" lon="10.664989"><ele>818</ele></trkpt>
      <trkpt lat="47.543087" lon="10.664971"><ele>817</ele></trkpt>
      <trkpt lat="47.543147" lon="10.664900"><ele>816</ele></trkpt>
      <trkpt lat="47.543182" lon="10.664795"><ele>816</ele></trkpt>
      <trkpt lat="47.543238" lon="10.664682"><ele>816</ele></trkpt>
      <trkpt lat="47.543313" lon="10.664607"><ele>816</ele></trkpt>
      <trkpt lat="47.544109" lon="10.663671"><ele>813</ele></trkpt>
      <trkpt lat="47.544377" lon="10.663375"><ele>813</ele></trkpt>
      <trkpt lat="47.544581" lon="10.663187"><ele>813</ele></trkpt>
      <trkpt lat="47.544870" lon="10.662967"><ele>812</ele></trkpt>
      <trkpt lat="47.545900" lon="10.662255"><ele>815</ele></trkpt>
      <trkpt lat="47.545954" lon="10.662254"><ele>814</ele></trkpt>
      <trkpt lat="47.545988" lon="10.662285"><ele>814</ele></trkpt>
      <trkpt lat="47.546030" lon="10.662404"><ele>814</ele></trkpt>
      <trkpt lat="47.546053" lon="10.662476"><ele>813</ele></trkpt>
      <trkpt lat="47.546215" lon="10.662998"><ele>811</ele></trkpt>
      <trkpt lat="47.546224" lon="10.663087"><ele>813</ele></trkpt>
      <trkpt lat="47.546289" lon="10.663167"><ele>814</ele></trkpt>
      <trkpt lat="47.546496" lon="10.663541"><ele>818</ele></trkpt>
      <trkpt lat="47.546569" lon="10.663626"><ele>817</ele></trkpt>
      <trkpt lat="47.546690" lon="10.663688"><ele>815</ele></trkpt>
      <trkpt lat="47.546778" lon="10.663691"><ele>816</ele></trkpt>
      <trkpt lat="47.546867" lon="10.663660"><ele>815</ele></trkpt>
      <trkpt lat="47.546965" lon="10.663585"><ele>815</ele></trkpt>
      <trkpt lat="47.547240" lon="10.663203"><ele>816</ele></trkpt>
      <trkpt lat="47.547435" lon="10.662887"><ele>818</ele></trkpt>
      <trkpt lat="47.547553" lon="10.662625"><ele>820</ele></trkpt>
      <trkpt lat="47.547668" lon="10.662333"><ele>824</ele></trkpt>
      <trkpt lat="47.547761" lon="10.662076"><ele>820</ele></trkpt>
      <trkpt lat="47.547875" lon="10.661861"><ele>818</ele></trkpt>
      <trkpt lat="47.547866" lon="10.661784"><ele>815</ele></trkpt>
      <trkpt lat="47.547977" lon="10.661672"><ele>814</ele></trkpt>
      <trkpt lat="47.548251" lon="10.661503"><ele>812</ele></trkpt>
      <trkpt lat="47.548394" lon="10.661514"><ele>812</ele></trkpt>
      <trkpt lat="47.548586" lon="10.661584"><ele>812</ele></trkpt>
      <trkpt lat="47.548718" lon="10.661644"><ele>812</ele></trkpt>
      <trkpt lat="47.548823" lon="10.661725"><ele>813</ele></trkpt>
      <trkpt lat="47.548997" lon="10.661736"><ele>811</ele></trkpt>
      <trkpt lat="47.549285" lon="10.661897"><ele>810</ele></trkpt>
      <trkpt lat="47.549548" lon="10.662350"><ele>808</ele></trkpt>
      <trkpt lat="47.549572" lon="10.662516"><ele>808</ele></trkpt>
      <trkpt lat="47.549588" lon="10.662683"><ele>809</ele></trkpt>
      <trkpt lat="47.549695" lon="10.662956"><ele>807</ele></trkpt>
      <trkpt lat="47.549865" lon="10.663232"><ele>807</ele></trkpt>
      <trkpt lat="47.550208" lon="10.663640"><ele>806</ele></trkpt>
      <trkpt lat="47.550506" lon="10.664328"><ele>806</ele></trkpt>
      <trkpt lat="47.550665" lon="10.664711"><ele>806</ele></trkpt>
      <trkpt lat="47.550926" lon="10.665040"><ele>806</ele></trkpt>
      <trkpt lat="47.551036" lon="10.665425"><ele>806</ele></trkpt>
      <trkpt lat="47.550988" lon="10.666073"><ele>805</ele></trkpt>
      <trkpt lat="47.551026" lon="10.666306"><ele>805</ele></trkpt>
      <trkpt lat="47.551145" lon="10.666751"><ele>805</ele></trkpt>
      <trkpt lat="47.551305" lon="10.667657"><ele>804</ele></trkpt>
      <trkpt lat="47.551404" lon="10.668383"><ele>804</ele></trkpt>
      <trkpt lat="47.551400" lon="10.668416"><ele>804</ele></trkpt>
      <trkpt lat="47.551293" lon="10.668686"><ele>805</ele></trkpt>
      <trkpt lat="47.551157" lon="10.669004"><ele>804</ele></trkpt>
      <trkpt lat="47.551012" lon="10.669314"><ele>805</ele></trkpt>
      <trkpt lat="47.550950" lon="10.669410"><ele>805</ele></trkpt>
      <trkpt lat="47.550898" lon="10.669511"><ele>806</ele></trkpt>
      <trkpt lat="47.550895" lon="10.669646"><ele>806</ele></trkpt>
      <trkpt lat="47.550914" lon="10.669964"><ele>806</ele></trkpt>
      <trkpt lat="47.550939" lon="10.670153"><ele>806</ele></trkpt>
      <trkpt lat="47.551005" lon="10.670632"><ele>807</ele></trkpt>
      <trkpt lat="47.551380" lon="10.672727"><ele>806</ele></trkpt>
      <trkpt lat="47.551606" lon="10.673637"><ele>808</ele></trkpt>
      <trkpt lat="47.552070" lon="10.675207"><ele>810</ele></trkpt>
      <trkpt lat="47.553367" lon="10.679459"><ele>808</ele></trkpt>
      <trkpt lat="47.553476" lon="10.679791"><ele>808</ele></trkpt>
      <trkpt lat="47.553616" lon="10.680219"><ele>808</ele></trkpt>
      <trkpt lat="47.553635" lon="10.680398"><ele>807</ele></trkpt>
      <trkpt lat="47.553684" lon="10.680595"><ele>804</ele></trkpt>
      <trkpt lat="47.553777" lon="10.680889"><ele>801</ele></trkpt>
      <trkpt lat="47.553893" lon="10.681164"><ele>807</ele></trkpt>
      <trkpt lat="47.553928" lon="10.681225"><ele>807</ele></trkpt>
      <trkpt lat="47.554006" lon="10.681301"><ele>806</ele></trkpt>
      <trkpt lat="47.554174" lon="10.681565"><ele>806</ele></trkpt>
      <trkpt lat="47.554397" lon="10.681913"><ele>806</ele></trkpt>
      <trkpt lat="47.554634" lon="10.682198"><ele>805</ele></trkpt>
      <trkpt lat="47.555149" lon="10.682936"><ele>803</ele></trkpt>
      <trkpt lat="47.555581" lon="10.684136"><ele>804</ele></trkpt>
      <trkpt lat="47.555673" lon="10.685176"><ele>804</ele></trkpt>
      <trkpt lat="47.555697" lon="10.685681"><ele>803</ele></trkpt>
      <trkpt lat="47.555865" lon="10.686097"><ele>804</ele></trkpt>
      <trkpt lat="47.555865" lon="10.686244"><ele>805</ele></trkpt>
      <trkpt lat="47.555954" lon="10.686405"><ele>805</ele></trkpt>
      <trkpt lat="47.556145" lon="10.686746"><ele>806</ele></trkpt>
      <trkpt lat="47.556481" lon="10.687342"><ele>806</ele></trkpt>
      <trkpt lat="47.556510" lon="10.687443"><ele>806</ele></trkpt>
      <trkpt lat="47.556574" lon="10.687662"><ele>806</ele></trkpt>
      <trkpt lat="47.556629" lon="10.687825"><ele>806</ele></trkpt>
      <trkpt lat="47.556923" lon="10.688623"><ele>807</ele></trkpt>
      <trkpt lat="47.556967" lon="10.688657"><ele>807</ele></trkpt>
      <trkpt lat="47.556995" lon="10.688739"><ele>807</ele></trkpt>
      <trkpt lat="47.557081" lon="10.689051"><ele>809</ele></trkpt>
      <trkpt lat="47.557229" lon="10.689585"><ele>808</ele></trkpt>
      <trkpt lat="47.557457" lon="10.690070"><ele>806</ele></trkpt>
      <trkpt lat="47.557494" lon="10.690199"><ele>805</ele></trkpt>
      <trkpt lat="47.557508" lon="10.690321"><ele>805</ele></trkpt>
      <trkpt lat="47.557525" lon="10.690766"><ele>804</ele></trkpt>
      <trkpt lat="47.557480" lon="10.691222"><ele>805</ele></trkpt>
      <trkpt lat="47.557466" lon="10.691534"><ele>804</ele></trkpt>
      <trkpt lat="47.557414" lon="10.691793"><ele>804</ele></trkpt>
      <trkpt lat="47.557387" lon="10.691843"><ele>805</ele></trkpt>
      <trkpt lat="47.557404" lon="10.691934"><ele>804</ele></trkpt>
      <trkpt lat="47.557476" lon="10.692170"><ele>806</ele></trkpt>
      <trkpt lat="47.557673" lon="10.692754"><ele>806</ele></trkpt>
      <trkpt lat="47.557813" lon="10.693144"><ele>806</ele></trkpt>
      <trkpt lat="47.558061" lon="10.693811"><ele>806</ele></trkpt>
      <trkpt lat="47.558149" lon="10.693961"><ele>805</ele></trkpt>
      <trkpt lat="47.558254" lon="10.694381"><ele>804</ele></trkpt>
      <trkpt lat="47.558385" lon="10.694659"><ele>805</ele></trkpt>
      <trkpt lat="47.558422" lon="10.694695"><ele>805</ele></trkpt>
      <trkpt lat="47.558701" lon="10.694835"><ele>803</ele></trkpt>
      <trkpt lat="47.558911" lon="10.695032"><ele>803</ele></trkpt>
      <trkpt lat="47.559600" lon="10.695924"><ele>802</ele></trkpt>
      <trkpt lat="47.559700" lon="10.696018"><ele>802</ele></trkpt>
      <trkpt lat="47.559764" lon="10.696078"><ele>802</ele></trkpt>
      <trkpt lat="47.559988" lon="10.696250"><ele>800</ele></trkpt>
      <trkpt lat="47.560237" lon="10.696387"><ele>801</ele></trkpt>
      <trkpt lat="47.560432" lon="10.696462"><ele>801</ele></trkpt>
      <trkpt lat="47.560577" lon="10.696477"><ele>801</ele></trkpt>
      <trkpt lat="47.560690" lon="10.696438"><ele>802</ele></trkpt>
      <trkpt lat="47.560838" lon="10.696202"><ele>802</ele></trkpt>
      <trkpt lat="47.560965" lon="10.695881"><ele>804</ele></trkpt>
      <trkpt lat="47.561108" lon="10.695707"><ele>803</ele></trkpt>
      <trkpt lat="47.561566" lon="10.695620"><ele>808</ele></trkpt>
      <trkpt lat="47.561822" lon="10.695456"><ele>808</ele></trkpt>
      <trkpt lat="47.561860" lon="10.695413"><ele>808</ele></trkpt>
      <trkpt lat="47.561887" lon="10.695345"><ele>808</ele></trkpt>
      <trkpt lat="47.561916" lon="10.695270"><ele>808</ele></trkpt>
      <trkpt lat="47.561934" lon="10.695240"><ele>808</ele></trkpt>
      <trkpt lat="47.561962" lon="10.695225"><ele>808</ele></trkpt>
      <trkpt lat="47.562058" lon="10.695199"><ele>806</ele></trkpt>
      <trkpt lat="47.562103" lon="10.695208"><ele>806</ele></trkpt>
      <trkpt lat="47.562162" lon="10.695231"><ele>806</ele></trkpt>
      <trkpt lat="47.562227" lon="10.695220"><ele>805</ele></trkpt>
      <trkpt lat="47.562414" lon="10.695132"><ele>806</ele></trkpt>
      <trkpt lat="47.562429" lon="10.695109"><ele>806</ele></trkpt>
      <trkpt lat="47.562449" lon="10.695037"><ele>804</ele></trkpt>
      <trkpt lat="47.562461" lon="10.695013"><ele>804</ele></trkpt>
      <trkpt lat="47.562476" lon="10.695002"><ele>805</ele></trkpt>
      <trkpt lat="47.562547" lon="10.694977"><ele>806</ele></trkpt>
      <trkpt lat="47.562571" lon="10.694978"><ele>806</ele></trkpt>
      <trkpt lat="47.562622" lon="10.694998"><ele>808</ele></trkpt>
      <trkpt lat="47.562751" lon="10.695044"><ele>810</ele></trkpt>
      <trkpt lat="47.562775" lon="10.695060"><ele>810</ele></trkpt>
      <trkpt lat="47.562816" lon="10.695131"><ele>807</ele></trkpt>
      <trkpt lat="47.562838" lon="10.695164"><ele>806</ele></trkpt>
      <trkpt lat="47.562863" lon="10.695186"><ele>805</ele></trkpt>
      <trkpt lat="47.562923" lon="10.695238"><ele>803</ele></trkpt>
      <trkpt lat="47.562974" lon="10.695296"><ele>802</ele></trkpt>
      <trkpt lat="47.563023" lon="10.695390"><ele>803</ele></trkpt>
      <trkpt lat="47.563055" lon="10.695508"><ele>804</ele></trkpt>
      <trkpt lat="47.563064" lon="10.695610"><ele>804</ele></trkpt>
      <trkpt lat="47.563062" lon="10.695678"><ele>804</ele></trkpt>
      <trkpt lat="47.563010" lon="10.696109"><ele>803</ele></trkpt>
      <trkpt lat="47.563005" lon="10.696198"><ele>804</ele></trkpt>
      <trkpt lat="47.563023" lon="10.696341"><ele>803</ele></trkpt>
      <trkpt lat="47.563043" lon="10.696400"><ele>802</ele></trkpt>
      <trkpt lat="47.563068" lon="10.696457"><ele>802</ele></trkpt>
      <trkpt lat="47.563314" lon="10.696911"><ele>802</ele></trkpt>
      <trkpt lat="47.563623" lon="10.697483"><ele>801</ele></trkpt>
      <trkpt lat="47.563713" lon="10.697665"><ele>801</ele></trkpt>
      <trkpt lat="47.563911" lon="10.698122"><ele>801</ele></trkpt>
      <trkpt lat="47.564015" lon="10.698340"><ele>799</ele></trkpt>
      <trkpt lat="47.564248" lon="10.698729"><ele>798</ele></trkpt>
      <trkpt lat="47.564733" lon="10.699405"><ele>794</ele></trkpt>
      <trkpt lat="47.564870" lon="10.699616"><ele>795</ele></trkpt>
      <trkpt lat="47.565048" lon="10.699931"><ele>793</ele></trkpt>
      <trkpt lat="47.565261" lon="10.700262"><ele>793</ele></trkpt>
      <trkpt lat="47.565321" lon="10.700435"><ele>792</ele></trkpt>
      <trkpt lat="47.565369" lon="10.700413"><ele>792</ele></trkpt>
      <trkpt lat="47.565900" lon="10.700191"><ele>794</ele></trkpt>
      <trkpt lat="47.565984" lon="10.700171"><ele>794</ele></trkpt>
      <trkpt lat="47.566092" lon="10.700163"><ele>794</ele></trkpt>
      <trkpt lat="47.566279" lon="10.700180"><ele>794</ele></trkpt>
      <trkpt lat="47.566405" lon="10.700214"><ele>794</ele></trkpt>
      <trkpt lat="47.566463" lon="10.700453"><ele>794</ele></trkpt>
      <trkpt lat="47.566498" lon="10.700560"><ele>794</ele></trkpt>
      <trkpt lat="47.566848" lon="10.701036"><ele>794</ele></trkpt>
      <trkpt lat="47.566930" lon="10.701186"><ele>793</ele></trkpt>
      <trkpt lat="47.567034" lon="10.701428"><ele>794</ele></trkpt>
      <trkpt lat="47.567239" lon="10.701950"><ele>793</ele></trkpt>
      <trkpt lat="47.567294" lon="10.702004"><ele>794</ele></trkpt>
      <trkpt lat="47.567443" lon="10.702451"><ele>798</ele></trkpt>
      <trkpt lat="47.567524" lon="10.702628"><ele>800</ele></trkpt>
      <trkpt lat="47.567545" lon="10.702608"><ele>799</ele></trkpt>
      <trkpt lat="47.567580" lon="10.702599"><ele>800</ele></trkpt>
      <trkpt lat="47.567979" lon="10.702654"><ele>800</ele></trkpt>
      <trkpt lat="47.568252" lon="10.702760"><ele>800</ele></trkpt>
      <trkpt lat="47.568387" lon="10.702832"><ele>800</ele></trkpt>
      <trkpt lat="47.568613" lon="10.702952"><ele>799</ele></trkpt>
      <trkpt lat="47.568630" lon="10.702960"><ele>799</ele></trkpt>
      <trkpt lat="47.568759" lon="10.703022"><ele>799</ele></trkpt>
      <trkpt lat="47.569305" lon="10.702972"><ele>799</ele></trkpt>
      <trkpt lat="47.569315" lon="10.702733"><ele>799</ele></trkpt>
      <trkpt lat="47.569376" lon="10.701820"><ele>800</ele></trkpt>
      <trkpt lat="47.569367" lon="10.701740"><ele>800</ele></trkpt>
      <trkpt lat="47.569394" lon="10.701609"><ele>800</ele></trkpt>
      <trkpt lat="47.569408" lon="10.701573"><ele>800</ele></trkpt>
      <trkpt lat="47.569479" lon="10.701631"><ele>800</ele></trkpt>
      <trkpt lat="47.569645" lon="10.701039"><ele>800</ele></trkpt>
      <trkpt lat="47.569657" lon="10.700990"><ele>800</ele></trkpt>
      <trkpt lat="47.569650" lon="10.700967"><ele>800</ele></trkpt>
      <trkpt lat="47.569635" lon="10.700948"><ele>800</ele></trkpt>
      <trkpt lat="47.569647" lon="10.700852"><ele>800</ele></trkpt>
      <trkpt lat="47.569672" lon="10.700814"><ele>800</ele></trkpt>
      <trkpt lat="47.569698" lon="10.700803"><ele>800</ele></trkpt>
      <trkpt lat="47.569749" lon="10.700589"><ele>799</ele></trkpt>
      <trkpt lat="47.569764" lon="10.700517"><ele>799</ele></trkpt>
      <trkpt lat="47.569799" lon="10.700537"><ele>799</ele></trkpt>
      <trkpt lat="47.570816" lon="10.701091"><ele>799</ele></trkpt>
      <trkpt lat="47.570959" lon="10.701165"><ele>799</ele></trkpt>
      <trkpt lat="47.570816" lon="10.701091"><ele>799</ele></trkpt>
      <trkpt lat="47.569799" lon="10.700537"><ele>799</ele></trkpt>
      <trkpt lat="47.569764" lon="10.700517"><ele>799</ele></trkpt>
      <trkpt lat="47.569737" lon="10.700500"><ele>799</ele></trkpt>
      <trkpt lat="47.569697" lon="10.700476"><ele>799</ele></trkpt>
      <trkpt lat="47.569653" lon="10.700449"><ele>799</ele></trkpt>
      <trkpt lat="47.569654" lon="10.700241"><ele>799</ele></trkpt>
      <trkpt lat="47.569659" lon="10.700193"><ele>799</ele></trkpt>
      <trkpt lat="47.569705" lon="10.699885"><ele>799</ele></trkpt>
      <trkpt lat="47.569742" lon="10.699678"><ele>799</ele></trkpt>
      <trkpt lat="47.569752" lon="10.699633"><ele>799</ele></trkpt>
      <trkpt lat="47.569770" lon="10.699608"><ele>799</ele></trkpt>
      <trkpt lat="47.569784" lon="10.699556"><ele>799</ele></trkpt>
      <trkpt lat="47.569835" lon="10.699464"><ele>799</ele></trkpt>
      <trkpt lat="47.569862" lon="10.699377"><ele>799</ele></trkpt>
      <trkpt lat="47.569874" lon="10.699306"><ele>799</ele></trkpt>
      <trkpt lat="47.570061" lon="10.698479"><ele>798</ele></trkpt>
      <trkpt lat="47.570093" lon="10.698430"><ele>798</ele></trkpt>
      <trkpt lat="47.570128" lon="10.698406"><ele>798</ele></trkpt>
      <trkpt lat="47.570071" lon="10.698268"><ele>798</ele></trkpt>
      <trkpt lat="47.569927" lon="10.698186"><ele>798</ele></trkpt>
      <trkpt lat="47.569838" lon="10.698136"><ele>798</ele></trkpt>
      <trkpt lat="47.569608" lon="10.697655"><ele>798</ele></trkpt>
      <trkpt lat="47.569496" lon="10.697564"><ele>798</ele></trkpt>
      <trkpt lat="47.569330" lon="10.697446"><ele>798</ele></trkpt>
      <trkpt lat="47.569327" lon="10.697413"><ele>798</ele></trkpt>
      <trkpt lat="47.569310" lon="10.697360"><ele>798</ele></trkpt>
      <trkpt lat="47.569269" lon="10.697314"><ele>798</ele></trkpt>
      <trkpt lat="47.569248" lon="10.697305"><ele>798</ele></trkpt>
      <trkpt lat="47.569204" lon="10.697309"><ele>798</ele></trkpt>
      <trkpt lat="47.569166" lon="10.697342"><ele>798</ele></trkpt>
      <trkpt lat="47.569151" lon="10.697368"><ele>798</ele></trkpt>
      <trkpt lat="47.569133" lon="10.697346"><ele>798</ele></trkpt>
      <trkpt lat="47.569067" lon="10.697237"><ele>798</ele></trkpt>
      <trkpt lat="47.568499" lon="10.695915"><ele>797</ele></trkpt>
      <trkpt lat="47.568429" lon="10.695604"><ele>798</ele></trkpt>
      <trkpt lat="47.568377" lon="10.695412"><ele>797</ele></trkpt>
      <trkpt lat="47.568329" lon="10.695322"><ele>797</ele></trkpt>
      <trkpt lat="47.568269" lon="10.695257"><ele>797</ele></trkpt>
      <trkpt lat="47.568117" lon="10.695164"><ele>798</ele></trkpt>
      <trkpt lat="47.568066" lon="10.695099"><ele>798</ele></trkpt>
      <trkpt lat="47.567993" lon="10.695007"><ele>798</ele></trkpt>
      <trkpt lat="47.567977" lon="10.694953"><ele>798</ele></trkpt>
      <trkpt lat="47.567961" lon="10.694926"><ele>798</ele></trkpt>
      <trkpt lat="47.567941" lon="10.694905"><ele>798</ele></trkpt>
      <trkpt lat="47.567903" lon="10.694888"><ele>798</ele></trkpt>
      <trkpt lat="47.567859" lon="10.694829"><ele>797</ele></trkpt>
      <trkpt lat="47.567809" lon="10.694688"><ele>797</ele></trkpt>
      <trkpt lat="47.567821" lon="10.694278"><ele>797</ele></trkpt>
      <trkpt lat="47.567871" lon="10.694284"><ele>797</ele></trkpt>
      <trkpt lat="47.567923" lon="10.693616"><ele>796</ele></trkpt>
      <trkpt lat="47.568005" lon="10.692917"><ele>796</ele></trkpt>
      <trkpt lat="47.568133" lon="10.691788"><ele>795</ele></trkpt>
      <trkpt lat="47.568238" lon="10.690634"><ele>795</ele></trkpt>
      <trkpt lat="47.568306" lon="10.690090"><ele>795</ele></trkpt>
      <trkpt lat="47.568365" lon="10.689012"><ele>795</ele></trkpt>
      <trkpt lat="47.568393" lon="10.688395"><ele>795</ele></trkpt>
      <trkpt lat="47.568405" lon="10.687799"><ele>794</ele></trkpt>
      <trkpt lat="47.568333" lon="10.686468"><ele>793</ele></trkpt>
      <trkpt lat="47.568271" lon="10.685019"><ele>793</ele></trkpt>
      <trkpt lat="47.568252" lon="10.684449"><ele>793</ele></trkpt>
      <trkpt lat="47.568239" lon="10.684066"><ele>793</ele></trkpt>
      <trkpt lat="47.568228" lon="10.683730"><ele>793</ele></trkpt>
      <trkpt lat="47.568223" lon="10.683575"><ele>793</ele></trkpt>
      <trkpt lat="47.568216" lon="10.683360"><ele>793</ele></trkpt>
      <trkpt lat="47.568215" lon="10.681981"><ele>792</ele></trkpt>
      <trkpt lat="47.568370" lon="10.676111"><ele>790</ele></trkpt>
      <trkpt lat="47.568464" lon="10.675358"><ele>790</ele></trkpt>
      <trkpt lat="47.568492" lon="10.675231"><ele>790</ele></trkpt>
      <trkpt lat="47.568499" lon="10.675048"><ele>789</ele></trkpt>
      <trkpt lat="47.568503" lon="10.674909"><ele>789</ele></trkpt>
      <trkpt lat="47.568640" lon="10.674298"><ele>789</ele></trkpt>
      <trkpt lat="47.568759" lon="10.673436"><ele>789</ele></trkpt>
      <trkpt lat="47.568823" lon="10.672836"><ele>789</ele></trkpt>
      <trkpt lat="47.568956" lon="10.671269"><ele>789</ele></trkpt>
      <trkpt lat="47.569024" lon="10.670390"><ele>788</ele></trkpt>
      <trkpt lat="47.569052" lon="10.669466"><ele>788</ele></trkpt>
      <trkpt lat="47.569057" lon="10.669265"><ele>788</ele></trkpt>
      <trkpt lat="47.569109" lon="10.668621"><ele>788</ele></trkpt>
      <trkpt lat="47.569166" lon="10.668318"><ele>788</ele></trkpt>
      <trkpt lat="47.569326" lon="10.667595"><ele>788</ele></trkpt>
      <trkpt lat="47.569497" lon="10.667096"><ele>788</ele></trkpt>
      <trkpt lat="47.569712" lon="10.666638"><ele>789</ele></trkpt>
      <trkpt lat="47.569775" lon="10.666625"><ele>789</ele></trkpt>
      <trkpt lat="47.569999" lon="10.666554"><ele>788</ele></trkpt>
      <trkpt lat="47.570016" lon="10.666468"><ele>788</ele></trkpt>
      <trkpt lat="47.570033" lon="10.666415"><ele>789</ele></trkpt>
      <trkpt lat="47.570057" lon="10.666358"><ele>789</ele></trkpt>
      <trkpt lat="47.570054" lon="10.666274"><ele>789</ele></trkpt>
      <trkpt lat="47.570034" lon="10.666199"><ele>789</ele></trkpt>
      <trkpt lat="47.570050" lon="10.666119"><ele>789</ele></trkpt>
      <trkpt lat="47.570139" lon="10.665990"><ele>789</ele></trkpt>
      <trkpt lat="47.570216" lon="10.665993"><ele>789</ele></trkpt>
      <trkpt lat="47.570387" lon="10.665713"><ele>789</ele></trkpt>
      <trkpt lat="47.570510" lon="10.665581"><ele>789</ele></trkpt>
      <trkpt lat="47.570871" lon="10.665347"><ele>789</ele></trkpt>
      <trkpt lat="47.571199" lon="10.665184"><ele>788</ele></trkpt>
      <trkpt lat="47.571327" lon="10.665140"><ele>788</ele></trkpt>
      <trkpt lat="47.571295" lon="10.665008"><ele>790</ele></trkpt>
      <trkpt lat="47.571254" lon="10.664836"><ele>789</ele></trkpt>
      <trkpt lat="47.571225" lon="10.664719"><ele>788</ele></trkpt>
      <trkpt lat="47.571743" lon="10.664508"><ele>789</ele></trkpt>
      <trkpt lat="47.573608" lon="10.663515"><ele>792</ele></trkpt>
      <trkpt lat="47.573822" lon="10.663371"><ele>792</ele></trkpt>
      <trkpt lat="47.573886" lon="10.663279"><ele>793</ele></trkpt>
      <trkpt lat="47.573903" lon="10.663191"><ele>793</ele></trkpt>
      <trkpt lat="47.573898" lon="10.662969"><ele>794</ele></trkpt>
      <trkpt lat="47.573784" lon="10.661843"><ele>792</ele></trkpt>
      <trkpt lat="47.573640" lon="10.660464"><ele>792</ele></trkpt>
      <trkpt lat="47.573539" lon="10.659428"><ele>793</ele></trkpt>
      <trkpt lat="47.573460" lon="10.658045"><ele>790</ele></trkpt>
      <trkpt lat="47.573379" lon="10.656887"><ele>789</ele></trkpt>
      <trkpt lat="47.573256" lon="10.655973"><ele>789</ele></trkpt>
      <trkpt lat="47.573226" lon="10.655595"><ele>788</ele></trkpt>
      <trkpt lat="47.573228" lon="10.655465"><ele>788</ele></trkpt>
      <trkpt lat="47.572480" lon="10.655458"><ele>788</ele></trkpt>
      <trkpt lat="47.572122" lon="10.655427"><ele>788</ele></trkpt>
      <trkpt lat="47.572109" lon="10.655151"><ele>787</ele></trkpt>
      <trkpt lat="47.572097" lon="10.655071"><ele>787</ele></trkpt>
      <trkpt lat="47.572012" lon="10.654772"><ele>788</ele></trkpt>
      <trkpt lat="47.571979" lon="10.654436"><ele>787</ele></trkpt>
      <trkpt lat="47.571920" lon="10.653707"><ele>788</ele></trkpt>
      <trkpt lat="47.571736" lon="10.652856"><ele>787</ele></trkpt>
      <trkpt lat="47.571740" lon="10.652786"><ele>787</ele></trkpt>
      <trkpt lat="47.571763" lon="10.652732"><ele>787</ele></trkpt>
      <trkpt lat="47.571896" lon="10.652620"><ele>788</ele></trkpt>
      <trkpt lat="47.572063" lon="10.652427"><ele>788</ele></trkpt>
      <trkpt lat="47.572222" lon="10.652259"><ele>788</ele></trkpt>
      <trkpt lat="47.572261" lon="10.652191"><ele>788</ele></trkpt>
      <trkpt lat="47.572275" lon="10.652102"><ele>788</ele></trkpt>
      <trkpt lat="47.572230" lon="10.651676"><ele>788</ele></trkpt>
      <trkpt lat="47.572205" lon="10.651336"><ele>788</ele></trkpt>
      <trkpt lat="47.572164" lon="10.650967"><ele>788</ele></trkpt>
      <trkpt lat="47.572159" lon="10.650744"><ele>788</ele></trkpt>
      <trkpt lat="47.572179" lon="10.650595"><ele>788</ele></trkpt>
      <trkpt lat="47.572232" lon="10.650465"><ele>788</ele></trkpt>
      <trkpt lat="47.572284" lon="10.650373"><ele>788</ele></trkpt>
      <trkpt lat="47.572409" lon="10.649963"><ele>788</ele></trkpt>
      <trkpt lat="47.572478" lon="10.649803"><ele>788</ele></trkpt>
      <trkpt lat="47.572565" lon="10.649656"><ele>788</ele></trkpt>
      <trkpt lat="47.572613" lon="10.649533"><ele>788</ele></trkpt>
      <trkpt lat="47.572640" lon="10.649379"><ele>788</ele></trkpt>
      <trkpt lat="47.572655" lon="10.649162"><ele>788</ele></trkpt>
      <trkpt lat="47.572656" lon="10.648910"><ele>788</ele></trkpt>
      <trkpt lat="47.572640" lon="10.648670"><ele>788</ele></trkpt>
      <trkpt lat="47.572552" lon="10.647726"><ele>788</ele></trkpt>
      <trkpt lat="47.572549" lon="10.647289"><ele>788</ele></trkpt>
      <trkpt lat="47.572554" lon="10.647057"><ele>788</ele></trkpt>
      <trkpt lat="47.572579" lon="10.646885"><ele>788</ele></trkpt>
      <trkpt lat="47.572619" lon="10.646710"><ele>788</ele></trkpt>
      <trkpt lat="47.572694" lon="10.646578"><ele>788</ele></trkpt>
      <trkpt lat="47.572793" lon="10.646457"><ele>788</ele></trkpt>
      <trkpt lat="47.572855" lon="10.646338"><ele>788</ele></trkpt>
      <trkpt lat="47.572947" lon="10.646229"><ele>788</ele></trkpt>
      <trkpt lat="47.573045" lon="10.646158"><ele>788</ele></trkpt>
      <trkpt lat="47.573189" lon="10.646079"><ele>788</ele></trkpt>
      <trkpt lat="47.573337" lon="10.645918"><ele>788</ele></trkpt>
      <trkpt lat="47.573849" lon="10.645295"><ele>789</ele></trkpt>
      <trkpt lat="47.574025" lon="10.645061"><ele>789</ele></trkpt>
      <trkpt lat="47.574113" lon="10.644749"><ele>788</ele></trkpt>
      <trkpt lat="47.574221" lon="10.644510"><ele>788</ele></trkpt>
      <trkpt lat="47.574283" lon="10.644309"><ele>788</ele></trkpt>
      <trkpt lat="47.574282" lon="10.643781"><ele>788</ele></trkpt>
      <trkpt lat="47.574282" lon="10.643682"><ele>788</ele></trkpt>
      <trkpt lat="47.574281" lon="10.643274"><ele>788</ele></trkpt>
      <trkpt lat="47.574304" lon="10.643120"><ele>788</ele></trkpt>
      <trkpt lat="47.574410" lon="10.642681"><ele>788</ele></trkpt>
      <trkpt lat="47.574448" lon="10.642389"><ele>788</ele></trkpt>
      <trkpt lat="47.574456" lon="10.642167"><ele>788</ele></trkpt>
      <trkpt lat="47.574456" lon="10.641901"><ele>788</ele></trkpt>
      <trkpt lat="47.574437" lon="10.641617"><ele>788</ele></trkpt>
      <trkpt lat="47.574395" lon="10.641311"><ele>789</ele></trkpt>
      <trkpt lat="47.574307" lon="10.641012"><ele>790</ele></trkpt>
      <trkpt lat="47.574216" lon="10.640778"><ele>790</ele></trkpt>
      <trkpt lat="47.574172" lon="10.640695"><ele>790</ele></trkpt>
      <trkpt lat="47.573978" lon="10.640441"><ele>790</ele></trkpt>
      <trkpt lat="47.573879" lon="10.640325"><ele>790</ele></trkpt>
      <trkpt lat="47.573755" lon="10.640270"><ele>790</ele></trkpt>
      <trkpt lat="47.573688" lon="10.640220"><ele>790</ele></trkpt>
      <trkpt lat="47.573606" lon="10.640112"><ele>790</ele></trkpt>
      <trkpt lat="47.573540" lon="10.640047"><ele>790</ele></trkpt>
      <trkpt lat="47.573429" lon="10.640029"><ele>790</ele></trkpt>
      <trkpt lat="47.573118" lon="10.640032"><ele>789</ele></trkpt>
      <trkpt lat="47.573076" lon="10.640020"><ele>789</ele></trkpt>
      <trkpt lat="47.573045" lon="10.639988"><ele>789</ele></trkpt>
      <trkpt lat="47.573019" lon="10.639882"><ele>789</ele></trkpt>
      <trkpt lat="47.573012" lon="10.639714"><ele>790</ele></trkpt>
      <trkpt lat="47.573084" lon="10.639075"><ele>790</ele></trkpt>
      <trkpt lat="47.573189" lon="10.638520"><ele>790</ele></trkpt>
      <trkpt lat="47.573274" lon="10.638026"><ele>789</ele></trkpt>
      <trkpt lat="47.573299" lon="10.637645"><ele>789</ele></trkpt>
      <trkpt lat="47.573345" lon="10.637296"><ele>788</ele></trkpt>
      <trkpt lat="47.573440" lon="10.636962"><ele>789</ele></trkpt>
      <trkpt lat="47.573535" lon="10.636669"><ele>789</ele></trkpt>
      <trkpt lat="47.573592" lon="10.636550"><ele>789</ele></trkpt>
      <trkpt lat="47.573714" lon="10.636356"><ele>790</ele></trkpt>
      <trkpt lat="47.573778" lon="10.636200"><ele>789</ele></trkpt>
      <trkpt lat="47.573912" lon="10.636004"><ele>788</ele></trkpt>
      <trkpt lat="47.574152" lon="10.635695"><ele>789</ele></trkpt>
      <trkpt lat="47.574386" lon="10.635471"><ele>788</ele></trkpt>
      <trkpt lat="47.574574" lon="10.635348"><ele>789</ele></trkpt>
      <trkpt lat="47.574633" lon="10.635291"><ele>788</ele></trkpt>
      <trkpt lat="47.574715" lon="10.635148"><ele>788</ele></trkpt>
      <trkpt lat="47.574947" lon="10.634841"><ele>788</ele></trkpt>
      <trkpt lat="47.575105" lon="10.634613"><ele>789</ele></trkpt>
      <trkpt lat="47.575263" lon="10.634365"><ele>788</ele></trkpt>
      <trkpt lat="47.575331" lon="10.634239"><ele>788</ele></trkpt>
      <trkpt lat="47.575419" lon="10.634009"><ele>788</ele></trkpt>
      <trkpt lat="47.575500" lon="10.633861"><ele>788</ele></trkpt>
      <trkpt lat="47.575567" lon="10.633757"><ele>788</ele></trkpt>
      <trkpt lat="47.575627" lon="10.633702"><ele>788</ele></trkpt>
      <trkpt lat="47.575732" lon="10.633625"><ele>788</ele></trkpt>
      <trkpt lat="47.576015" lon="10.633282"><ele>788</ele></trkpt>
      <trkpt lat="47.576072" lon="10.633169"><ele>788</ele></trkpt>
      <trkpt lat="47.576094" lon="10.633051"><ele>788</ele></trkpt>
      <trkpt lat="47.576100" lon="10.632934"><ele>788</ele></trkpt>
      <trkpt lat="47.576096" lon="10.632765"><ele>788</ele></trkpt>
      <trkpt lat="47.576062" lon="10.632566"><ele>788</ele></trkpt>
      <trkpt lat="47.576034" lon="10.632320"><ele>788</ele></trkpt>
      <trkpt lat="47.576025" lon="10.632172"><ele>788</ele></trkpt>
      <trkpt lat="47.576043" lon="10.632052"><ele>788</ele></trkpt>
      <trkpt lat="47.576208" lon="10.631443"><ele>788</ele></trkpt>
      <trkpt lat="47.576229" lon="10.631154"><ele>788</ele></trkpt>
      <trkpt lat="47.576225" lon="10.630997"><ele>788</ele></trkpt>
      <trkpt lat="47.576208" lon="10.630856"><ele>788</ele></trkpt>
      <trkpt lat="47.576194" lon="10.630658"><ele>788</ele></trkpt>
      <trkpt lat="47.576200" lon="10.630460"><ele>788</ele></trkpt>
      <trkpt lat="47.576230" lon="10.630320"><ele>788</ele></trkpt>
      <trkpt lat="47.576261" lon="10.630235"><ele>788</ele></trkpt>
      <trkpt lat="47.576292" lon="10.630174"><ele>788</ele></trkpt>
      <trkpt lat="47.576389" lon="10.630043"><ele>788</ele></trkpt>
      <trkpt lat="47.576423" lon="10.629968"><ele>788</ele></trkpt>
      <trkpt lat="47.576443" lon="10.629842"><ele>788</ele></trkpt>
      <trkpt lat="47.576444" lon="10.629731"><ele>788</ele></trkpt>
      <trkpt lat="47.576426" lon="10.629645"><ele>788</ele></trkpt>
      <trkpt lat="47.576308" lon="10.629394"><ele>788</ele></trkpt>
      <trkpt lat="47.576289" lon="10.629310"><ele>788</ele></trkpt>
      <trkpt lat="47.576284" lon="10.629230"><ele>788</ele></trkpt>
      <trkpt lat="47.576305" lon="10.629124"><ele>788</ele></trkpt>
      <trkpt lat="47.576337" lon="10.629030"><ele>788</ele></trkpt>
      <trkpt lat="47.576487" lon="10.628750"><ele>788</ele></trkpt>
      <trkpt lat="47.576557" lon="10.628538"><ele>788</ele></trkpt>
      <trkpt lat="47.576619" lon="10.628324"><ele>788</ele></trkpt>
      <trkpt lat="47.576693" lon="10.628191"><ele>788</ele></trkpt>
      <trkpt lat="47.576895" lon="10.627988"><ele>788</ele></trkpt>
      <trkpt lat="47.576920" lon="10.627946"><ele>788</ele></trkpt>
      <trkpt lat="47.576965" lon="10.627832"><ele>788</ele></trkpt>
      <trkpt lat="47.576979" lon="10.627760"><ele>788</ele></trkpt>
      <trkpt lat="47.576972" lon="10.627652"><ele>788</ele></trkpt>
      <trkpt lat="47.576917" lon="10.627460"><ele>788</ele></trkpt>
      <trkpt lat="47.576910" lon="10.627388"><ele>788</ele></trkpt>
      <trkpt lat="47.576916" lon="10.627328"><ele>788</ele></trkpt>
      <trkpt lat="47.576967" lon="10.627235"><ele>788</ele></trkpt>
      <trkpt lat="47.577040" lon="10.627078"><ele>788</ele></trkpt>
      <trkpt lat="47.577091" lon="10.627001"><ele>788</ele></trkpt>
      <trkpt lat="47.577114" lon="10.626854"><ele>788</ele></trkpt>
      <trkpt lat="47.577154" lon="10.626725"><ele>788</ele></trkpt>
      <trkpt lat="47.577090" lon="10.626677"><ele>788</ele></trkpt>
      <trkpt lat="47.577036" lon="10.626629"><ele>788</ele></trkpt>
      <trkpt lat="47.576952" lon="10.626519"><ele>788</ele></trkpt>
      <trkpt lat="47.576986" lon="10.626492"><ele>788</ele></trkpt>
      <trkpt lat="47.577346" lon="10.626111"><ele>789</ele></trkpt>
      <trkpt lat="47.577444" lon="10.626038"><ele>790</ele></trkpt>
      <trkpt lat="47.577366" lon="10.625768"><ele>789</ele></trkpt>
      <trkpt lat="47.577410" lon="10.625737"><ele>789</ele></trkpt>
      <trkpt lat="47.577245" lon="10.625136"><ele>791</ele></trkpt>
      <trkpt lat="47.577214" lon="10.624968"><ele>792</ele></trkpt>
      <trkpt lat="47.577162" lon="10.624673"><ele>792</ele></trkpt>
      <trkpt lat="47.576991" lon="10.624002"><ele>797</ele></trkpt>
      <trkpt lat="47.576912" lon="10.623967"><ele>797</ele></trkpt>
      <trkpt lat="47.576905" lon="10.623825"><ele>798</ele></trkpt>
      <trkpt lat="47.576886" lon="10.623714"><ele>799</ele></trkpt>
      <trkpt lat="47.576759" lon="10.623377"><ele>802</ele></trkpt>
      <trkpt lat="47.576721" lon="10.623273"><ele>803</ele></trkpt>
      <trkpt lat="47.576581" lon="10.622915"><ele>808</ele></trkpt>
      <trkpt lat="47.576446" lon="10.622585"><ele>813</ele></trkpt>
      <trkpt lat="47.576411" lon="10.622242"><ele>816</ele></trkpt>
      <trkpt lat="47.576430" lon="10.621607"><ele>820</ele></trkpt>
      <trkpt lat="47.576383" lon="10.621472"><ele>820</ele></trkpt>
      <trkpt lat="47.576286" lon="10.621351"><ele>821</ele></trkpt>
      <trkpt lat="47.576420" lon="10.620876"><ele>821</ele></trkpt>
      <trkpt lat="47.576794" lon="10.619549"><ele>825</ele></trkpt>
      <trkpt lat="47.577044" lon="10.618617"><ele>829</ele></trkpt>
      <trkpt lat="47.577274" lon="10.617695"><ele>838</ele></trkpt>
      <trkpt lat="47.577292" lon="10.617584"><ele>839</ele></trkpt>
      <trkpt lat="47.577291" lon="10.617475"><ele>840</ele></trkpt>
      <trkpt lat="47.577210" lon="10.617220"><ele>844</ele></trkpt>
      <trkpt lat="47.577030" lon="10.616813"><ele>850</ele></trkpt>
      <trkpt lat="47.576967" lon="10.616596"><ele>852</ele></trkpt>
      <trkpt lat="47.576938" lon="10.616465"><ele>853</ele></trkpt>
      <trkpt lat="47.576923" lon="10.616323"><ele>854</ele></trkpt>
      <trkpt lat="47.576930" lon="10.616222"><ele>856</ele></trkpt>
      <trkpt lat="47.576963" lon="10.616130"><ele>856</ele></trkpt>
      <trkpt lat="47.577061" lon="10.615935"><ele>859</ele></trkpt>
      <trkpt lat="47.577201" lon="10.615752"><ele>862</ele></trkpt>
      <trkpt lat="47.577334" lon="10.615533"><ele>863</ele></trkpt>
      <trkpt lat="47.577418" lon="10.615368"><ele>864</ele></trkpt>
      <trkpt lat="47.577479" lon="10.615161"><ele>864</ele></trkpt>
      <trkpt lat="47.577578" lon="10.614743"><ele>866</ele></trkpt>
      <trkpt lat="47.577650" lon="10.614296"><ele>868</ele></trkpt>
      <trkpt lat="47.577704" lon="10.614164"><ele>868</ele></trkpt>
      <trkpt lat="47.577769" lon="10.614033"><ele>868</ele></trkpt>
      <trkpt lat="47.577831" lon="10.613934"><ele>868</ele></trkpt>
      <trkpt lat="47.577912" lon="10.613869"><ele>868</ele></trkpt>
      <trkpt lat="47.578146" lon="10.613592"><ele>868</ele></trkpt>
      <trkpt lat="47.578205" lon="10.613476"><ele>868</ele></trkpt>
      <trkpt lat="47.578350" lon="10.613160"><ele>866</ele></trkpt>
      <trkpt lat="47.578686" lon="10.612518"><ele>864</ele></trkpt>
      <trkpt lat="47.579027" lon="10.611733"><ele>864</ele></trkpt>
      <trkpt lat="47.579304" lon="10.611028"><ele>865</ele></trkpt>
      <trkpt lat="47.579627" lon="10.610418"><ele>865</ele></trkpt>
      <trkpt lat="47.579710" lon="10.610243"><ele>866</ele></trkpt>
      <trkpt lat="47.579847" lon="10.609922"><ele>866</ele></trkpt>
      <trkpt lat="47.579971" lon="10.609422"><ele>868</ele></trkpt>
      <trkpt lat="47.580051" lon="10.608840"><ele>869</ele></trkpt>
      <trkpt lat="47.580065" lon="10.608157"><ele>870</ele></trkpt>
      <trkpt lat="47.580069" lon="10.607559"><ele>869</ele></trkpt>
      <trkpt lat="47.580038" lon="10.607273"><ele>870</ele></trkpt>
      <trkpt lat="47.580021" lon="10.606938"><ele>872</ele></trkpt>
      <trkpt lat="47.579953" lon="10.606719"><ele>871</ele></trkpt>
      <trkpt lat="47.579869" lon="10.606526"><ele>872</ele></trkpt>
      <trkpt lat="47.579826" lon="10.606474"><ele>872</ele></trkpt>
      <trkpt lat="47.579940" lon="10.606201"><ele>873</ele></trkpt>
      <trkpt lat="47.579962" lon="10.606113"><ele>872</ele></trkpt>
      <trkpt lat="47.579956" lon="10.605984"><ele>874</ele></trkpt>
      <trkpt lat="47.579916" lon="10.605699"><ele>874</ele></trkpt>
      <trkpt lat="47.579950" lon="10.605593"><ele>875</ele></trkpt>
      <trkpt lat="47.580033" lon="10.605899"><ele>875</ele></trkpt>
      <trkpt lat="47.580153" lon="10.605730"><ele>876</ele></trkpt>
      <trkpt lat="47.580285" lon="10.605487"><ele>877</ele></trkpt>
      <trkpt lat="47.580966" lon="10.603723"><ele>884</ele></trkpt>
      <trkpt lat="47.581778" lon="10.601240"><ele>893</ele></trkpt>
      <trkpt lat="47.581993" lon="10.600531"><ele>894</ele></trkpt>
      <trkpt lat="47.582042" lon="10.600335"><ele>894</ele></trkpt>
      <trkpt lat="47.582281" lon="10.599378"><ele>894</ele></trkpt>
      <trkpt lat="47.582348" lon="10.599055"><ele>894</ele></trkpt>
      <trkpt lat="47.582347" lon="10.598945"><ele>895</ele></trkpt>
      <trkpt lat="47.582381" lon="10.598522"><ele>895</ele></trkpt>
      <trkpt lat="47.582433" lon="10.598352"><ele>896</ele></trkpt>
      <trkpt lat="47.582571" lon="10.598014"><ele>895</ele></trkpt>
      <trkpt lat="47.582657" lon="10.597625"><ele>896</ele></trkpt>
      <trkpt lat="47.582661" lon="10.597585"><ele>896</ele></trkpt>
      <trkpt lat="47.582675" lon="10.597420"><ele>897</ele></trkpt>
      <trkpt lat="47.582723" lon="10.597256"><ele>898</ele></trkpt>
      <trkpt lat="47.582855" lon="10.596694"><ele>898</ele></trkpt>
      <trkpt lat="47.583091" lon="10.595616"><ele>898</ele></trkpt>
      <trkpt lat="47.583307" lon="10.594795"><ele>897</ele></trkpt>
      <trkpt lat="47.583864" lon="10.592880"><ele>895</ele></trkpt>
      <trkpt lat="47.584930" lon="10.589120"><ele>893</ele></trkpt>
      <trkpt lat="47.584988" lon="10.588919"><ele>894</ele></trkpt>
      <trkpt lat="47.585087" lon="10.588320"><ele>894</ele></trkpt>
      <trkpt lat="47.585408" lon="10.587505"><ele>892</ele></trkpt>
      <trkpt lat="47.585621" lon="10.586885"><ele>892</ele></trkpt>
      <trkpt lat="47.585759" lon="10.586591"><ele>892</ele></trkpt>
      <trkpt lat="47.586116" lon="10.585578"><ele>893</ele></trkpt>
      <trkpt lat="47.586764" lon="10.583737"><ele>895</ele></trkpt>
      <trkpt lat="47.586848" lon="10.583437"><ele>895</ele></trkpt>
      <trkpt lat="47.587038" lon="10.583033"><ele>894</ele></trkpt>
      <trkpt lat="47.587270" lon="10.582378"><ele>894</ele></trkpt>
      <trkpt lat="47.587596" lon="10.581364"><ele>892</ele></trkpt>
      <trkpt lat="47.587677" lon="10.581034"><ele>892</ele></trkpt>
      <trkpt lat="47.587719" lon="10.580772"><ele>891</ele></trkpt>
      <trkpt lat="47.587745" lon="10.580556"><ele>891</ele></trkpt>
      <trkpt lat="47.587875" lon="10.580159"><ele>891</ele></trkpt>
      <trkpt lat="47.588008" lon="10.579545"><ele>892</ele></trkpt>
      <trkpt lat="47.588078" lon="10.579029"><ele>893</ele></trkpt>
      <trkpt lat="47.588255" lon="10.578369"><ele>893</ele></trkpt>
      <trkpt lat="47.588531" lon="10.577561"><ele>896</ele></trkpt>
      <trkpt lat="47.588623" lon="10.577220"><ele>897</ele></trkpt>
      <trkpt lat="47.588706" lon="10.577052"><ele>896</ele></trkpt>
      <trkpt lat="47.588961" lon="10.576832"><ele>895</ele></trkpt>
      <trkpt lat="47.589446" lon="10.576339"><ele>897</ele></trkpt>
      <trkpt lat="47.589477" lon="10.576264"><ele>897</ele></trkpt>
      <trkpt lat="47.589471" lon="10.576214"><ele>897</ele></trkpt>
      <trkpt lat="47.589104" lon="10.576498"><ele>896</ele></trkpt>
      <trkpt lat="47.588945" lon="10.576595"><ele>896</ele></trkpt>
      <trkpt lat="47.588930" lon="10.576645"><ele>895</ele></trkpt>
      <trkpt lat="47.588964" lon="10.576764"><ele>895</ele></trkpt>
      <trkpt lat="47.589097" lon="10.577013"><ele>893</ele></trkpt>
      <trkpt lat="47.589120" lon="10.577050"><ele>892</ele></trkpt>
      <trkpt lat="47.589158" lon="10.577076"><ele>892</ele></trkpt>
      <trkpt lat="47.589213" lon="10.577053"><ele>892</ele></trkpt>
      <trkpt lat="47.589490" lon="10.576761"><ele>895</ele></trkpt>
      <trkpt lat="47.589607" lon="10.576690"><ele>896</ele></trkpt>
      <trkpt lat="47.589771" lon="10.576720"><ele>896</ele></trkpt>
      <trkpt lat="47.589919" lon="10.576700"><ele>897</ele></trkpt>
      <trkpt lat="47.589942" lon="10.576683"><ele>897</ele></trkpt>
      <trkpt lat="47.589966" lon="10.576636"><ele>897</ele></trkpt>
      <trkpt lat="47.589995" lon="10.576576"><ele>897</ele></trkpt>
      <trkpt lat="47.590047" lon="10.576497"><ele>897</ele></trkpt>
      <trkpt lat="47.590293" lon="10.576759"><ele>897</ele></trkpt>
      <trkpt lat="47.590769" lon="10.577197"><ele>896</ele></trkpt>
      <trkpt lat="47.591264" lon="10.577586"><ele>896</ele></trkpt>
      <trkpt lat="47.591846" lon="10.578024"><ele>895</ele></trkpt>
      <trkpt lat="47.592288" lon="10.578341"><ele>894</ele></trkpt>
      <trkpt lat="47.593262" lon="10.578962"><ele>893</ele></trkpt>
      <trkpt lat="47.593871" lon="10.579321"><ele>893</ele></trkpt>
      <trkpt lat="47.594627" lon="10.579699"><ele>896</ele></trkpt>
      <trkpt lat="47.594689" lon="10.579731"><ele>896</ele></trkpt>
      <trkpt lat="47.595249" lon="10.580067"><ele>898</ele></trkpt>
      <trkpt lat="47.596106" lon="10.580501"><ele>905</ele></trkpt>
      <trkpt lat="47.596567" lon="10.580711"><ele>906</ele></trkpt>
      <trkpt lat="47.596893" lon="10.580846"><ele>905</ele></trkpt>
      <trkpt lat="47.597296" lon="10.580998"><ele>906</ele></trkpt>
      <trkpt lat="47.597610" lon="10.581088"><ele>904</ele></trkpt>
      <trkpt lat="47.597908" lon="10.581161"><ele>903</ele></trkpt>
      <trkpt lat="47.598318" lon="10.581203"><ele>902</ele></trkpt>
      <trkpt lat="47.598894" lon="10.581198"><ele>902</ele></trkpt>
      <trkpt lat="47.599205" lon="10.581169"><ele>899</ele></trkpt>
      <trkpt lat="47.600186" lon="10.580982"><ele>890</ele></trkpt>
      <trkpt lat="47.600489" lon="10.580959"><ele>888</ele></trkpt>
      <trkpt lat="47.600776" lon="10.580989"><ele>885</ele></trkpt>
      <trkpt lat="47.600892" lon="10.581016"><ele>885</ele></trkpt>
      <trkpt lat="47.601030" lon="10.581049"><ele>884</ele></trkpt>
      <trkpt lat="47.601086" lon="10.581036"><ele>884</ele></trkpt>
      <trkpt lat="47.601186" lon="10.581073"><ele>883</ele></trkpt>
      <trkpt lat="47.601256" lon="10.580760"><ele>883</ele></trkpt>
      <trkpt lat="47.601295" lon="10.580564"><ele>882</ele></trkpt>
      <trkpt lat="47.601345" lon="10.580252"><ele>882</ele></trkpt>
      <trkpt lat="47.601418" lon="10.579860"><ele>882</ele></trkpt>
      <trkpt lat="47.601634" lon="10.578461"><ele>882</ele></trkpt>
      <trkpt lat="47.601720" lon="10.578078"><ele>882</ele></trkpt>
      <trkpt lat="47.601928" lon="10.577517"><ele>880</ele></trkpt>
      <trkpt lat="47.602464" lon="10.576159"><ele>878</ele></trkpt>
      <trkpt lat="47.602593" lon="10.575697"><ele>878</ele></trkpt>
      <trkpt lat="47.602671" lon="10.575210"><ele>878</ele></trkpt>
      <trkpt lat="47.602700" lon="10.574795"><ele>878</ele></trkpt>
      <trkpt lat="47.602686" lon="10.574299"><ele>879</ele></trkpt>
      <trkpt lat="47.602612" lon="10.573506"><ele>883</ele></trkpt>
      <trkpt lat="47.602552" lon="10.572596"><ele>885</ele></trkpt>
      <trkpt lat="47.602460" lon="10.571333"><ele>885</ele></trkpt>
      <trkpt lat="47.602443" lon="10.570884"><ele>884</ele></trkpt>
      <trkpt lat="47.602459" lon="10.570455"><ele>884</ele></trkpt>
      <trkpt lat="47.602533" lon="10.569926"><ele>884</ele></trkpt>
      <trkpt lat="47.602637" lon="10.569490"><ele>884</ele></trkpt>
      <trkpt lat="47.602839" lon="10.568663"><ele>884</ele></trkpt>
      <trkpt lat="47.602860" lon="10.568415"><ele>884</ele></trkpt>
      <trkpt lat="47.602844" lon="10.568174"><ele>884</ele></trkpt>
      <trkpt lat="47.602774" lon="10.567922"><ele>884</ele></trkpt>
      <trkpt lat="47.602495" lon="10.567209"><ele>884</ele></trkpt>
      <trkpt lat="47.602321" lon="10.566871"><ele>884</ele></trkpt>
      <trkpt lat="47.602174" lon="10.566716"><ele>883</ele></trkpt>
      <trkpt lat="47.601996" lon="10.566589"><ele>882</ele></trkpt>
      <trkpt lat="47.601841" lon="10.566542"><ele>881</ele></trkpt>
      <trkpt lat="47.601620" lon="10.566539"><ele>880</ele></trkpt>
      <trkpt lat="47.601348" lon="10.566589"><ele>879</ele></trkpt>
      <trkpt lat="47.601176" lon="10.566582"><ele>878</ele></trkpt>
      <trkpt lat="47.600958" lon="10.566542"><ele>877</ele></trkpt>
      <trkpt lat="47.600735" lon="10.566427"><ele>876</ele></trkpt>
      <trkpt lat="47.600364" lon="10.566193"><ele>874</ele></trkpt>
      <trkpt lat="47.600212" lon="10.566164"><ele>874</ele></trkpt>
      <trkpt lat="47.600327" lon="10.565978"><ele>873</ele></trkpt>
      <trkpt lat="47.600735" lon="10.565587"><ele>872</ele></trkpt>
      <trkpt lat="47.600877" lon="10.565509"><ele>871</ele></trkpt>
      <trkpt lat="47.601039" lon="10.565460"><ele>870</ele></trkpt>
      <trkpt lat="47.601161" lon="10.565443"><ele>870</ele></trkpt>
      <trkpt lat="47.601295" lon="10.565467"><ele>869</ele></trkpt>
      <trkpt lat="47.601592" lon="10.565570"><ele>868</ele></trkpt>
      <trkpt lat="47.601713" lon="10.565561"><ele>868</ele></trkpt>
      <trkpt lat="47.601860" lon="10.565513"><ele>868</ele></trkpt>
      <trkpt lat="47.602027" lon="10.565408"><ele>869</ele></trkpt>
      <trkpt lat="47.602151" lon="10.565232"><ele>869</ele></trkpt>
      <trkpt lat="47.602222" lon="10.565075"><ele>868</ele></trkpt>
      <trkpt lat="47.602302" lon="10.564932"><ele>868</ele></trkpt>
      <trkpt lat="47.602443" lon="10.564807"><ele>867</ele></trkpt>
      <trkpt lat="47.602523" lon="10.564754"><ele>867</ele></trkpt>
      <trkpt lat="47.602573" lon="10.564669"><ele>866</ele></trkpt>
      <trkpt lat="47.602726" lon="10.564451"><ele>865</ele></trkpt>
      <trkpt lat="47.603130" lon="10.563601"><ele>864</ele></trkpt>
      <trkpt lat="47.603264" lon="10.563265"><ele>865</ele></trkpt>
      <trkpt lat="47.603312" lon="10.563191"><ele>865</ele></trkpt>
      <trkpt lat="47.603381" lon="10.563124"><ele>866</ele></trkpt>
      <trkpt lat="47.603451" lon="10.563098"><ele>866</ele></trkpt>
      <trkpt lat="47.603536" lon="10.563115"><ele>866</ele></trkpt>
      <trkpt lat="47.603672" lon="10.563207"><ele>868</ele></trkpt>
      <trkpt lat="47.603796" lon="10.563311"><ele>868</ele></trkpt>
      <trkpt lat="47.603933" lon="10.563379"><ele>869</ele></trkpt>
      <trkpt lat="47.604077" lon="10.563378"><ele>869</ele></trkpt>
      <trkpt lat="47.604258" lon="10.563323"><ele>871</ele></trkpt>
      <trkpt lat="47.604490" lon="10.563204"><ele>873</ele></trkpt>
      <trkpt lat="47.604680" lon="10.563145"><ele>874</ele></trkpt>
      <trkpt lat="47.604793" lon="10.563083"><ele>875</ele></trkpt>
      <trkpt lat="47.604937" lon="10.562970"><ele>877</ele></trkpt>
      <trkpt lat="47.605042" lon="10.562835"><ele>879</ele></trkpt>
      <trkpt lat="47.605062" lon="10.562790"><ele>879</ele></trkpt>
      <trkpt lat="47.605552" lon="10.561835"><ele>883</ele></trkpt>
      <trkpt lat="47.605625" lon="10.561694"><ele>883</ele></trkpt>
      <trkpt lat="47.605761" lon="10.561434"><ele>883</ele></trkpt>
      <trkpt lat="47.605824" lon="10.560888"><ele>883</ele></trkpt>
      <trkpt lat="47.605792" lon="10.560758"><ele>883</ele></trkpt>
      <trkpt lat="47.605729" lon="10.560443"><ele>883</ele></trkpt>
      <trkpt lat="47.605716" lon="10.560303"><ele>883</ele></trkpt>
      <trkpt lat="47.605706" lon="10.560200"><ele>883</ele></trkpt>
      <trkpt lat="47.605730" lon="10.559921"><ele>883</ele></trkpt>
      <trkpt lat="47.605780" lon="10.559719"><ele>883</ele></trkpt>
      <trkpt lat="47.605820" lon="10.559663"><ele>883</ele></trkpt>
      <trkpt lat="47.605864" lon="10.559604"><ele>883</ele></trkpt>
      <trkpt lat="47.605930" lon="10.559470"><ele>884</ele></trkpt>
      <trkpt lat="47.605965" lon="10.559287"><ele>883</ele></trkpt>
      <trkpt lat="47.605976" lon="10.558987"><ele>882</ele></trkpt>
      <trkpt lat="47.606224" lon="10.558647"><ele>881</ele></trkpt>
      <trkpt lat="47.606267" lon="10.558559"><ele>881</ele></trkpt>
      <trkpt lat="47.606287" lon="10.558470"><ele>881</ele></trkpt>
      <trkpt lat="47.606301" lon="10.558294"><ele>881</ele></trkpt>
      <trkpt lat="47.606291" lon="10.558147"><ele>881</ele></trkpt>
      <trkpt lat="47.606231" lon="10.557750"><ele>880</ele></trkpt>
      <trkpt lat="47.606202" lon="10.557541"><ele>880</ele></trkpt>
      <trkpt lat="47.606120" lon="10.557178"><ele>878</ele></trkpt>
      <trkpt lat="47.606014" lon="10.556783"><ele>878</ele></trkpt>
      <trkpt lat="47.606049" lon="10.556342"><ele>878</ele></trkpt>
      <trkpt lat="47.606192" lon="10.555382"><ele>876</ele></trkpt>
      <trkpt lat="47.606250" lon="10.555146"><ele>876</ele></trkpt>
      <trkpt lat="47.606323" lon="10.554945"><ele>876</ele></trkpt>
      <trkpt lat="47.606554" lon="10.554656"><ele>876</ele></trkpt>
      <trkpt lat="47.606799" lon="10.554309"><ele>876</ele></trkpt>
      <trkpt lat="47.606883" lon="10.553873"><ele>876</ele></trkpt>
      <trkpt lat="47.606920" lon="10.553484"><ele>876</ele></trkpt>
      <trkpt lat="47.606933" lon="10.553080"><ele>876</ele></trkpt>
      <trkpt lat="47.606830" lon="10.552552"><ele>875</ele></trkpt>
      <trkpt lat="47.606825" lon="10.552048"><ele>874</ele></trkpt>
      <trkpt lat="47.607005" lon="10.550802"><ele>873</ele></trkpt>
      <trkpt lat="47.607005" lon="10.550282"><ele>871</ele></trkpt>
      <trkpt lat="47.606939" lon="10.550070"><ele>869</ele></trkpt>
      <trkpt lat="47.606874" lon="10.549923"><ele>868</ele></trkpt>
      <trkpt lat="47.606852" lon="10.549722"><ele>866</ele></trkpt>
      <trkpt lat="47.606911" lon="10.549515"><ele>867</ele></trkpt>
      <trkpt lat="47.607126" lon="10.549372"><ele>868</ele></trkpt>
      <trkpt lat="47.607340" lon="10.549208"><ele>869</ele></trkpt>
      <trkpt lat="47.607443" lon="10.549062"><ele>869</ele></trkpt>
      <trkpt lat="47.607516" lon="10.548905"><ele>869</ele></trkpt>
      <trkpt lat="47.607586" lon="10.548649"><ele>868</ele></trkpt>
      <trkpt lat="47.607626" lon="10.548400"><ele>867</ele></trkpt>
      <trkpt lat="47.607657" lon="10.547893"><ele>865</ele></trkpt>
      <trkpt lat="47.607778" lon="10.547437"><ele>865</ele></trkpt>
      <trkpt lat="47.607789" lon="10.547330"><ele>865</ele></trkpt>
      <trkpt lat="47.607713" lon="10.547078"><ele>865</ele></trkpt>
      <trkpt lat="47.607653" lon="10.547019"><ele>865</ele></trkpt>
      <trkpt lat="47.607395" lon="10.546874"><ele>866</ele></trkpt>
      <trkpt lat="47.607341" lon="10.546793"><ele>866</ele></trkpt>
      <trkpt lat="47.607307" lon="10.546705"><ele>866</ele></trkpt>
      <trkpt lat="47.607300" lon="10.546536"><ele>866</ele></trkpt>
      <trkpt lat="47.607320" lon="10.546264"><ele>866</ele></trkpt>
      <trkpt lat="47.607330" lon="10.545930"><ele>866</ele></trkpt>
      <trkpt lat="47.607334" lon="10.545558"><ele>866</ele></trkpt>
      <trkpt lat="47.607330" lon="10.544926"><ele>866</ele></trkpt>
      <trkpt lat="47.607300" lon="10.544660"><ele>867</ele></trkpt>
      <trkpt lat="47.607204" lon="10.544259"><ele>867</ele></trkpt>
      <trkpt lat="47.607119" lon="10.543990"><ele>867</ele></trkpt>
      <trkpt lat="47.607099" lon="10.543808"><ele>867</ele></trkpt>
      <trkpt lat="47.607127" lon="10.543611"><ele>868</ele></trkpt>
      <trkpt lat="47.607178" lon="10.543414"><ele>868</ele></trkpt>
      <trkpt lat="47.607293" lon="10.543106"><ele>868</ele></trkpt>
      <trkpt lat="47.607422" lon="10.542596"><ele>869</ele></trkpt>
      <trkpt lat="47.607696" lon="10.541601"><ele>871</ele></trkpt>
      <trkpt lat="47.607733" lon="10.541401"><ele>872</ele></trkpt>
      <trkpt lat="47.607756" lon="10.541129"><ele>872</ele></trkpt>
      <trkpt lat="47.607788" lon="10.540600"><ele>873</ele></trkpt>
      <trkpt lat="47.607863" lon="10.540099"><ele>874</ele></trkpt>
      <trkpt lat="47.607940" lon="10.539663"><ele>874</ele></trkpt>
      <trkpt lat="47.607935" lon="10.539501"><ele>874</ele></trkpt>
      <trkpt lat="47.607910" lon="10.539170"><ele>876</ele></trkpt>
      <trkpt lat="47.607868" lon="10.538782"><ele>876</ele></trkpt>
      <trkpt lat="47.607824" lon="10.538293"><ele>877</ele></trkpt>
      <trkpt lat="47.607784" lon="10.537696"><ele>877</ele></trkpt>
      <trkpt lat="47.607737" lon="10.537301"><ele>878</ele></trkpt>
      <trkpt lat="47.607608" lon="10.536374"><ele>884</ele></trkpt>
      <trkpt lat="47.607484" lon="10.535561"><ele>887</ele></trkpt>
      <trkpt lat="47.607446" lon="10.535306"><ele>889</ele></trkpt>
      <trkpt lat="47.607431" lon="10.535200"><ele>889</ele></trkpt>
      <trkpt lat="47.607397" lon="10.535052"><ele>890</ele></trkpt>
      <trkpt lat="47.607360" lon="10.534893"><ele>891</ele></trkpt>
      <trkpt lat="47.607330" lon="10.534805"><ele>891</ele></trkpt>
      <trkpt lat="47.607220" lon="10.534481"><ele>894</ele></trkpt>
      <trkpt lat="47.607014" lon="10.534011"><ele>895</ele></trkpt>
      <trkpt lat="47.607246" lon="10.533722"><ele>894</ele></trkpt>
      <trkpt lat="47.607414" lon="10.533444"><ele>893</ele></trkpt>
      <trkpt lat="47.607533" lon="10.533089"><ele>894</ele></trkpt>
      <trkpt lat="47.607700" lon="10.532655"><ele>892</ele></trkpt>
      <trkpt lat="47.607796" lon="10.532389"><ele>892</ele></trkpt>
      <trkpt lat="47.607922" lon="10.532094"><ele>891</ele></trkpt>
      <trkpt lat="47.608212" lon="10.531577"><ele>890</ele></trkpt>
      <trkpt lat="47.608790" lon="10.530534"><ele>887</ele></trkpt>
      <trkpt lat="47.609450" lon="10.529411"><ele>885</ele></trkpt>
      <trkpt lat="47.609526" lon="10.529328"><ele>885</ele></trkpt>
      <trkpt lat="47.609536" lon="10.529263"><ele>885</ele></trkpt>
      <trkpt lat="47.609691" lon="10.528629"><ele>885</ele></trkpt>
      <trkpt lat="47.609763" lon="10.528381"><ele>884</ele></trkpt>
      <trkpt lat="47.609898" lon="10.527825"><ele>885</ele></trkpt>
      <trkpt lat="47.610067" lon="10.527272"><ele>884</ele></trkpt>
      <trkpt lat="47.610163" lon="10.527012"><ele>885</ele></trkpt>
      <trkpt lat="47.610263" lon="10.526812"><ele>884</ele></trkpt>
      <trkpt lat="47.610381" lon="10.526604"><ele>884</ele></trkpt>
      <trkpt lat="47.610416" lon="10.526477"><ele>884</ele></trkpt>
      <trkpt lat="47.610462" lon="10.526354"><ele>884</ele></trkpt>
      <trkpt lat="47.610684" lon="10.525892"><ele>885</ele></trkpt>
      <trkpt lat="47.611004" lon="10.525266"><ele>885</ele></trkpt>
      <trkpt lat="47.611840" lon="10.523673"><ele>887</ele></trkpt>
      <trkpt lat="47.612801" lon="10.521877"><ele>888</ele></trkpt>
      <trkpt lat="47.613171" lon="10.521199"><ele>888</ele></trkpt>
      <trkpt lat="47.613553" lon="10.520476"><ele>889</ele></trkpt>
      <trkpt lat="47.613914" lon="10.519752"><ele>889</ele></trkpt>
      <trkpt lat="47.614124" lon="10.519296"><ele>888</ele></trkpt>
      <trkpt lat="47.614422" lon="10.518649"><ele>886</ele></trkpt>
      <trkpt lat="47.614427" lon="10.518553"><ele>886</ele></trkpt>
      <trkpt lat="47.614375" lon="10.518390"><ele>887</ele></trkpt>
      <trkpt lat="47.614353" lon="10.518347"><ele>888</ele></trkpt>
      <trkpt lat="47.614319" lon="10.518214"><ele>888</ele></trkpt>
      <trkpt lat="47.614300" lon="10.517980"><ele>888</ele></trkpt>
      <trkpt lat="47.614305" lon="10.517846"><ele>889</ele></trkpt>
      <trkpt lat="47.614346" lon="10.517679"><ele>889</ele></trkpt>
      <trkpt lat="47.614407" lon="10.517517"><ele>889</ele></trkpt>
      <trkpt lat="47.614485" lon="10.517400"><ele>889</ele></trkpt>
      <trkpt lat="47.614544" lon="10.517328"><ele>889</ele></trkpt>
      <trkpt lat="47.614645" lon="10.517250"><ele>888</ele></trkpt>
      <trkpt lat="47.614717" lon="10.517221"><ele>888</ele></trkpt>
      <trkpt lat="47.614823" lon="10.517201"><ele>887</ele></trkpt>
      <trkpt lat="47.614928" lon="10.517210"><ele>886</ele></trkpt>
      <trkpt lat="47.615022" lon="10.517233"><ele>885</ele></trkpt>
      <trkpt lat="47.615076" lon="10.517214"><ele>884</ele></trkpt>
      <trkpt lat="47.615114" lon="10.517173"><ele>884</ele></trkpt>
      <trkpt lat="47.615433" lon="10.516532"><ele>883</ele></trkpt>
      <trkpt lat="47.615695" lon="10.516123"><ele>882</ele></trkpt>
      <trkpt lat="47.615994" lon="10.515717"><ele>880</ele></trkpt>
      <trkpt lat="47.616804" lon="10.514693"><ele>876</ele></trkpt>
      <trkpt lat="47.616988" lon="10.514411"><ele>876</ele></trkpt>
      <trkpt lat="47.617111" lon="10.514147"><ele>876</ele></trkpt>
      <trkpt lat="47.617176" lon="10.513932"><ele>876</ele></trkpt>
      <trkpt lat="47.617220" lon="10.513711"><ele>876</ele></trkpt>
      <trkpt lat="47.617224" lon="10.513543"><ele>876</ele></trkpt>
      <trkpt lat="47.617190" lon="10.513291"><ele>876</ele></trkpt>
      <trkpt lat="47.617410" lon="10.513354"><ele>876</ele></trkpt>
      <trkpt lat="47.617475" lon="10.513299"><ele>877</ele></trkpt>
      <trkpt lat="47.617655" lon="10.513265"><ele>876</ele></trkpt>
      <trkpt lat="47.617806" lon="10.513213"><ele>875</ele></trkpt>
      <trkpt lat="47.617883" lon="10.513176"><ele>875</ele></trkpt>
      <trkpt lat="47.618020" lon="10.513082"><ele>875</ele></trkpt>
      <trkpt lat="47.618157" lon="10.512922"><ele>874</ele></trkpt>
      <trkpt lat="47.618281" lon="10.512690"><ele>874</ele></trkpt>
      <trkpt lat="47.618362" lon="10.512491"><ele>875</ele></trkpt>
      <trkpt lat="47.618418" lon="10.512296"><ele>874</ele></trkpt>
      <trkpt lat="47.618457" lon="10.512136"><ele>875</ele></trkpt>
      <trkpt lat="47.618501" lon="10.511879"><ele>876</ele></trkpt>
      <trkpt lat="47.618590" lon="10.510972"><ele>877</ele></trkpt>
      <trkpt lat="47.618680" lon="10.510306"><ele>878</ele></trkpt>
      <trkpt lat="47.618765" lon="10.509786"><ele>879</ele></trkpt>
      <trkpt lat="47.618822" lon="10.509528"><ele>879</ele></trkpt>
      <trkpt lat="47.618873" lon="10.509360"><ele>879</ele></trkpt>
      <trkpt lat="47.618941" lon="10.509171"><ele>878</ele></trkpt>
      <trkpt lat="47.619166" lon="10.508650"><ele>879</ele></trkpt>
      <trkpt lat="47.619274" lon="10.508388"><ele>878</ele></trkpt>
      <trkpt lat="47.619359" lon="10.508179"><ele>878</ele></trkpt>
      <trkpt lat="47.619535" lon="10.507799"><ele>879</ele></trkpt>
      <trkpt lat="47.619646" lon="10.507759"><ele>879</ele></trkpt>
      <trkpt lat="47.619668" lon="10.507711"><ele>879</ele></trkpt>
      <trkpt lat="47.619711" lon="10.507617"><ele>878</ele></trkpt>
      <trkpt lat="47.619771" lon="10.507633"><ele>878</ele></trkpt>
      <trkpt lat="47.619916" lon="10.507674"><ele>878</ele></trkpt>
      <trkpt lat="47.620066" lon="10.507680"><ele>878</ele></trkpt>
      <trkpt lat="47.620590" lon="10.507743"><ele>876</ele></trkpt>
      <trkpt lat="47.620932" lon="10.507694"><ele>873</ele></trkpt>
      <trkpt lat="47.621225" lon="10.507633"><ele>872</ele></trkpt>
      <trkpt lat="47.621213" lon="10.507561"><ele>872</ele></trkpt>
      <trkpt lat="47.621196" lon="10.507419"><ele>872</ele></trkpt>
      <trkpt lat="47.621188" lon="10.507359"><ele>871</ele></trkpt>
      <trkpt lat="47.621163" lon="10.507130"><ele>870</ele></trkpt>
      <trkpt lat="47.621206" lon="10.506750"><ele>869</ele></trkpt>
      <trkpt lat="47.621929" lon="10.506545"><ele>866</ele></trkpt>
      <trkpt lat="47.622518" lon="10.506331"><ele>864</ele></trkpt>
      <trkpt lat="47.622756" lon="10.506193"><ele>863</ele></trkpt>
      <trkpt lat="47.622828" lon="10.506132"><ele>863</ele></trkpt>
      <trkpt lat="47.622881" lon="10.506008"><ele>863</ele></trkpt>
      <trkpt lat="47.622929" lon="10.505770"><ele>863</ele></trkpt>
      <trkpt lat="47.622990" lon="10.505310"><ele>862</ele></trkpt>
      <trkpt lat="47.623042" lon="10.505008"><ele>861</ele></trkpt>
      <trkpt lat="47.623131" lon="10.504498"><ele>861</ele></trkpt>
      <trkpt lat="47.623209" lon="10.504078"><ele>860</ele></trkpt>
      <trkpt lat="47.623315" lon="10.503165"><ele>858</ele></trkpt>
      <trkpt lat="47.623341" lon="10.502938"><ele>858</ele></trkpt>
      <trkpt lat="47.623358" lon="10.502789"><ele>858</ele></trkpt>
      <trkpt lat="47.623368" lon="10.502581"><ele>858</ele></trkpt>
      <trkpt lat="47.623445" lon="10.501631"><ele>858</ele></trkpt>
      <trkpt lat="47.623462" lon="10.501321"><ele>859</ele></trkpt>
      <trkpt lat="47.623661" lon="10.501196"><ele>859</ele></trkpt>
      <trkpt lat="47.623747" lon="10.501106"><ele>860</ele></trkpt>
      <trkpt lat="47.623853" lon="10.501011"><ele>860</ele></trkpt>
      <trkpt lat="47.623648" lon="10.500661"><ele>860</ele></trkpt>
      <trkpt lat="47.623527" lon="10.500482"><ele>861</ele></trkpt>
      <trkpt lat="47.623671" lon="10.500238"><ele>861</ele></trkpt>
      <trkpt lat="47.623575" lon="10.500034"><ele>862</ele></trkpt>
      <trkpt lat="47.623502" lon="10.499917"><ele>862</ele></trkpt>
      <trkpt lat="47.623282" lon="10.499694"><ele>863</ele></trkpt>
      <trkpt lat="47.623217" lon="10.499635"><ele>863</ele></trkpt>
      <trkpt lat="47.622859" lon="10.499296"><ele>865</ele></trkpt>
      <trkpt lat="47.622793" lon="10.499234"><ele>865</ele></trkpt>
      <trkpt lat="47.622758" lon="10.499200"><ele>866</ele></trkpt>
      <trkpt lat="47.622458" lon="10.498926"><ele>868</ele></trkpt>
      <trkpt lat="47.622247" lon="10.498812"><ele>868</ele></trkpt>
      <trkpt lat="47.622292" lon="10.498669"><ele>869</ele></trkpt>
      <trkpt lat="47.622309" lon="10.498611"><ele>869</ele></trkpt>
      <trkpt lat="47.622339" lon="10.498508"><ele>869</ele></trkpt>
      <trkpt lat="47.622361" lon="10.498444"><ele>869</ele></trkpt>
      <trkpt lat="47.622395" lon="10.498343"><ele>869</ele></trkpt>
      <trkpt lat="47.622468" lon="10.498206"><ele>870</ele></trkpt>
      <trkpt lat="47.622563" lon="10.498088"><ele>870</ele></trkpt>
      <trkpt lat="47.622827" lon="10.497799"><ele>870</ele></trkpt>
      <trkpt lat="47.622879" lon="10.497737"><ele>870</ele></trkpt>
      <trkpt lat="47.623032" lon="10.497586"><ele>870</ele></trkpt>
      <trkpt lat="47.623141" lon="10.497477"><ele>871</ele></trkpt>
      <trkpt lat="47.623120" lon="10.497349"><ele>872</ele></trkpt>
      <trkpt lat="47.623117" lon="10.497087"><ele>874</ele></trkpt>
      <trkpt lat="47.623093" lon="10.496907"><ele>874</ele></trkpt>
      <trkpt lat="47.623032" lon="10.496669"><ele>875</ele></trkpt>
      <trkpt lat="47.622911" lon="10.496242"><ele>879</ele></trkpt>
      <trkpt lat="47.622735" lon="10.495780"><ele>881</ele></trkpt>
      <trkpt lat="47.622693" lon="10.495611"><ele>884</ele></trkpt>
      <trkpt lat="47.622665" lon="10.495424"><ele>886</ele></trkpt>
      <trkpt lat="47.622658" lon="10.495252"><ele>888</ele></trkpt>
      <trkpt lat="47.622673" lon="10.495080"><ele>889</ele></trkpt>
      <trkpt lat="47.622778" lon="10.494641"><ele>890</ele></trkpt>
      <trkpt lat="47.622785" lon="10.494615"><ele>890</ele></trkpt>
      <trkpt lat="47.622861" lon="10.494346"><ele>895</ele></trkpt>
      <trkpt lat="47.622887" lon="10.494177"><ele>896</ele></trkpt>
      <trkpt lat="47.622879" lon="10.494012"><ele>898</ele></trkpt>
      <trkpt lat="47.622856" lon="10.493883"><ele>898</ele></trkpt>
      <trkpt lat="47.622764" lon="10.493510"><ele>900</ele></trkpt>
      <trkpt lat="47.622638" lon="10.493505"><ele>900</ele></trkpt>
      <trkpt lat="47.622639" lon="10.493442"><ele>901</ele></trkpt>
      <trkpt lat="47.622639" lon="10.493341"><ele>901</ele></trkpt>
      <trkpt lat="47.622891" lon="10.493331"><ele>901</ele></trkpt>
      <trkpt lat="47.622975" lon="10.493281"><ele>901</ele></trkpt>
      <trkpt lat="47.623013" lon="10.493211"><ele>901</ele></trkpt>
      <trkpt lat="47.623075" lon="10.492795"><ele>903</ele></trkpt>
      <trkpt lat="47.623142" lon="10.492450"><ele>902</ele></trkpt>
      <trkpt lat="47.623215" lon="10.492195"><ele>902</ele></trkpt>
      <trkpt lat="47.623306" lon="10.491929"><ele>902</ele></trkpt>
      <trkpt lat="47.623399" lon="10.491707"><ele>902</ele></trkpt>
      <trkpt lat="47.623598" lon="10.491369"><ele>901</ele></trkpt>
      <trkpt lat="47.623850" lon="10.490977"><ele>901</ele></trkpt>
      <trkpt lat="47.623986" lon="10.490734"><ele>900</ele></trkpt>
      <trkpt lat="47.624187" lon="10.490286"><ele>900</ele></trkpt>
      <trkpt lat="47.624394" lon="10.489819"><ele>900</ele></trkpt>
      <trkpt lat="47.624546" lon="10.489522"><ele>900</ele></trkpt>
      <trkpt lat="47.624684" lon="10.489272"><ele>899</ele></trkpt>
      <trkpt lat="47.624998" lon="10.488832"><ele>899</ele></trkpt>
      <trkpt lat="47.625559" lon="10.488201"><ele>898</ele></trkpt>
      <trkpt lat="47.625789" lon="10.487919"><ele>897</ele></trkpt>
      <trkpt lat="47.626833" lon="10.486535"><ele>894</ele></trkpt>
      <trkpt lat="47.627103" lon="10.486003"><ele>895</ele></trkpt>
      <trkpt lat="47.627228" lon="10.485777"><ele>895</ele></trkpt>
      <trkpt lat="47.627297" lon="10.485718"><ele>895</ele></trkpt>
      <trkpt lat="47.627635" lon="10.485056"><ele>896</ele></trkpt>
      <trkpt lat="47.627653" lon="10.485191"><ele>895</ele></trkpt>
      <trkpt lat="47.627644" lon="10.485303"><ele>895</ele></trkpt>
      <trkpt lat="47.627590" lon="10.485421"><ele>894</ele></trkpt>
      <trkpt lat="47.627639" lon="10.485477"><ele>894</ele></trkpt>
      <trkpt lat="47.627712" lon="10.485510"><ele>894</ele></trkpt>
      <trkpt lat="47.627775" lon="10.485504"><ele>894</ele></trkpt>
      <trkpt lat="47.627871" lon="10.485462"><ele>894</ele></trkpt>
      <trkpt lat="47.628295" lon="10.485085"><ele>894</ele></trkpt>
      <trkpt lat="47.628610" lon="10.484771"><ele>894</ele></trkpt>
      <trkpt lat="47.628914" lon="10.484482"><ele>893</ele></trkpt>
      <trkpt lat="47.629025" lon="10.484328"><ele>893</ele></trkpt>
      <trkpt lat="47.629119" lon="10.484245"><ele>893</ele></trkpt>
      <trkpt lat="47.629251" lon="10.484218"><ele>893</ele></trkpt>
      <trkpt lat="47.629764" lon="10.483764"><ele>894</ele></trkpt>
      <trkpt lat="47.630318" lon="10.483259"><ele>892</ele></trkpt>
      <trkpt lat="47.630859" lon="10.482800"><ele>892</ele></trkpt>
      <trkpt lat="47.631180" lon="10.482468"><ele>892</ele></trkpt>
      <trkpt lat="47.631728" lon="10.481813"><ele>891</ele></trkpt>
      <trkpt lat="47.631985" lon="10.481432"><ele>891</ele></trkpt>
      <trkpt lat="47.632189" lon="10.481068"><ele>890</ele></trkpt>
      <trkpt lat="47.632387" lon="10.480612"><ele>890</ele></trkpt>
      <trkpt lat="47.632739" lon="10.479721"><ele>890</ele></trkpt>
      <trkpt lat="47.632855" lon="10.479353"><ele>890</ele></trkpt>
      <trkpt lat="47.632937" lon="10.479007"><ele>890</ele></trkpt>
      <trkpt lat="47.632941" lon="10.478918"><ele>890</ele></trkpt>
      <trkpt lat="47.632935" lon="10.478792"><ele>890</ele></trkpt>
      <trkpt lat="47.632930" lon="10.478699"><ele>890</ele></trkpt>
      <trkpt lat="47.632924" lon="10.478587"><ele>890</ele></trkpt>
      <trkpt lat="47.632925" lon="10.478511"><ele>890</ele></trkpt>
      <trkpt lat="47.632933" lon="10.478444"><ele>890</ele></trkpt>
      <trkpt lat="47.633074" lon="10.477824"><ele>892</ele></trkpt>
      <trkpt lat="47.633077" lon="10.477756"><ele>892</ele></trkpt>
      <trkpt lat="47.633070" lon="10.477687"><ele>892</ele></trkpt>
      <trkpt lat="47.633055" lon="10.477623"><ele>891</ele></trkpt>
      <trkpt lat="47.633031" lon="10.477581"><ele>891</ele></trkpt>
      <trkpt lat="47.632989" lon="10.477551"><ele>890</ele></trkpt>
      <trkpt lat="47.633022" lon="10.477416"><ele>890</ele></trkpt>
      <trkpt lat="47.633036" lon="10.477329"><ele>891</ele></trkpt>
      <trkpt lat="47.633045" lon="10.477214"><ele>891</ele></trkpt>
      <trkpt lat="47.633013" lon="10.475547"><ele>891</ele></trkpt>
      <trkpt lat="47.632954" lon="10.474798"><ele>891</ele></trkpt>
      <trkpt lat="47.632858" lon="10.474218"><ele>888</ele></trkpt>
      <trkpt lat="47.632825" lon="10.473836"><ele>887</ele></trkpt>
      <trkpt lat="47.632831" lon="10.473103"><ele>886</ele></trkpt>
      <trkpt lat="47.632793" lon="10.472864"><ele>888</ele></trkpt>
      <trkpt lat="47.632753" lon="10.472772"><ele>888</ele></trkpt>
      <trkpt lat="47.632832" lon="10.472605"><ele>888</ele></trkpt>
      <trkpt lat="47.632921" lon="10.472436"><ele>889</ele></trkpt>
      <trkpt lat="47.632929" lon="10.472293"><ele>890</ele></trkpt>
      <trkpt lat="47.632919" lon="10.472060"><ele>890</ele></trkpt>
      <trkpt lat="47.632741" lon="10.471216"><ele>894</ele></trkpt>
      <trkpt lat="47.632700" lon="10.470820"><ele>895</ele></trkpt>
      <trkpt lat="47.632770" lon="10.470544"><ele>897</ele></trkpt>
      <trkpt lat="47.632904" lon="10.470315"><ele>898</ele></trkpt>
      <trkpt lat="47.633076" lon="10.470221"><ele>899</ele></trkpt>
      <trkpt lat="47.633245" lon="10.470212"><ele>900</ele></trkpt>
      <trkpt lat="47.633391" lon="10.470307"><ele>900</ele></trkpt>
      <trkpt lat="47.633515" lon="10.470477"><ele>902</ele></trkpt>
      <trkpt lat="47.633606" lon="10.470723"><ele>903</ele></trkpt>
      <trkpt lat="47.633762" lon="10.471286"><ele>904</ele></trkpt>
      <trkpt lat="47.633874" lon="10.471352"><ele>906</ele></trkpt>
      <trkpt lat="47.634012" lon="10.471454"><ele>907</ele></trkpt>
      <trkpt lat="47.634080" lon="10.471449"><ele>908</ele></trkpt>
      <trkpt lat="47.634148" lon="10.471408"><ele>908</ele></trkpt>
      <trkpt lat="47.634263" lon="10.471233"><ele>910</ele></trkpt>
      <trkpt lat="47.634437" lon="10.470994"><ele>912</ele></trkpt>
      <trkpt lat="47.634860" lon="10.470525"><ele>912</ele></trkpt>
      <trkpt lat="47.635045" lon="10.470304"><ele>911</ele></trkpt>
      <trkpt lat="47.635189" lon="10.470067"><ele>910</ele></trkpt>
      <trkpt lat="47.635403" lon="10.469694"><ele>910</ele></trkpt>
      <trkpt lat="47.635548" lon="10.469375"><ele>909</ele></trkpt>
      <trkpt lat="47.635731" lon="10.468798"><ele>908</ele></trkpt>
      <trkpt lat="47.635939" lon="10.468048"><ele>908</ele></trkpt>
      <trkpt lat="47.635949" lon="10.467966"><ele>908</ele></trkpt>
      <trkpt lat="47.635906" lon="10.467738"><ele>908</ele></trkpt>
      <trkpt lat="47.635908" lon="10.467649"><ele>908</ele></trkpt>
      <trkpt lat="47.635945" lon="10.467553"><ele>907</ele></trkpt>
      <trkpt lat="47.635979" lon="10.467467"><ele>906</ele></trkpt>
      <trkpt lat="47.636032" lon="10.467393"><ele>906</ele></trkpt>
      <trkpt lat="47.636052" lon="10.467370"><ele>906</ele></trkpt>
      <trkpt lat="47.636121" lon="10.467368"><ele>906</ele></trkpt>
      <trkpt lat="47.636192" lon="10.467325"><ele>906</ele></trkpt>
      <trkpt lat="47.636257" lon="10.467222"><ele>906</ele></trkpt>
      <trkpt lat="47.636325" lon="10.467224"><ele>906</ele></trkpt>
      <trkpt lat="47.636359" lon="10.467182"><ele>906</ele></trkpt>
      <trkpt lat="47.636432" lon="10.466955"><ele>906</ele></trkpt>
      <trkpt lat="47.637360" lon="10.464068"><ele>910</ele></trkpt>
      <trkpt lat="47.637444" lon="10.463819"><ele>911</ele></trkpt>
      <trkpt lat="47.638078" lon="10.461881"><ele>918</ele></trkpt>
      <trkpt lat="47.638257" lon="10.461383"><ele>921</ele></trkpt>
      <trkpt lat="47.638417" lon="10.461027"><ele>923</ele></trkpt>
      <trkpt lat="47.638645" lon="10.460599"><ele>925</ele></trkpt>
      <trkpt lat="47.638899" lon="10.460177"><ele>925</ele></trkpt>
      <trkpt lat="47.639266" lon="10.459655"><ele>925</ele></trkpt>
      <trkpt lat="47.639477" lon="10.459331"><ele>925</ele></trkpt>
      <trkpt lat="47.640210" lon="10.458656"><ele>930</ele></trkpt>
      <trkpt lat="47.641040" lon="10.457858"><ele>934</ele></trkpt>
      <trkpt lat="47.641291" lon="10.457594"><ele>934</ele></trkpt>
      <trkpt lat="47.641500" lon="10.457364"><ele>934</ele></trkpt>
      <trkpt lat="47.641663" lon="10.457142"><ele>935</ele></trkpt>
      <trkpt lat="47.641834" lon="10.456886"><ele>935</ele></trkpt>
      <trkpt lat="47.642458" lon="10.455815"><ele>935</ele></trkpt>
      <trkpt lat="47.642505" lon="10.455737"><ele>935</ele></trkpt>
      <trkpt lat="47.642782" lon="10.455421"><ele>935</ele></trkpt>
      <trkpt lat="47.642849" lon="10.455344"><ele>936</ele></trkpt>
      <trkpt lat="47.642929" lon="10.455253"><ele>936</ele></trkpt>
      <trkpt lat="47.643141" lon="10.455053"><ele>937</ele></trkpt>
      <trkpt lat="47.643249" lon="10.454847"><ele>938</ele></trkpt>
      <trkpt lat="47.643315" lon="10.454664"><ele>938</ele></trkpt>
      <trkpt lat="47.643332" lon="10.454468"><ele>938</ele></trkpt>
      <trkpt lat="47.643334" lon="10.454197"><ele>939</ele></trkpt>
      <trkpt lat="47.643306" lon="10.453878"><ele>940</ele></trkpt>
      <trkpt lat="47.643363" lon="10.453817"><ele>940</ele></trkpt>
      <trkpt lat="47.643665" lon="10.453552"><ele>941</ele></trkpt>
      <trkpt lat="47.643878" lon="10.453250"><ele>940</ele></trkpt>
      <trkpt lat="47.644032" lon="10.452951"><ele>939</ele></trkpt>
      <trkpt lat="47.644149" lon="10.452616"><ele>940</ele></trkpt>
      <trkpt lat="47.644478" lon="10.452139"><ele>942</ele></trkpt>
      <trkpt lat="47.644406" lon="10.451994"><ele>944</ele></trkpt>
      <trkpt lat="47.644363" lon="10.451919"><ele>944</ele></trkpt>
      <trkpt lat="47.644311" lon="10.451846"><ele>945</ele></trkpt>
      <trkpt lat="47.643823" lon="10.451498"><ele>950</ele></trkpt>
      <trkpt lat="47.643420" lon="10.451155"><ele>954</ele></trkpt>
      <trkpt lat="47.643362" lon="10.451070"><ele>956</ele></trkpt>
      <trkpt lat="47.643322" lon="10.450973"><ele>957</ele></trkpt>
      <trkpt lat="47.643310" lon="10.450894"><ele>957</ele></trkpt>
      <trkpt lat="47.643312" lon="10.450749"><ele>958</ele></trkpt>
      <trkpt lat="47.643337" lon="10.450589"><ele>960</ele></trkpt>
      <trkpt lat="47.643475" lon="10.450083"><ele>964</ele></trkpt>
      <trkpt lat="47.643554" lon="10.449831"><ele>965</ele></trkpt>
      <trkpt lat="47.643711" lon="10.449471"><ele>968</ele></trkpt>
      <trkpt lat="47.643734" lon="10.449274"><ele>968</ele></trkpt>
      <trkpt lat="47.643741" lon="10.449056"><ele>969</ele></trkpt>
      <trkpt lat="47.643736" lon="10.448742"><ele>970</ele></trkpt>
      <trkpt lat="47.643679" lon="10.448127"><ele>972</ele></trkpt>
      <trkpt lat="47.643664" lon="10.447744"><ele>975</ele></trkpt>
      <trkpt lat="47.643650" lon="10.447147"><ele>977</ele></trkpt>
      <trkpt lat="47.643637" lon="10.446869"><ele>978</ele></trkpt>
      <trkpt lat="47.643589" lon="10.446558"><ele>978</ele></trkpt>
      <trkpt lat="47.643521" lon="10.446246"><ele>979</ele></trkpt>
      <trkpt lat="47.643351" lon="10.445659"><ele>979</ele></trkpt>
      <trkpt lat="47.643218" lon="10.445127"><ele>979</ele></trkpt>
      <trkpt lat="47.643017" lon="10.444610"><ele>978</ele></trkpt>
      <trkpt lat="47.642882" lon="10.444292"><ele>978</ele></trkpt>
      <trkpt lat="47.642759" lon="10.443906"><ele>980</ele></trkpt>
      <trkpt lat="47.642627" lon="10.443323"><ele>983</ele></trkpt>
      <trkpt lat="47.642597" lon="10.443160"><ele>984</ele></trkpt>
    </trkseg></trk>
</gpx>
