<?xml version="1.0" encoding="UTF-8"?>
<gpx version="1.1" creator="radtour" xmlns="http://www.topografix.com/GPX/1/1">
  <metadata><name>Bozen-Oy 3.1 Bozen - Meran</name></metadata>
  <trk><name>Bozen-Oy 3.1 Bozen - Meran</name><trkseg>
      <trkpt lat="46.498310" lon="11.354960"><ele>266</ele></trkpt>
      <trkpt lat="46.498293" lon="11.354963"><ele>266</ele></trkpt>
      <trkpt lat="46.498100" lon="11.354990"><ele>266</ele></trkpt>
      <trkpt lat="46.498087" lon="11.354602"><ele>266</ele></trkpt>
      <trkpt lat="46.497905" lon="11.354378"><ele>266</ele></trkpt>
      <trkpt lat="46.497849" lon="11.354021"><ele>266</ele></trkpt>
      <trkpt lat="46.497777" lon="11.353711"><ele>266</ele></trkpt>
      <trkpt lat="46.497760" lon="11.353585"><ele>266</ele></trkpt>
      <trkpt lat="46.497763" lon="11.353394"><ele>266</ele></trkpt>
      <trkpt lat="46.497712" lon="11.353390"><ele>266</ele></trkpt>
      <trkpt lat="46.497436" lon="11.353393"><ele>265</ele></trkpt>
      <trkpt lat="46.497263" lon="11.353449"><ele>264</ele></trkpt>
      <trkpt lat="46.497206" lon="11.353456"><ele>264</ele></trkpt>
      <trkpt lat="46.496774" lon="11.353503"><ele>263</ele></trkpt>
      <trkpt lat="46.496117" lon="11.353554"><ele>262</ele></trkpt>
      <trkpt lat="46.496023" lon="11.353528"><ele>262</ele></trkpt>
      <trkpt lat="46.495889" lon="11.353450"><ele>262</ele></trkpt>
      <trkpt lat="46.495804" lon="11.353365"><ele>262</ele></trkpt>
      <trkpt lat="46.495670" lon="11.353253"><ele>262</ele></trkpt>
      <trkpt lat="46.495546" lon="11.353202"><ele>263</ele></trkpt>
      <trkpt lat="46.495468" lon="11.353240"><ele>263</ele></trkpt>
      <trkpt lat="46.495386" lon="11.353429"><ele>263</ele></trkpt>
      <trkpt lat="46.495270" lon="11.353974"><ele>263</ele></trkpt>
      <trkpt lat="46.495225" lon="11.353949"><ele>263</ele></trkpt>
      <trkpt lat="46.495202" lon="11.353937"><ele>263</ele></trkpt>
      <trkpt lat="46.495117" lon="11.353887"><ele>263</ele></trkpt>
      <trkpt lat="46.495042" lon="11.353841"><ele>263</ele></trkpt>
      <trkpt lat="46.494989" lon="11.353888"><ele>263</ele></trkpt>
      <trkpt lat="46.494936" lon="11.353910"><ele>263</ele></trkpt>
      <trkpt lat="46.494883" lon="11.353921"><ele>264</ele></trkpt>
      <trkpt lat="46.494770" lon="11.353906"><ele>264</ele></trkpt>
      <trkpt lat="46.494638" lon="11.353865"><ele>264</ele></trkpt>
      <trkpt lat="46.494613" lon="11.353858"><ele>264</ele></trkpt>
      <trkpt lat="46.494615" lon="11.353836"><ele>264</ele></trkpt>
      <trkpt lat="46.494633" lon="11.353392"><ele>262</ele></trkpt>
      <trkpt lat="46.494616" lon="11.353061"><ele>262</ele></trkpt>
      <trkpt lat="46.494592" lon="11.353014"><ele>262</ele></trkpt>
      <trkpt lat="46.494541" lon="11.352625"><ele>262</ele></trkpt>
      <trkpt lat="46.494431" lon="11.352131"><ele>263</ele></trkpt>
      <trkpt lat="46.494300" lon="11.351443"><ele>262</ele></trkpt>
      <trkpt lat="46.494247" lon="11.351199"><ele>263</ele></trkpt>
      <trkpt lat="46.494116" lon="11.350588"><ele>260</ele></trkpt>
      <trkpt lat="46.493974" lon="11.349997"><ele>262</ele></trkpt>
      <trkpt lat="46.493868" lon="11.349407"><ele>264</ele></trkpt>
      <trkpt lat="46.493850" lon="11.349283"><ele>264</ele></trkpt>
      <trkpt lat="46.493833" lon="11.349065"><ele>263</ele></trkpt>
      <trkpt lat="46.493819" lon="11.348994"><ele>262</ele></trkpt>
      <trkpt lat="46.493818" lon="11.348969"><ele>262</ele></trkpt>
      <trkpt lat="46.493834" lon="11.347674"><ele>264</ele></trkpt>
      <trkpt lat="46.493836" lon="11.347606"><ele>264</ele></trkpt>
      <trkpt lat="46.493825" lon="11.347241"><ele>263</ele></trkpt>
      <trkpt lat="46.493792" lon="11.346960"><ele>262</ele></trkpt>
      <trkpt lat="46.493670" lon="11.346497"><ele>262</ele></trkpt>
      <trkpt lat="46.493556" lon="11.346237"><ele>261</ele></trkpt>
      <trkpt lat="46.493428" lon="11.345987"><ele>260</ele></trkpt>
      <trkpt lat="46.493270" lon="11.345717"><ele>260</ele></trkpt>
      <trkpt lat="46.493228" lon="11.345667"><ele>260</ele></trkpt>
      <trkpt lat="46.492839" lon="11.345353"><ele>259</ele></trkpt>
      <trkpt lat="46.492586" lon="11.345136"><ele>258</ele></trkpt>
      <trkpt lat="46.492287" lon="11.344884"><ele>258</ele></trkpt>
      <trkpt lat="46.492002" lon="11.344635"><ele>258</ele></trkpt>
      <trkpt lat="46.491878" lon="11.344533"><ele>258</ele></trkpt>
      <trkpt lat="46.491764" lon="11.344466"><ele>259</ele></trkpt>
      <trkpt lat="46.491630" lon="11.344371"><ele>259</ele></trkpt>
      <trkpt lat="46.491025" lon="11.343872"><ele>258</ele></trkpt>
      <trkpt lat="46.490856" lon="11.343691"><ele>258</ele></trkpt>
      <trkpt lat="46.490620" lon="11.343389"><ele>259</ele></trkpt>
      <trkpt lat="46.490466" lon="11.343131"><ele>258</ele></trkpt>
      <trkpt lat="46.490300" lon="11.342830"><ele>260</ele></trkpt>
      <trkpt lat="46.490250" lon="11.342838"><ele>259</ele></trkpt>
      <trkpt lat="46.490150" lon="11.342797"><ele>259</ele></trkpt>
      <trkpt lat="46.490129" lon="11.342773"><ele>259</ele></trkpt>
      <trkpt lat="46.490050" lon="11.342684"><ele>258</ele></trkpt>
      <trkpt lat="46.489922" lon="11.342494"><ele>257</ele></trkpt>
      <trkpt lat="46.489912" lon="11.342455"><ele>257</ele></trkpt>
      <trkpt lat="46.489857" lon="11.342228"><ele>257</ele></trkpt>
      <trkpt lat="46.489796" lon="11.341969"><ele>258</ele></trkpt>
      <trkpt lat="46.489787" lon="11.341890"><ele>258</ele></trkpt>
      <trkpt lat="46.489793" lon="11.341822"><ele>258</ele></trkpt>
      <trkpt lat="46.489804" lon="11.341768"><ele>258</ele></trkpt>
      <trkpt lat="46.489780" lon="11.341659"><ele>258</ele></trkpt>
      <trkpt lat="46.489760" lon="11.341574"><ele>258</ele></trkpt>
      <trkpt lat="46.489701" lon="11.341282"><ele>258</ele></trkpt>
      <trkpt lat="46.489105" lon="11.338669"><ele>256</ele></trkpt>
      <trkpt lat="46.488701" lon="11.337322"><ele>254</ele></trkpt>
      <trkpt lat="46.488581" lon="11.336882"><ele>256</ele></trkpt>
      <trkpt lat="46.488441" lon="11.336318"><ele>254</ele></trkpt>
      <trkpt lat="46.488373" lon="11.335914"><ele>254</ele></trkpt>
      <trkpt lat="46.488309" lon="11.335611"><ele>254</ele></trkpt>
      <trkpt lat="46.488049" lon="11.334399"><ele>254</ele></trkpt>
      <trkpt lat="46.488043" lon="11.334343"><ele>254</ele></trkpt>
      <trkpt lat="46.487929" lon="11.333754"><ele>253</ele></trkpt>
      <trkpt lat="46.487800" lon="11.333387"><ele>254</ele></trkpt>
      <trkpt lat="46.487645" lon="11.332994"><ele>252</ele></trkpt>
      <trkpt lat="46.487445" lon="11.332511"><ele>252</ele></trkpt>
      <trkpt lat="46.487289" lon="11.332099"><ele>252</ele></trkpt>
      <trkpt lat="46.487268" lon="11.332023"><ele>253</ele></trkpt>
      <trkpt lat="46.487255" lon="11.331928"><ele>254</ele></trkpt>
      <trkpt lat="46.487248" lon="11.331834"><ele>253</ele></trkpt>
      <trkpt lat="46.487232" lon="11.331740"><ele>253</ele></trkpt>
      <trkpt lat="46.487142" lon="11.331458"><ele>252</ele></trkpt>
      <trkpt lat="46.487112" lon="11.331313"><ele>252</ele></trkpt>
      <trkpt lat="46.487038" lon="11.331088"><ele>253</ele></trkpt>
      <trkpt lat="46.486997" lon="11.331014"><ele>253</ele></trkpt>
      <trkpt lat="46.486917" lon="11.330785"><ele>252</ele></trkpt>
      <trkpt lat="46.486899" lon="11.330748"><ele>252</ele></trkpt>
      <trkpt lat="46.486818" lon="11.330661"><ele>251</ele></trkpt>
      <trkpt lat="46.486780" lon="11.330598"><ele>251</ele></trkpt>
      <trkpt lat="46.486747" lon="11.330509"><ele>251</ele></trkpt>
      <trkpt lat="46.486581" lon="11.330006"><ele>250</ele></trkpt>
      <trkpt lat="46.486307" lon="11.329225"><ele>251</ele></trkpt>
      <trkpt lat="46.486254" lon="11.329068"><ele>250</ele></trkpt>
      <trkpt lat="46.486224" lon="11.328904"><ele>251</ele></trkpt>
      <trkpt lat="46.486234" lon="11.328757"><ele>251</ele></trkpt>
      <trkpt lat="46.486197" lon="11.328615"><ele>251</ele></trkpt>
      <trkpt lat="46.486066" lon="11.328358"><ele>251</ele></trkpt>
      <trkpt lat="46.485888" lon="11.328083"><ele>250</ele></trkpt>
      <trkpt lat="46.485793" lon="11.328043"><ele>250</ele></trkpt>
      <trkpt lat="46.485650" lon="11.327897"><ele>251</ele></trkpt>
      <trkpt lat="46.485082" lon="11.326973"><ele>250</ele></trkpt>
      <trkpt lat="46.484896" lon="11.326694"><ele>250</ele></trkpt>
      <trkpt lat="46.484726" lon="11.326436"><ele>251</ele></trkpt>
      <trkpt lat="46.484566" lon="11.326231"><ele>250</ele></trkpt>
      <trkpt lat="46.483789" lon="11.325131"><ele>249</ele></trkpt>
      <trkpt lat="46.483226" lon="11.324316"><ele>249</ele></trkpt>
      <trkpt lat="46.483008" lon="11.323955"><ele>249</ele></trkpt>
      <trkpt lat="46.482850" lon="11.323696"><ele>250</ele></trkpt>
      <trkpt lat="46.482518" lon="11.323093"><ele>250</ele></trkpt>
      <trkpt lat="46.482492" lon="11.323017"><ele>250</ele></trkpt>
      <trkpt lat="46.482457" lon="11.322877"><ele>250</ele></trkpt>
      <trkpt lat="46.482406" lon="11.322556"><ele>251</ele></trkpt>
      <trkpt lat="46.482366" lon="11.322472"><ele>252</ele></trkpt>
      <trkpt lat="46.482257" lon="11.322299"><ele>250</ele></trkpt>
      <trkpt lat="46.482230" lon="11.322261"><ele>250</ele></trkpt>
      <trkpt lat="46.482170" lon="11.322207"><ele>250</ele></trkpt>
      <trkpt lat="46.482124" lon="11.322170"><ele>250</ele></trkpt>
      <trkpt lat="46.481886" lon="11.322026"><ele>250</ele></trkpt>
      <trkpt lat="46.481856" lon="11.322024"><ele>249</ele></trkpt>
      <trkpt lat="46.481835" lon="11.322052"><ele>249</ele></trkpt>
      <trkpt lat="46.481815" lon="11.322081"><ele>249</ele></trkpt>
      <trkpt lat="46.481802" lon="11.322100"><ele>249</ele></trkpt>
      <trkpt lat="46.481061" lon="11.320961"><ele>248</ele></trkpt>
      <trkpt lat="46.480645" lon="11.320319"><ele>248</ele></trkpt>
      <trkpt lat="46.479935" lon="11.319168"><ele>249</ele></trkpt>
      <trkpt lat="46.479759" lon="11.318863"><ele>248</ele></trkpt>
      <trkpt lat="46.479408" lon="11.318229"><ele>248</ele></trkpt>
      <trkpt lat="46.479189" lon="11.317828"><ele>247</ele></trkpt>
      <trkpt lat="46.479074" lon="11.317596"><ele>246</ele></trkpt>
      <trkpt lat="46.478935" lon="11.317337"><ele>246</ele></trkpt>
      <trkpt lat="46.478820" lon="11.317146"><ele>246</ele></trkpt>
      <trkpt lat="46.478476" lon="11.316707"><ele>246</ele></trkpt>
      <trkpt lat="46.478250" lon="11.316356"><ele>247</ele></trkpt>
      <trkpt lat="46.477408" lon="11.314992"><ele>246</ele></trkpt>
      <trkpt lat="46.477242" lon="11.314744"><ele>246</ele></trkpt>
      <trkpt lat="46.476808" lon="11.314099"><ele>245</ele></trkpt>
      <trkpt lat="46.476486" lon="11.313682"><ele>246</ele></trkpt>
      <trkpt lat="46.475968" lon="11.313113"><ele>244</ele></trkpt>
      <trkpt lat="46.475857" lon="11.312960"><ele>245</ele></trkpt>
      <trkpt lat="46.475808" lon="11.312898"><ele>245</ele></trkpt>
      <trkpt lat="46.475483" lon="11.312500"><ele>245</ele></trkpt>
      <trkpt lat="46.475194" lon="11.312138"><ele>245</ele></trkpt>
      <trkpt lat="46.474649" lon="11.311512"><ele>244</ele></trkpt>
      <trkpt lat="46.474078" lon="11.310970"><ele>244</ele></trkpt>
      <trkpt lat="46.473981" lon="11.310851"><ele>244</ele></trkpt>
      <trkpt lat="46.473898" lon="11.310777"><ele>245</ele></trkpt>
      <trkpt lat="46.473811" lon="11.310697"><ele>244</ele></trkpt>
      <trkpt lat="46.473726" lon="11.310636"><ele>244</ele></trkpt>
      <trkpt lat="46.473659" lon="11.310603"><ele>244</ele></trkpt>
      <trkpt lat="46.473542" lon="11.310492"><ele>244</ele></trkpt>
      <trkpt lat="46.473538" lon="11.310424"><ele>244</ele></trkpt>
      <trkpt lat="46.473558" lon="11.309882"><ele>242</ele></trkpt>
      <trkpt lat="46.473560" lon="11.309511"><ele>244</ele></trkpt>
      <trkpt lat="46.473596" lon="11.309449"><ele>245</ele></trkpt>
      <trkpt lat="46.473667" lon="11.309451"><ele>244</ele></trkpt>
      <trkpt lat="46.473963" lon="11.309461"><ele>244</ele></trkpt>
      <trkpt lat="46.474085" lon="11.309454"><ele>244</ele></trkpt>
      <trkpt lat="46.474575" lon="11.309361"><ele>241</ele></trkpt>
      <trkpt lat="46.474867" lon="11.309280"><ele>241</ele></trkpt>
      <trkpt lat="46.475136" lon="11.309187"><ele>243</ele></trkpt>
      <trkpt lat="46.475635" lon="11.308991"><ele>242</ele></trkpt>
      <trkpt lat="46.475874" lon="11.308876"><ele>243</ele></trkpt>
      <trkpt lat="46.476747" lon="11.308512"><ele>241</ele></trkpt>
      <trkpt lat="46.476965" lon="11.308430"><ele>241</ele></trkpt>
      <trkpt lat="46.477138" lon="11.308379"><ele>242</ele></trkpt>
      <trkpt lat="46.477414" lon="11.308338"><ele>243</ele></trkpt>
      <trkpt lat="46.477761" lon="11.308337"><ele>243</ele></trkpt>
      <trkpt lat="46.477955" lon="11.308361"><ele>242</ele></trkpt>
      <trkpt lat="46.478564" lon="11.308494"><ele>242</ele></trkpt>
      <trkpt lat="46.478714" lon="11.308499"><ele>242</ele></trkpt>
      <trkpt lat="46.478879" lon="11.308484"><ele>242</ele></trkpt>
      <trkpt lat="46.479067" lon="11.308435"><ele>242</ele></trkpt>
      <trkpt lat="46.479340" lon="11.308332"><ele>243</ele></trkpt>
      <trkpt lat="46.480279" lon="11.307849"><ele>242</ele></trkpt>
      <trkpt lat="46.480890" lon="11.307511"><ele>242</ele></trkpt>
      <trkpt lat="46.481299" lon="11.307260"><ele>242</ele></trkpt>
      <trkpt lat="46.481634" lon="11.306994"><ele>242</ele></trkpt>
      <trkpt lat="46.481965" lon="11.306698"><ele>242</ele></trkpt>
      <trkpt lat="46.482412" lon="11.306223"><ele>242</ele></trkpt>
      <trkpt lat="46.482575" lon="11.306006"><ele>242</ele></trkpt>
      <trkpt lat="46.482670" lon="11.305874"><ele>242</ele></trkpt>
      <trkpt lat="46.482792" lon="11.305599"><ele>242</ele></trkpt>
      <trkpt lat="46.482917" lon="11.305215"><ele>241</ele></trkpt>
      <trkpt lat="46.483060" lon="11.304699"><ele>244</ele></trkpt>
      <trkpt lat="46.483102" lon="11.304597"><ele>243</ele></trkpt>
      <trkpt lat="46.483075" lon="11.304520"><ele>242</ele></trkpt>
      <trkpt lat="46.482674" lon="11.303694"><ele>241</ele></trkpt>
      <trkpt lat="46.482603" lon="11.303539"><ele>242</ele></trkpt>
      <trkpt lat="46.482551" lon="11.303399"><ele>243</ele></trkpt>
      <trkpt lat="46.482716" lon="11.303407"><ele>242</ele></trkpt>
      <trkpt lat="46.482748" lon="11.303375"><ele>243</ele></trkpt>
      <trkpt lat="46.483806" lon="11.300235"><ele>242</ele></trkpt>
      <trkpt lat="46.483897" lon="11.299950"><ele>242</ele></trkpt>
      <trkpt lat="46.483997" lon="11.299575"><ele>240</ele></trkpt>
      <trkpt lat="46.484009" lon="11.299554"><ele>240</ele></trkpt>
      <trkpt lat="46.484115" lon="11.299460"><ele>239</ele></trkpt>
      <trkpt lat="46.484227" lon="11.299174"><ele>244</ele></trkpt>
      <trkpt lat="46.484287" lon="11.299217"><ele>242</ele></trkpt>
      <trkpt lat="46.484810" lon="11.299591"><ele>242</ele></trkpt>
      <trkpt lat="46.484895" lon="11.299651"><ele>243</ele></trkpt>
      <trkpt lat="46.484920" lon="11.299669"><ele>244</ele></trkpt>
      <trkpt lat="46.484942" lon="11.299609"><ele>244</ele></trkpt>
      <trkpt lat="46.484951" lon="11.299490"><ele>244</ele></trkpt>
      <trkpt lat="46.484931" lon="11.299208"><ele>243</ele></trkpt>
      <trkpt lat="46.484947" lon="11.299083"><ele>243</ele></trkpt>
      <trkpt lat="46.484969" lon="11.298989"><ele>243</ele></trkpt>
      <trkpt lat="46.485001" lon="11.298904"><ele>243</ele></trkpt>
      <trkpt lat="46.485078" lon="11.298760"><ele>242</ele></trkpt>
      <trkpt lat="46.485160" lon="11.298560"><ele>242</ele></trkpt>
      <trkpt lat="46.485211" lon="11.298368"><ele>243</ele></trkpt>
      <trkpt lat="46.485271" lon="11.298105"><ele>243</ele></trkpt>
      <trkpt lat="46.486086" lon="11.295688"><ele>242</ele></trkpt>
      <trkpt lat="46.486708" lon="11.293887"><ele>242</ele></trkpt>
      <trkpt lat="46.486945" lon="11.293292"><ele>244</ele></trkpt>
      <trkpt lat="46.487236" lon="11.292478"><ele>243</ele></trkpt>
      <trkpt lat="46.488060" lon="11.290059"><ele>243</ele></trkpt>
      <trkpt lat="46.488240" lon="11.289591"><ele>242</ele></trkpt>
      <trkpt lat="46.488416" lon="11.289214"><ele>242</ele></trkpt>
      <trkpt lat="46.488561" lon="11.288977"><ele>243</ele></trkpt>
      <trkpt lat="46.488796" lon="11.288655"><ele>243</ele></trkpt>
      <trkpt lat="46.489018" lon="11.288390"><ele>242</ele></trkpt>
      <trkpt lat="46.489302" lon="11.288106"><ele>242</ele></trkpt>
      <trkpt lat="46.489657" lon="11.287807"><ele>243</ele></trkpt>
      <trkpt lat="46.489907" lon="11.287640"><ele>242</ele></trkpt>
      <trkpt lat="46.490147" lon="11.287504"><ele>244</ele></trkpt>
      <trkpt lat="46.490338" lon="11.287417"><ele>242</ele></trkpt>
      <trkpt lat="46.490635" lon="11.287297"><ele>242</ele></trkpt>
      <trkpt lat="46.491509" lon="11.287042"><ele>243</ele></trkpt>
      <trkpt lat="46.491839" lon="11.286916"><ele>244</ele></trkpt>
      <trkpt lat="46.492165" lon="11.286752"><ele>242</ele></trkpt>
      <trkpt lat="46.492669" lon="11.286437"><ele>243</ele></trkpt>
      <trkpt lat="46.493024" lon="11.286169"><ele>244</ele></trkpt>
      <trkpt lat="46.493319" lon="11.285888"><ele>244</ele></trkpt>
      <trkpt lat="46.493609" lon="11.285548"><ele>244</ele></trkpt>
      <trkpt lat="46.493840" lon="11.285236"><ele>242</ele></trkpt>
      <trkpt lat="46.494032" lon="11.284943"><ele>243</ele></trkpt>
      <trkpt lat="46.494503" lon="11.284150"><ele>244</ele></trkpt>
      <trkpt lat="46.495759" lon="11.281954"><ele>243</ele></trkpt>
      <trkpt lat="46.495882" lon="11.281752"><ele>243</ele></trkpt>
      <trkpt lat="46.496916" lon="11.279981"><ele>244</ele></trkpt>
      <trkpt lat="46.497055" lon="11.279723"><ele>243</ele></trkpt>
      <trkpt lat="46.497342" lon="11.279135"><ele>244</ele></trkpt>
      <trkpt lat="46.497459" lon="11.278869"><ele>243</ele></trkpt>
      <trkpt lat="46.497712" lon="11.278179"><ele>243</ele></trkpt>
      <trkpt lat="46.497875" lon="11.277656"><ele>243</ele></trkpt>
      <trkpt lat="46.498028" lon="11.277099"><ele>244</ele></trkpt>
      <trkpt lat="46.498158" lon="11.276446"><ele>243</ele></trkpt>
      <trkpt lat="46.498259" lon="11.275792"><ele>243</ele></trkpt>
      <trkpt lat="46.498297" lon="11.275431"><ele>244</ele></trkpt>
      <trkpt lat="46.498326" lon="11.275080"><ele>245</ele></trkpt>
      <trkpt lat="46.498346" lon="11.274704"><ele>245</ele></trkpt>
      <trkpt lat="46.498366" lon="11.274003"><ele>245</ele></trkpt>
      <trkpt lat="46.498389" lon="11.273609"><ele>244</ele></trkpt>
      <trkpt lat="46.498453" lon="11.273148"><ele>243</ele></trkpt>
      <trkpt lat="46.498534" lon="11.272699"><ele>244</ele></trkpt>
      <trkpt lat="46.498679" lon="11.272162"><ele>244</ele></trkpt>
      <trkpt lat="46.498822" lon="11.271731"><ele>244</ele></trkpt>
      <trkpt lat="46.498950" lon="11.271429"><ele>244</ele></trkpt>
      <trkpt lat="46.499060" lon="11.271209"><ele>244</ele></trkpt>
      <trkpt lat="46.499271" lon="11.270708"><ele>243</ele></trkpt>
      <trkpt lat="46.499375" lon="11.270529"><ele>244</ele></trkpt>
      <trkpt lat="46.499494" lon="11.270351"><ele>243</ele></trkpt>
      <trkpt lat="46.499631" lon="11.270163"><ele>243</ele></trkpt>
      <trkpt lat="46.499955" lon="11.269819"><ele>244</ele></trkpt>
      <trkpt lat="46.500160" lon="11.269616"><ele>244</ele></trkpt>
      <trkpt lat="46.500376" lon="11.269424"><ele>244</ele></trkpt>
      <trkpt lat="46.500555" lon="11.269290"><ele>244</ele></trkpt>
      <trkpt lat="46.500943" lon="11.269052"><ele>244</ele></trkpt>
      <trkpt lat="46.501933" lon="11.268483"><ele>244</ele></trkpt>
      <trkpt lat="46.503781" lon="11.267428"><ele>244</ele></trkpt>
      <trkpt lat="46.505038" lon="11.266726"><ele>245</ele></trkpt>
      <trkpt lat="46.506073" lon="11.266136"><ele>246</ele></trkpt>
      <trkpt lat="46.506894" lon="11.265667"><ele>245</ele></trkpt>
      <trkpt lat="46.507006" lon="11.265592"><ele>246</ele></trkpt>
      <trkpt lat="46.507305" lon="11.265366"><ele>244</ele></trkpt>
      <trkpt lat="46.507556" lon="11.265214"><ele>245</ele></trkpt>
      <trkpt lat="46.508627" lon="11.264623"><ele>245</ele></trkpt>
      <trkpt lat="46.508694" lon="11.264585"><ele>244</ele></trkpt>
      <trkpt lat="46.508954" lon="11.264435"><ele>245</ele></trkpt>
      <trkpt lat="46.509142" lon="11.264315"><ele>244</ele></trkpt>
      <trkpt lat="46.509390" lon="11.264146"><ele>245</ele></trkpt>
      <trkpt lat="46.509601" lon="11.263978"><ele>245</ele></trkpt>
      <trkpt lat="46.509814" lon="11.263790"><ele>245</ele></trkpt>
      <trkpt lat="46.510028" lon="11.263587"><ele>246</ele></trkpt>
      <trkpt lat="46.510269" lon="11.263324"><ele>246</ele></trkpt>
      <trkpt lat="46.510421" lon="11.263139"><ele>245</ele></trkpt>
      <trkpt lat="46.510591" lon="11.262917"><ele>245</ele></trkpt>
      <trkpt lat="46.510728" lon="11.262725"><ele>244</ele></trkpt>
      <trkpt lat="46.511012" lon="11.262280"><ele>245</ele></trkpt>
      <trkpt lat="46.511207" lon="11.261929"><ele>244</ele></trkpt>
      <trkpt lat="46.511344" lon="11.261658"><ele>246</ele></trkpt>
      <trkpt lat="46.511570" lon="11.261172"><ele>245</ele></trkpt>
      <trkpt lat="46.511672" lon="11.260897"><ele>247</ele></trkpt>
      <trkpt lat="46.511836" lon="11.260605"><ele>244</ele></trkpt>
      <trkpt lat="46.512567" lon="11.259015"><ele>245</ele></trkpt>
      <trkpt lat="46.513777" lon="11.256356"><ele>245</ele></trkpt>
      <trkpt lat="46.514336" lon="11.255075"><ele>245</ele></trkpt>
      <trkpt lat="46.514521" lon="11.254635"><ele>245</ele></trkpt>
      <trkpt lat="46.514818" lon="11.253970"><ele>245</ele></trkpt>
      <trkpt lat="46.514908" lon="11.253794"><ele>245</ele></trkpt>
      <trkpt lat="46.515087" lon="11.253478"><ele>246</ele></trkpt>
      <trkpt lat="46.515393" lon="11.253095"><ele>246</ele></trkpt>
      <trkpt lat="46.515511" lon="11.252972"><ele>246</ele></trkpt>
      <trkpt lat="46.516533" lon="11.252022"><ele>247</ele></trkpt>
      <trkpt lat="46.516718" lon="11.251829"><ele>247</ele></trkpt>
      <trkpt lat="46.517077" lon="11.251396"><ele>247</ele></trkpt>
      <trkpt lat="46.517631" lon="11.250581"><ele>247</ele></trkpt>
      <trkpt lat="46.518644" lon="11.249078"><ele>247</ele></trkpt>
      <trkpt lat="46.518900" lon="11.248739"><ele>246</ele></trkpt>
      <trkpt lat="46.519031" lon="11.248587"><ele>246</ele></trkpt>
      <trkpt lat="46.519163" lon="11.248445"><ele>246</ele></trkpt>
      <trkpt lat="46.520129" lon="11.247475"><ele>246</ele></trkpt>
      <trkpt lat="46.520399" lon="11.247263"><ele>246</ele></trkpt>
      <trkpt lat="46.520567" lon="11.247157"><ele>246</ele></trkpt>
      <trkpt lat="46.520890" lon="11.246997"><ele>246</ele></trkpt>
      <trkpt lat="46.521107" lon="11.246929"><ele>248</ele></trkpt>
      <trkpt lat="46.521208" lon="11.246886"><ele>247</ele></trkpt>
      <trkpt lat="46.521472" lon="11.246729"><ele>246</ele></trkpt>
      <trkpt lat="46.521575" lon="11.246636"><ele>247</ele></trkpt>
      <trkpt lat="46.521629" lon="11.246585"><ele>246</ele></trkpt>
      <trkpt lat="46.522141" lon="11.246251"><ele>246</ele></trkpt>
      <trkpt lat="46.522358" lon="11.246119"><ele>246</ele></trkpt>
      <trkpt lat="46.522481" lon="11.246045"><ele>246</ele></trkpt>
      <trkpt lat="46.522904" lon="11.245796"><ele>247</ele></trkpt>
      <trkpt lat="46.523233" lon="11.245635"><ele>247</ele></trkpt>
      <trkpt lat="46.523295" lon="11.245628"><ele>247</ele></trkpt>
      <trkpt lat="46.523353" lon="11.245618"><ele>248</ele></trkpt>
      <trkpt lat="46.523419" lon="11.245590"><ele>248</ele></trkpt>
      <trkpt lat="46.524540" lon="11.244895"><ele>247</ele></trkpt>
      <trkpt lat="46.529292" lon="11.242026"><ele>247</ele></trkpt>
      <trkpt lat="46.529352" lon="11.241982"><ele>248</ele></trkpt>
      <trkpt lat="46.529392" lon="11.241931"><ele>248</ele></trkpt>
      <trkpt lat="46.529439" lon="11.241880"><ele>247</ele></trkpt>
      <trkpt lat="46.529516" lon="11.241819"><ele>246</ele></trkpt>
      <trkpt lat="46.530323" lon="11.241295"><ele>248</ele></trkpt>
      <trkpt lat="46.530546" lon="11.241165"><ele>248</ele></trkpt>
      <trkpt lat="46.530672" lon="11.241080"><ele>248</ele></trkpt>
      <trkpt lat="46.530998" lon="11.240899"><ele>247</ele></trkpt>
      <trkpt lat="46.531394" lon="11.240706"><ele>248</ele></trkpt>
      <trkpt lat="46.531463" lon="11.240701"><ele>248</ele></trkpt>
      <trkpt lat="46.531524" lon="11.240681"><ele>248</ele></trkpt>
      <trkpt lat="46.531646" lon="11.240592"><ele>250</ele></trkpt>
      <trkpt lat="46.532138" lon="11.240264"><ele>248</ele></trkpt>
      <trkpt lat="46.532741" lon="11.239808"><ele>248</ele></trkpt>
      <trkpt lat="46.533363" lon="11.239277"><ele>249</ele></trkpt>
      <trkpt lat="46.533663" lon="11.238996"><ele>249</ele></trkpt>
      <trkpt lat="46.533893" lon="11.238767"><ele>249</ele></trkpt>
      <trkpt lat="46.534365" lon="11.238198"><ele>248</ele></trkpt>
      <trkpt lat="46.534834" lon="11.237656"><ele>248</ele></trkpt>
      <trkpt lat="46.534996" lon="11.237479"><ele>248</ele></trkpt>
      <trkpt lat="46.535592" lon="11.236893"><ele>249</ele></trkpt>
      <trkpt lat="46.535876" lon="11.236643"><ele>248</ele></trkpt>
      <trkpt lat="46.536135" lon="11.236439"><ele>248</ele></trkpt>
      <trkpt lat="46.537008" lon="11.235810"><ele>248</ele></trkpt>
      <trkpt lat="46.538041" lon="11.235051"><ele>249</ele></trkpt>
      <trkpt lat="46.538255" lon="11.234920"><ele>249</ele></trkpt>
      <trkpt lat="46.538378" lon="11.234863"><ele>248</ele></trkpt>
      <trkpt lat="46.538610" lon="11.234783"><ele>249</ele></trkpt>
      <trkpt lat="46.538913" lon="11.234640"><ele>249</ele></trkpt>
      <trkpt lat="46.539105" lon="11.234534"><ele>249</ele></trkpt>
      <trkpt lat="46.539319" lon="11.234381"><ele>250</ele></trkpt>
      <trkpt lat="46.540005" lon="11.233799"><ele>248</ele></trkpt>
      <trkpt lat="46.540374" lon="11.233502"><ele>248</ele></trkpt>
      <trkpt lat="46.540615" lon="11.233287"><ele>249</ele></trkpt>
      <trkpt lat="46.540818" lon="11.233076"><ele>250</ele></trkpt>
      <trkpt lat="46.540976" lon="11.232889"><ele>248</ele></trkpt>
      <trkpt lat="46.541143" lon="11.232677"><ele>249</ele></trkpt>
      <trkpt lat="46.541262" lon="11.232501"><ele>248</ele></trkpt>
      <trkpt lat="46.541468" lon="11.232180"><ele>248</ele></trkpt>
      <trkpt lat="46.541722" lon="11.231699"><ele>249</ele></trkpt>
      <trkpt lat="46.541950" lon="11.231196"><ele>250</ele></trkpt>
      <trkpt lat="46.542236" lon="11.230484"><ele>250</ele></trkpt>
      <trkpt lat="46.542511" lon="11.229769"><ele>251</ele></trkpt>
      <trkpt lat="46.542777" lon="11.229099"><ele>251</ele></trkpt>
      <trkpt lat="46.542965" lon="11.228691"><ele>250</ele></trkpt>
      <trkpt lat="46.543048" lon="11.228488"><ele>251</ele></trkpt>
      <trkpt lat="46.543139" lon="11.228189"><ele>250</ele></trkpt>
      <trkpt lat="46.543604" lon="11.226798"><ele>250</ele></trkpt>
      <trkpt lat="46.543717" lon="11.226530"><ele>249</ele></trkpt>
      <trkpt lat="46.543860" lon="11.226244"><ele>250</ele></trkpt>
      <trkpt lat="46.543956" lon="11.226077"><ele>250</ele></trkpt>
      <trkpt lat="46.544134" lon="11.225816"><ele>250</ele></trkpt>
      <trkpt lat="46.544264" lon="11.225651"><ele>250</ele></trkpt>
      <trkpt lat="46.544445" lon="11.225492"><ele>251</ele></trkpt>
      <trkpt lat="46.544760" lon="11.225265"><ele>251</ele></trkpt>
      <trkpt lat="46.544923" lon="11.225167"><ele>250</ele></trkpt>
      <trkpt lat="46.545061" lon="11.225103"><ele>249</ele></trkpt>
      <trkpt lat="46.545256" lon="11.225033"><ele>250</ele></trkpt>
      <trkpt lat="46.545384" lon="11.224997"><ele>250</ele></trkpt>
      <trkpt lat="46.545657" lon="11.224965"><ele>251</ele></trkpt>
      <trkpt lat="46.545812" lon="11.224936"><ele>250</ele></trkpt>
      <trkpt lat="46.546201" lon="11.224827"><ele>249</ele></trkpt>
      <trkpt lat="46.546706" lon="11.224725"><ele>251</ele></trkpt>
      <trkpt lat="46.547025" lon="11.224682"><ele>250</ele></trkpt>
      <trkpt lat="46.547362" lon="11.224613"><ele>250</ele></trkpt>
      <trkpt lat="46.548129" lon="11.224416"><ele>251</ele></trkpt>
      <trkpt lat="46.548439" lon="11.224302"><ele>250</ele></trkpt>
      <trkpt lat="46.548657" lon="11.224204"><ele>250</ele></trkpt>
      <trkpt lat="46.548889" lon="11.224086"><ele>250</ele></trkpt>
      <trkpt lat="46.549463" lon="11.223724"><ele>250</ele></trkpt>
      <trkpt lat="46.549957" lon="11.223332"><ele>251</ele></trkpt>
      <trkpt lat="46.550328" lon="11.222961"><ele>250</ele></trkpt>
      <trkpt lat="46.550503" lon="11.222771"><ele>251</ele></trkpt>
      <trkpt lat="46.550797" lon="11.222379"><ele>250</ele></trkpt>
      <trkpt lat="46.550890" lon="11.222256"><ele>250</ele></trkpt>
      <trkpt lat="46.551004" lon="11.222083"><ele>250</ele></trkpt>
      <trkpt lat="46.551592" lon="11.221125"><ele>251</ele></trkpt>
      <trkpt lat="46.551865" lon="11.220741"><ele>250</ele></trkpt>
      <trkpt lat="46.552174" lon="11.220416"><ele>251</ele></trkpt>
      <trkpt lat="46.552438" lon="11.220181"><ele>250</ele></trkpt>
      <trkpt lat="46.552722" lon="11.219974"><ele>251</ele></trkpt>
      <trkpt lat="46.553131" lon="11.219764"><ele>251</ele></trkpt>
      <trkpt lat="46.553544" lon="11.219616"><ele>250</ele></trkpt>
      <trkpt lat="46.553936" lon="11.219502"><ele>250</ele></trkpt>
      <trkpt lat="46.554329" lon="11.219372"><ele>251</ele></trkpt>
      <trkpt lat="46.555105" lon="11.218989"><ele>251</ele></trkpt>
      <trkpt lat="46.555146" lon="11.218963"><ele>251</ele></trkpt>
      <trkpt lat="46.555241" lon="11.218903"><ele>252</ele></trkpt>
      <trkpt lat="46.555534" lon="11.218720"><ele>252</ele></trkpt>
      <trkpt lat="46.555633" lon="11.218670"><ele>252</ele></trkpt>
      <trkpt lat="46.555710" lon="11.218609"><ele>252</ele></trkpt>
      <trkpt lat="46.555773" lon="11.218529"><ele>252</ele></trkpt>
      <trkpt lat="46.556134" lon="11.218116"><ele>252</ele></trkpt>
      <trkpt lat="46.556267" lon="11.217987"><ele>251</ele></trkpt>
      <trkpt lat="46.556400" lon="11.217889"><ele>251</ele></trkpt>
      <trkpt lat="46.556632" lon="11.217757"><ele>252</ele></trkpt>
      <trkpt lat="46.556881" lon="11.217666"><ele>252</ele></trkpt>
      <trkpt lat="46.557130" lon="11.217615"><ele>251</ele></trkpt>
      <trkpt lat="46.557297" lon="11.217596"><ele>251</ele></trkpt>
      <trkpt lat="46.557467" lon="11.217592"><ele>251</ele></trkpt>
      <trkpt lat="46.557654" lon="11.217616"><ele>251</ele></trkpt>
      <trkpt lat="46.557823" lon="11.217651"><ele>251</ele></trkpt>
      <trkpt lat="46.557927" lon="11.217686"><ele>251</ele></trkpt>
      <trkpt lat="46.558106" lon="11.217782"><ele>251</ele></trkpt>
      <trkpt lat="46.558638" lon="11.218105"><ele>252</ele></trkpt>
      <trkpt lat="46.559226" lon="11.218449"><ele>251</ele></trkpt>
      <trkpt lat="46.559561" lon="11.218619"><ele>252</ele></trkpt>
      <trkpt lat="46.559673" lon="11.218658"><ele>252</ele></trkpt>
      <trkpt lat="46.559794" lon="11.218682"><ele>252</ele></trkpt>
      <trkpt lat="46.560011" lon="11.218695"><ele>252</ele></trkpt>
      <trkpt lat="46.560784" lon="11.218716"><ele>252</ele></trkpt>
      <trkpt lat="46.560854" lon="11.218709"><ele>252</ele></trkpt>
      <trkpt lat="46.560950" lon="11.218684"><ele>252</ele></trkpt>
      <trkpt lat="46.561665" lon="11.218339"><ele>252</ele></trkpt>
      <trkpt lat="46.561849" lon="11.218220"><ele>251</ele></trkpt>
      <trkpt lat="46.562086" lon="11.218047"><ele>252</ele></trkpt>
      <trkpt lat="46.562253" lon="11.217920"><ele>252</ele></trkpt>
      <trkpt lat="46.562371" lon="11.217816"><ele>252</ele></trkpt>
      <trkpt lat="46.562543" lon="11.217651"><ele>252</ele></trkpt>
      <trkpt lat="46.563290" lon="11.216850"><ele>252</ele></trkpt>
      <trkpt lat="46.565009" lon="11.214966"><ele>253</ele></trkpt>
      <trkpt lat="46.566945" lon="11.212888"><ele>252</ele></trkpt>
      <trkpt lat="46.567540" lon="11.212146"><ele>254</ele></trkpt>
      <trkpt lat="46.567733" lon="11.211880"><ele>253</ele></trkpt>
      <trkpt lat="46.567913" lon="11.211597"><ele>252</ele></trkpt>
      <trkpt lat="46.568168" lon="11.211171"><ele>252</ele></trkpt>
      <trkpt lat="46.568436" lon="11.210695"><ele>252</ele></trkpt>
      <trkpt lat="46.568645" lon="11.210283"><ele>254</ele></trkpt>
      <trkpt lat="46.570268" lon="11.206655"><ele>255</ele></trkpt>
      <trkpt lat="46.572035" lon="11.202683"><ele>254</ele></trkpt>
      <trkpt lat="46.572363" lon="11.202026"><ele>254</ele></trkpt>
      <trkpt lat="46.572619" lon="11.201566"><ele>254</ele></trkpt>
      <trkpt lat="46.572757" lon="11.201341"><ele>255</ele></trkpt>
      <trkpt lat="46.573012" lon="11.200949"><ele>254</ele></trkpt>
      <trkpt lat="46.573198" lon="11.200677"><ele>254</ele></trkpt>
      <trkpt lat="46.573529" lon="11.200225"><ele>254</ele></trkpt>
      <trkpt lat="46.573766" lon="11.199928"><ele>254</ele></trkpt>
      <trkpt lat="46.574204" lon="11.199436"><ele>255</ele></trkpt>
      <trkpt lat="46.574247" lon="11.199361"><ele>254</ele></trkpt>
      <trkpt lat="46.574291" lon="11.199290"><ele>254</ele></trkpt>
      <trkpt lat="46.574573" lon="11.198981"><ele>255</ele></trkpt>
      <trkpt lat="46.574656" lon="11.198926"><ele>255</ele></trkpt>
      <trkpt lat="46.574788" lon="11.198786"><ele>255</ele></trkpt>
      <trkpt lat="46.576739" lon="11.196588"><ele>256</ele></trkpt>
      <trkpt lat="46.576878" lon="11.196415"><ele>256</ele></trkpt>
      <trkpt lat="46.577180" lon="11.196097"><ele>256</ele></trkpt>
      <trkpt lat="46.580036" lon="11.192879"><ele>256</ele></trkpt>
      <trkpt lat="46.580518" lon="11.192350"><ele>256</ele></trkpt>
      <trkpt lat="46.580785" lon="11.192069"><ele>256</ele></trkpt>
      <trkpt lat="46.581275" lon="11.191601"><ele>256</ele></trkpt>
      <trkpt lat="46.581550" lon="11.191365"><ele>256</ele></trkpt>
      <trkpt lat="46.581822" lon="11.191144"><ele>256</ele></trkpt>
      <trkpt lat="46.582139" lon="11.190918"><ele>256</ele></trkpt>
      <trkpt lat="46.582552" lon="11.190639"><ele>256</ele></trkpt>
      <trkpt lat="46.582990" lon="11.190373"><ele>257</ele></trkpt>
      <trkpt lat="46.583441" lon="11.190141"><ele>256</ele></trkpt>
      <trkpt lat="46.583723" lon="11.190008"><ele>257</ele></trkpt>
      <trkpt lat="46.585615" lon="11.189116"><ele>258</ele></trkpt>
      <trkpt lat="46.585852" lon="11.189011"><ele>257</ele></trkpt>
      <trkpt lat="46.586125" lon="11.188904"><ele>256</ele></trkpt>
      <trkpt lat="46.586236" lon="11.188863"><ele>257</ele></trkpt>
      <trkpt lat="46.587009" lon="11.188575"><ele>258</ele></trkpt>
      <trkpt lat="46.587591" lon="11.188386"><ele>257</ele></trkpt>
      <trkpt lat="46.588133" lon="11.188230"><ele>258</ele></trkpt>
      <trkpt lat="46.588514" lon="11.188135"><ele>258</ele></trkpt>
      <trkpt lat="46.589476" lon="11.187940"><ele>258</ele></trkpt>
      <trkpt lat="46.591099" lon="11.187678"><ele>260</ele></trkpt>
      <trkpt lat="46.591996" lon="11.187565"><ele>259</ele></trkpt>
      <trkpt lat="46.592419" lon="11.187539"><ele>260</ele></trkpt>
      <trkpt lat="46.592963" lon="11.187536"><ele>259</ele></trkpt>
      <trkpt lat="46.593647" lon="11.187518"><ele>260</ele></trkpt>
      <trkpt lat="46.594369" lon="11.187457"><ele>260</ele></trkpt>
      <trkpt lat="46.595048" lon="11.187380"><ele>260</ele></trkpt>
      <trkpt lat="46.595791" lon="11.187280"><ele>259</ele></trkpt>
      <trkpt lat="46.596468" lon="11.187165"><ele>261</ele></trkpt>
      <trkpt lat="46.597020" lon="11.187031"><ele>260</ele></trkpt>
      <trkpt lat="46.597356" lon="11.186938"><ele>261</ele></trkpt>
      <trkpt lat="46.597638" lon="11.186844"><ele>260</ele></trkpt>
      <trkpt lat="46.599448" lon="11.186206"><ele>260</ele></trkpt>
      <trkpt lat="46.600024" lon="11.185999"><ele>260</ele></trkpt>
      <trkpt lat="46.601358" lon="11.185557"><ele>262</ele></trkpt>
      <trkpt lat="46.601774" lon="11.185427"><ele>261</ele></trkpt>
      <trkpt lat="46.602220" lon="11.185261"><ele>262</ele></trkpt>
      <trkpt lat="46.604258" lon="11.184583"><ele>262</ele></trkpt>
      <trkpt lat="46.604502" lon="11.184470"><ele>262</ele></trkpt>
      <trkpt lat="46.604771" lon="11.184331"><ele>262</ele></trkpt>
      <trkpt lat="46.606059" lon="11.183506"><ele>262</ele></trkpt>
      <trkpt lat="46.606706" lon="11.183074"><ele>262</ele></trkpt>
      <trkpt lat="46.608205" lon="11.182104"><ele>263</ele></trkpt>
      <trkpt lat="46.608612" lon="11.181831"><ele>263</ele></trkpt>
      <trkpt lat="46.609186" lon="11.181461"><ele>263</ele></trkpt>
      <trkpt lat="46.609310" lon="11.181390"><ele>264</ele></trkpt>
      <trkpt lat="46.609478" lon="11.181311"><ele>264</ele></trkpt>
      <trkpt lat="46.609929" lon="11.181205"><ele>264</ele></trkpt>
      <trkpt lat="46.610418" lon="11.181112"><ele>266</ele></trkpt>
      <trkpt lat="46.610914" lon="11.181168"><ele>265</ele></trkpt>
      <trkpt lat="46.611182" lon="11.181217"><ele>264</ele></trkpt>
      <trkpt lat="46.611467" lon="11.181297"><ele>264</ele></trkpt>
      <trkpt lat="46.611672" lon="11.181379"><ele>265</ele></trkpt>
      <trkpt lat="46.612040" lon="11.181562"><ele>264</ele></trkpt>
      <trkpt lat="46.612246" lon="11.181705"><ele>263</ele></trkpt>
      <trkpt lat="46.612478" lon="11.181885"><ele>263</ele></trkpt>
      <trkpt lat="46.612636" lon="11.182035"><ele>263</ele></trkpt>
      <trkpt lat="46.612777" lon="11.182192"><ele>264</ele></trkpt>
      <trkpt lat="46.613275" lon="11.182778"><ele>263</ele></trkpt>
      <trkpt lat="46.613529" lon="11.183043"><ele>264</ele></trkpt>
      <trkpt lat="46.613981" lon="11.183451"><ele>264</ele></trkpt>
      <trkpt lat="46.614274" lon="11.183674"><ele>264</ele></trkpt>
      <trkpt lat="46.614704" lon="11.183949"><ele>264</ele></trkpt>
      <trkpt lat="46.614929" lon="11.184071"><ele>264</ele></trkpt>
      <trkpt lat="46.615085" lon="11.184146"><ele>265</ele></trkpt>
      <trkpt lat="46.615705" lon="11.184418"><ele>265</ele></trkpt>
      <trkpt lat="46.616011" lon="11.184521"><ele>264</ele></trkpt>
      <trkpt lat="46.616402" lon="11.184608"><ele>265</ele></trkpt>
      <trkpt lat="46.618508" lon="11.184809"><ele>264</ele></trkpt>
      <trkpt lat="46.618800" lon="11.184824"><ele>264</ele></trkpt>
      <trkpt lat="46.619090" lon="11.184812"><ele>264</ele></trkpt>
      <trkpt lat="46.619336" lon="11.184787"><ele>265</ele></trkpt>
      <trkpt lat="46.619830" lon="11.184684"><ele>266</ele></trkpt>
      <trkpt lat="46.620010" lon="11.184645"><ele>266</ele></trkpt>
      <trkpt lat="46.620287" lon="11.184583"><ele>266</ele></trkpt>
      <trkpt lat="46.620455" lon="11.184534"><ele>266</ele></trkpt>
      <trkpt lat="46.620687" lon="11.184450"><ele>267</ele></trkpt>
      <trkpt lat="46.621000" lon="11.184311"><ele>266</ele></trkpt>
      <trkpt lat="46.621187" lon="11.184213"><ele>267</ele></trkpt>
      <trkpt lat="46.622364" lon="11.183544"><ele>267</ele></trkpt>
      <trkpt lat="46.624894" lon="11.182079"><ele>268</ele></trkpt>
      <trkpt lat="46.628959" lon="11.179738"><ele>270</ele></trkpt>
      <trkpt lat="46.629405" lon="11.179441"><ele>270</ele></trkpt>
      <trkpt lat="46.629582" lon="11.179312"><ele>269</ele></trkpt>
      <trkpt lat="46.629743" lon="11.179180"><ele>270</ele></trkpt>
      <trkpt lat="46.629993" lon="11.178952"><ele>269</ele></trkpt>
      <trkpt lat="46.630380" lon="11.178559"><ele>269</ele></trkpt>
      <trkpt lat="46.630666" lon="11.178223"><ele>270</ele></trkpt>
      <trkpt lat="46.630835" lon="11.178004"><ele>270</ele></trkpt>
      <trkpt lat="46.630948" lon="11.177852"><ele>270</ele></trkpt>
      <trkpt lat="46.631309" lon="11.177311"><ele>271</ele></trkpt>
      <trkpt lat="46.631484" lon="11.177287"><ele>272</ele></trkpt>
      <trkpt lat="46.631674" lon="11.176988"><ele>272</ele></trkpt>
      <trkpt lat="46.631717" lon="11.176948"><ele>272</ele></trkpt>
      <trkpt lat="46.631837" lon="11.176789"><ele>272</ele></trkpt>
      <trkpt lat="46.632249" lon="11.176156"><ele>273</ele></trkpt>
      <trkpt lat="46.632324" lon="11.176003"><ele>272</ele></trkpt>
      <trkpt lat="46.632519" lon="11.175699"><ele>272</ele></trkpt>
      <trkpt lat="46.633244" lon="11.174602"><ele>274</ele></trkpt>
      <trkpt lat="46.633426" lon="11.174344"><ele>272</ele></trkpt>
      <trkpt lat="46.633535" lon="11.174205"><ele>272</ele></trkpt>
      <trkpt lat="46.633794" lon="11.173895"><ele>272</ele></trkpt>
      <trkpt lat="46.633930" lon="11.173746"><ele>273</ele></trkpt>
      <trkpt lat="46.634158" lon="11.173530"><ele>274</ele></trkpt>
      <trkpt lat="46.634503" lon="11.173244"><ele>274</ele></trkpt>
      <trkpt lat="46.634945" lon="11.172951"><ele>273</ele></trkpt>
      <trkpt lat="46.635006" lon="11.172926"><ele>273</ele></trkpt>
      <trkpt lat="46.635031" lon="11.172932"><ele>273</ele></trkpt>
      <trkpt lat="46.635068" lon="11.172964"><ele>273</ele></trkpt>
      <trkpt lat="46.635128" lon="11.173064"><ele>273</ele></trkpt>
      <trkpt lat="46.635211" lon="11.173144"><ele>273</ele></trkpt>
      <trkpt lat="46.635304" lon="11.173205"><ele>273</ele></trkpt>
      <trkpt lat="46.635413" lon="11.173218"><ele>273</ele></trkpt>
      <trkpt lat="46.635468" lon="11.173205"><ele>272</ele></trkpt>
      <trkpt lat="46.635549" lon="11.173169"><ele>272</ele></trkpt>
      <trkpt lat="46.635774" lon="11.173000"><ele>273</ele></trkpt>
      <trkpt lat="46.636633" lon="11.172507"><ele>274</ele></trkpt>
      <trkpt lat="46.636733" lon="11.172462"><ele>274</ele></trkpt>
      <trkpt lat="46.636971" lon="11.172329"><ele>272</ele></trkpt>
      <trkpt lat="46.637524" lon="11.172105"><ele>274</ele></trkpt>
      <trkpt lat="46.637736" lon="11.172054"><ele>273</ele></trkpt>
      <trkpt lat="46.637865" lon="11.172042"><ele>273</ele></trkpt>
      <trkpt lat="46.638225" lon="11.172037"><ele>273</ele></trkpt>
      <trkpt lat="46.638288" lon="11.172046"><ele>273</ele></trkpt>
      <trkpt lat="46.638384" lon="11.172111"><ele>273</ele></trkpt>
      <trkpt lat="46.638438" lon="11.172121"><ele>273</ele></trkpt>
      <trkpt lat="46.638544" lon="11.172108"><ele>272</ele></trkpt>
      <trkpt lat="46.639618" lon="11.172085"><ele>273</ele></trkpt>
      <trkpt lat="46.639958" lon="11.172098"><ele>273</ele></trkpt>
      <trkpt lat="46.640161" lon="11.172113"><ele>273</ele></trkpt>
      <trkpt lat="46.640392" lon="11.172145"><ele>274</ele></trkpt>
      <trkpt lat="46.640673" lon="11.172201"><ele>274</ele></trkpt>
      <trkpt lat="46.641349" lon="11.172383"><ele>274</ele></trkpt>
      <trkpt lat="46.641638" lon="11.172484"><ele>275</ele></trkpt>
      <trkpt lat="46.641910" lon="11.172595"><ele>274</ele></trkpt>
      <trkpt lat="46.642125" lon="11.172694"><ele>275</ele></trkpt>
      <trkpt lat="46.642639" lon="11.172982"><ele>276</ele></trkpt>
      <trkpt lat="46.642828" lon="11.173101"><ele>276</ele></trkpt>
      <trkpt lat="46.643051" lon="11.173273"><ele>276</ele></trkpt>
      <trkpt lat="46.644747" lon="11.174529"><ele>276</ele></trkpt>
      <trkpt lat="46.644966" lon="11.174719"><ele>277</ele></trkpt>
      <trkpt lat="46.645139" lon="11.174912"><ele>277</ele></trkpt>
      <trkpt lat="46.645278" lon="11.175037"><ele>278</ele></trkpt>
      <trkpt lat="46.645343" lon="11.175045"><ele>278</ele></trkpt>
      <trkpt lat="46.645418" lon="11.175037"><ele>278</ele></trkpt>
      <trkpt lat="46.645477" lon="11.175044"><ele>278</ele></trkpt>
      <trkpt lat="46.645524" lon="11.175067"><ele>278</ele></trkpt>
      <trkpt lat="46.645766" lon="11.175230"><ele>278</ele></trkpt>
      <trkpt lat="46.647656" lon="11.176701"><ele>284</ele></trkpt>
      <trkpt lat="46.647760" lon="11.176780"><ele>284</ele></trkpt>
      <trkpt lat="46.647755" lon="11.176717"><ele>284</ele></trkpt>
      <trkpt lat="46.647758" lon="11.176679"><ele>284</ele></trkpt>
      <trkpt lat="46.647774" lon="11.176629"><ele>284</ele></trkpt>
      <trkpt lat="46.647819" lon="11.176570"><ele>284</ele></trkpt>
      <trkpt lat="46.647861" lon="11.176556"><ele>284</ele></trkpt>
      <trkpt lat="46.647891" lon="11.176566"><ele>284</ele></trkpt>
      <trkpt lat="46.647926" lon="11.176594"><ele>284</ele></trkpt>
      <trkpt lat="46.648204" lon="11.176873"><ele>285</ele></trkpt>
      <trkpt lat="46.648270" lon="11.176952"><ele>286</ele></trkpt>
      <trkpt lat="46.648317" lon="11.176979"><ele>286</ele></trkpt>
      <trkpt lat="46.648370" lon="11.176982"><ele>286</ele></trkpt>
      <trkpt lat="46.648433" lon="11.176963"><ele>286</ele></trkpt>
      <trkpt lat="46.648500" lon="11.176956"><ele>286</ele></trkpt>
      <trkpt lat="46.648616" lon="11.176989"><ele>286</ele></trkpt>
      <trkpt lat="46.648692" lon="11.176980"><ele>286</ele></trkpt>
      <trkpt lat="46.648863" lon="11.176918"><ele>286</ele></trkpt>
      <trkpt lat="46.649004" lon="11.176868"><ele>286</ele></trkpt>
      <trkpt lat="46.649160" lon="11.176792"><ele>285</ele></trkpt>
      <trkpt lat="46.649440" lon="11.176616"><ele>286</ele></trkpt>
      <trkpt lat="46.649632" lon="11.176481"><ele>286</ele></trkpt>
      <trkpt lat="46.649948" lon="11.176203"><ele>286</ele></trkpt>
      <trkpt lat="46.650397" lon="11.175713"><ele>286</ele></trkpt>
      <trkpt lat="46.650462" lon="11.175644"><ele>286</ele></trkpt>
      <trkpt lat="46.650503" lon="11.175600"><ele>286</ele></trkpt>
      <trkpt lat="46.650815" lon="11.175283"><ele>287</ele></trkpt>
      <trkpt lat="46.650900" lon="11.175222"><ele>286</ele></trkpt>
      <trkpt lat="46.651005" lon="11.175167"><ele>286</ele></trkpt>
      <trkpt lat="46.651066" lon="11.175151"><ele>286</ele></trkpt>
      <trkpt lat="46.651204" lon="11.175114"><ele>286</ele></trkpt>
      <trkpt lat="46.651500" lon="11.175063"><ele>286</ele></trkpt>
      <trkpt lat="46.652175" lon="11.175014"><ele>288</ele></trkpt>
      <trkpt lat="46.652581" lon="11.174976"><ele>289</ele></trkpt>
      <trkpt lat="46.652693" lon="11.174945"><ele>289</ele></trkpt>
      <trkpt lat="46.652732" lon="11.174910"><ele>290</ele></trkpt>
      <trkpt lat="46.652798" lon="11.174854"><ele>290</ele></trkpt>
      <trkpt lat="46.652932" lon="11.174655"><ele>290</ele></trkpt>
      <trkpt lat="46.653228" lon="11.174055"><ele>290</ele></trkpt>
      <trkpt lat="46.653535" lon="11.173034"><ele>289</ele></trkpt>
      <trkpt lat="46.653759" lon="11.172290"><ele>288</ele></trkpt>
      <trkpt lat="46.653782" lon="11.172229"><ele>288</ele></trkpt>
      <trkpt lat="46.653950" lon="11.171802"><ele>288</ele></trkpt>
      <trkpt lat="46.654121" lon="11.171474"><ele>289</ele></trkpt>
      <trkpt lat="46.654391" lon="11.171047"><ele>290</ele></trkpt>
      <trkpt lat="46.654559" lon="11.170835"><ele>289</ele></trkpt>
      <trkpt lat="46.654846" lon="11.170511"><ele>290</ele></trkpt>
      <trkpt lat="46.654890" lon="11.170453"><ele>290</ele></trkpt>
      <trkpt lat="46.655105" lon="11.170146"><ele>290</ele></trkpt>
      <trkpt lat="46.655018" lon="11.170134"><ele>290</ele></trkpt>
      <trkpt lat="46.654848" lon="11.170024"><ele>289</ele></trkpt>
      <trkpt lat="46.654516" lon="11.169810"><ele>288</ele></trkpt>
      <trkpt lat="46.654490" lon="11.169768"><ele>288</ele></trkpt>
      <trkpt lat="46.654771" lon="11.169073"><ele>288</ele></trkpt>
      <trkpt lat="46.653939" lon="11.168564"><ele>287</ele></trkpt>
      <trkpt lat="46.653754" lon="11.168452"><ele>286</ele></trkpt>
      <trkpt lat="46.654064" lon="11.167563"><ele>286</ele></trkpt>
      <trkpt lat="46.654320" lon="11.166802"><ele>287</ele></trkpt>
      <trkpt lat="46.654589" lon="11.166004"><ele>287</ele></trkpt>
      <trkpt lat="46.654705" lon="11.165662"><ele>287</ele></trkpt>
      <trkpt lat="46.654932" lon="11.164991"><ele>286</ele></trkpt>
      <trkpt lat="46.654992" lon="11.164929"><ele>287</ele></trkpt>
      <trkpt lat="46.655373" lon="11.163836"><ele>286</ele></trkpt>
      <trkpt lat="46.655443" lon="11.163702"><ele>286</ele></trkpt>
      <trkpt lat="46.655504" lon="11.163616"><ele>286</ele></trkpt>
      <trkpt lat="46.655593" lon="11.163552"><ele>287</ele></trkpt>
      <trkpt lat="46.655679" lon="11.163519"><ele>287</ele></trkpt>
      <trkpt lat="46.655754" lon="11.163515"><ele>287</ele></trkpt>
      <trkpt lat="46.655851" lon="11.163541"><ele>288</ele></trkpt>
      <trkpt lat="46.655999" lon="11.163635"><ele>288</ele></trkpt>
      <trkpt lat="46.656252" lon="11.163748"><ele>289</ele></trkpt>
      <trkpt lat="46.656355" lon="11.163755"><ele>289</ele></trkpt>
      <trkpt lat="46.656466" lon="11.163725"><ele>289</ele></trkpt>
      <trkpt lat="46.656559" lon="11.163675"><ele>290</ele></trkpt>
      <trkpt lat="46.656659" lon="11.163465"><ele>290</ele></trkpt>
      <trkpt lat="46.656848" lon="11.162948"><ele>289</ele></trkpt>
      <trkpt lat="46.657023" lon="11.162354"><ele>287</ele></trkpt>
      <trkpt lat="46.657058" lon="11.162286"><ele>287</ele></trkpt>
      <trkpt lat="46.657099" lon="11.162249"><ele>288</ele></trkpt>
      <trkpt lat="46.657136" lon="11.162239"><ele>288</ele></trkpt>
      <trkpt lat="46.657300" lon="11.162320"><ele>288</ele></trkpt>
      <trkpt lat="46.657377" lon="11.162324"><ele>288</ele></trkpt>
      <trkpt lat="46.657421" lon="11.162300"><ele>288</ele></trkpt>
      <trkpt lat="46.657455" lon="11.162254"><ele>288</ele></trkpt>
      <trkpt lat="46.657473" lon="11.162215"><ele>288</ele></trkpt>
      <trkpt lat="46.657756" lon="11.161294"><ele>289</ele></trkpt>
      <trkpt lat="46.658113" lon="11.160128"><ele>289</ele></trkpt>
      <trkpt lat="46.658253" lon="11.160172"><ele>290</ele></trkpt>
      <trkpt lat="46.658507" lon="11.160218"><ele>290</ele></trkpt>
      <trkpt lat="46.658667" lon="11.160257"><ele>290</ele></trkpt>
      <trkpt lat="46.658750" lon="11.160286"><ele>290</ele></trkpt>
      <trkpt lat="46.658834" lon="11.160379"><ele>291</ele></trkpt>
      <trkpt lat="46.658932" lon="11.160434"><ele>291</ele></trkpt>
      <trkpt lat="46.659114" lon="11.160502"><ele>292</ele></trkpt>
      <trkpt lat="46.659300" lon="11.160549"><ele>292</ele></trkpt>
      <trkpt lat="46.659405" lon="11.160598"><ele>292</ele></trkpt>
      <trkpt lat="46.659992" lon="11.160935"><ele>294</ele></trkpt>
      <trkpt lat="46.660079" lon="11.160986"><ele>294</ele></trkpt>
      <trkpt lat="46.660134" lon="11.160828"><ele>294</ele></trkpt>
      <trkpt lat="46.660993" lon="11.160665"><ele>298</ele></trkpt>
      <trkpt lat="46.661071" lon="11.160636"><ele>298</ele></trkpt>
      <trkpt lat="46.661141" lon="11.160573"><ele>298</ele></trkpt>
      <trkpt lat="46.661182" lon="11.160495"><ele>298</ele></trkpt>
      <trkpt lat="46.661234" lon="11.160352"><ele>298</ele></trkpt>
      <trkpt lat="46.661318" lon="11.160195"><ele>297</ele></trkpt>
      <trkpt lat="46.661400" lon="11.160105"><ele>297</ele></trkpt>
      <trkpt lat="46.661634" lon="11.159892"><ele>296</ele></trkpt>
      <trkpt lat="46.661620" lon="11.159660"><ele>296</ele></trkpt>
      <trkpt lat="46.661670" lon="11.159636"><ele>296</ele></trkpt>
      <trkpt lat="46.661733" lon="11.159612"><ele>296</ele></trkpt>
      <trkpt lat="46.661774" lon="11.159597"><ele>296</ele></trkpt>
      <trkpt lat="46.661838" lon="11.159758"><ele>296</ele></trkpt>
      <trkpt lat="46.661878" lon="11.159807"><ele>296</ele></trkpt>
      <trkpt lat="46.661952" lon="11.159707"><ele>296</ele></trkpt>
      <trkpt lat="46.662215" lon="11.159429"><ele>296</ele></trkpt>
      <trkpt lat="46.662434" lon="11.159181"><ele>295</ele></trkpt>
      <trkpt lat="46.662478" lon="11.159150"><ele>295</ele></trkpt>
      <trkpt lat="46.662491" lon="11.159117"><ele>295</ele></trkpt>
      <trkpt lat="46.662450" lon="11.158933"><ele>296</ele></trkpt>
      <trkpt lat="46.662454" lon="11.158881"><ele>296</ele></trkpt>
      <trkpt lat="46.662504" lon="11.158835"><ele>296</ele></trkpt>
      <trkpt lat="46.664053" lon="11.158653"><ele>298</ele></trkpt>
      <trkpt lat="46.664088" lon="11.158885"><ele>300</ele></trkpt>
      <trkpt lat="46.664163" lon="11.158961"><ele>300</ele></trkpt>
      <trkpt lat="46.664416" lon="11.158757"><ele>300</ele></trkpt>
      <trkpt lat="46.664724" lon="11.158382"><ele>300</ele></trkpt>
      <trkpt lat="46.664878" lon="11.158252"><ele>300</ele></trkpt>
      <trkpt lat="46.665076" lon="11.158114"><ele>300</ele></trkpt>
      <trkpt lat="46.665125" lon="11.158015"><ele>300</ele></trkpt>
      <trkpt lat="46.665144" lon="11.157947"><ele>300</ele></trkpt>
      <trkpt lat="46.665141" lon="11.157869"><ele>300</ele></trkpt>
      <trkpt lat="46.665132" lon="11.157815"><ele>300</ele></trkpt>
      <trkpt lat="46.665096" lon="11.157749"><ele>300</ele></trkpt>
      <trkpt lat="46.664981" lon="11.157477"><ele>300</ele></trkpt>
      <trkpt lat="46.664896" lon="11.157250"><ele>300</ele></trkpt>
      <trkpt lat="46.664755" lon="11.156740"><ele>300</ele></trkpt>
      <trkpt lat="46.664779" lon="11.156725"><ele>300</ele></trkpt>
      <trkpt lat="46.664805" lon="11.156711"><ele>300</ele></trkpt>
      <trkpt lat="46.664861" lon="11.156683"><ele>300</ele></trkpt>
      <trkpt lat="46.665297" lon="11.156757"><ele>301</ele></trkpt>
      <trkpt lat="46.665392" lon="11.156765"><ele>301</ele></trkpt>
      <trkpt lat="46.665532" lon="11.156752"><ele>301</ele></trkpt>
      <trkpt lat="46.665644" lon="11.156730"><ele>301</ele></trkpt>
      <trkpt lat="46.666147" lon="11.156651"><ele>303</ele></trkpt>
      <trkpt lat="46.666660" lon="11.156564"><ele>304</ele></trkpt>
      <trkpt lat="46.666760" lon="11.156519"><ele>304</ele></trkpt>
      <trkpt lat="46.666824" lon="11.156513"><ele>304</ele></trkpt>
      <trkpt lat="46.666885" lon="11.156511"><ele>304</ele></trkpt>
      <trkpt lat="46.666933" lon="11.156462"><ele>304</ele></trkpt>
      <trkpt lat="46.666954" lon="11.156457"><ele>304</ele></trkpt>
      <trkpt lat="46.667009" lon="11.156452"><ele>304</ele></trkpt>
      <trkpt lat="46.668405" lon="11.156257"><ele>306</ele></trkpt>
      <trkpt lat="46.668613" lon="11.156230"><ele>307</ele></trkpt>
      <trkpt lat="46.669113" lon="11.156166"><ele>308</ele></trkpt>
      <trkpt lat="46.669146" lon="11.156154"><ele>307</ele></trkpt>
      <trkpt lat="46.669173" lon="11.156148"><ele>307</ele></trkpt>
      <trkpt lat="46.669192" lon="11.156147"><ele>307</ele></trkpt>
      <trkpt lat="46.669486" lon="11.156121"><ele>307</ele></trkpt>
      <trkpt lat="46.669506" lon="11.156109"><ele>307</ele></trkpt>
      <trkpt lat="46.669545" lon="11.156087"><ele>307</ele></trkpt>
      <trkpt lat="46.670033" lon="11.156143"><ele>307</ele></trkpt>
      <trkpt lat="46.670030" lon="11.156194"><ele>307</ele></trkpt>
      <trkpt lat="46.670026" lon="11.156258"><ele>307</ele></trkpt>
      <trkpt lat="46.670011" lon="11.156475"><ele>307</ele></trkpt>
      <trkpt lat="46.670002" lon="11.156869"><ele>308</ele></trkpt>
      <trkpt lat="46.670019" lon="11.157314"><ele>308</ele></trkpt>
      <trkpt lat="46.670042" lon="11.157539"><ele>309</ele></trkpt>
      <trkpt lat="46.670074" lon="11.157764"><ele>308</ele></trkpt>
      <trkpt lat="46.670130" lon="11.158047"><ele>309</ele></trkpt>
      <trkpt lat="46.670256" lon="11.158473"><ele>309</ele></trkpt>
      <trkpt lat="46.670372" lon="11.158895"><ele>310</ele></trkpt>
      <trkpt lat="46.670428" lon="11.159103"><ele>310</ele></trkpt>
      <trkpt lat="46.670464" lon="11.159268"><ele>310</ele></trkpt>
      <trkpt lat="46.670534" lon="11.159255"><ele>310</ele></trkpt>
      <trkpt lat="46.670587" lon="11.159253"><ele>310</ele></trkpt>
      <trkpt lat="46.670662" lon="11.159271"><ele>310</ele></trkpt>
      <trkpt lat="46.670699" lon="11.159280"><ele>310</ele></trkpt>
      <trkpt lat="46.670707" lon="11.159317"><ele>310</ele></trkpt>
      <trkpt lat="46.670733" lon="11.159330"><ele>310</ele></trkpt>
      <trkpt lat="46.670766" lon="11.159498"><ele>310</ele></trkpt>
      <trkpt lat="46.670762" lon="11.159653"><ele>310</ele></trkpt>
      <trkpt lat="46.670776" lon="11.160075"><ele>310</ele></trkpt>
      <trkpt lat="46.670787" lon="11.160347"><ele>311</ele></trkpt>
      <trkpt lat="46.670787" lon="11.160382"><ele>311</ele></trkpt>
      <trkpt lat="46.670788" lon="11.160525"><ele>311</ele></trkpt>
      <trkpt lat="46.670792" lon="11.160946"><ele>311</ele></trkpt>
      <trkpt lat="46.670783" lon="11.161519"><ele>312</ele></trkpt>
      <trkpt lat="46.670773" lon="11.161638"><ele>312</ele></trkpt>
      <trkpt lat="46.670762" lon="11.161766"><ele>312</ele></trkpt>
      <trkpt lat="46.671018" lon="11.161826"><ele>313</ele></trkpt>
    </trkseg></trk>
</gpx>
