<?xml version="1.0" encoding="UTF-8"?>
<gpx version="1.1" creator="Radtouren-split" xmlns="http://www.topografix.com/GPX/1/1" xmlns:xsi="http://www.w3.org/2001/XMLSchema-instance" xsi:schemaLocation="http://www.topografix.com/GPX/1/1 http://www.topografix.com/GPX/1/1/gpx.xsd">
  <metadata><name>KN-GE Tag 4 Lago Ritom</name></metadata>
  <wpt lat="46.578959" lon="8.801676">
    <ele>1926.2</ele>
    <name>Lukmanier 1915</name>
    <sym>Summit</sym>
  </wpt>
  <wpt lat="46.566200" lon="8.783672">
    <ele>1929.2</ele>
    <name>PUSH start 1.8km</name>
    <sym>Flag, Red</sym>
  </wpt>
  <wpt lat="46.540860" lon="8.759325">
    <ele>2232.4</ele>
    <name>P.dell Uomo 2218</name>
    <sym>Summit</sym>
  </wpt>
  <wpt lat="46.546945" lon="8.719321">
    <ele>1967.6</ele>
    <name>H Capanna Cadagno</name>
    <cmt>alpine_hut 0.0 km off</cmt>
    <sym>Lodge</sym>
  </wpt>
  <wpt lat="46.533778" lon="8.677416">
    <ele>1825.8</ele>
    <name>H Rifugio Lago Ritom</name>
    <cmt>hostel 0.2 km off</cmt>
    <sym>Lodge</sym>
  </wpt>
  <wpt lat="46.532967" lon="8.677565">
    <ele>1810.9</ele>
    <name>Ritom dam</name>
    <sym>Flag, Blue</sym>
  </wpt>
  <wpt lat="46.530885" lon="8.673878">
    <ele>1806.2</ele>
    <name>H Rifugio Föisc</name>
    <cmt>alpine_hut 0.5 km off</cmt>
    <sym>Lodge</sym>
  </wpt>
  <wpt lat="46.528774" lon="8.675007">
    <ele>1777.8</ele>
    <name>H Osteria Altanca</name>
    <cmt>guest_house 0.8 km off</cmt>
    <sym>Lodging</sym>
  </wpt>
  <trk>
    <name>KN-GE Tag 4 Lago Ritom</name>
    <trkseg>
      <trkpt lat="46.682244" lon="8.855002"><ele>1227.5</ele></trkpt>
      <trkpt lat="46.682013" lon="8.855123"><ele>1229.2</ele></trkpt>
      <trkpt lat="46.681668" lon="8.855407"><ele>1231.5</ele></trkpt>
      <trkpt lat="46.681513" lon="8.855429"><ele>1232.5</ele></trkpt>
      <trkpt lat="46.681441" lon="8.855412"><ele>1232.9</ele></trkpt>
      <trkpt lat="46.681366" lon="8.855348"><ele>1233.4</ele></trkpt>
      <trkpt lat="46.681145" lon="8.855008"><ele>1235.3</ele></trkpt>
      <trkpt lat="46.681007" lon="8.854902"><ele>1236.2</ele></trkpt>
      <trkpt lat="46.680926" lon="8.854878"><ele>1236.7</ele></trkpt>
      <trkpt lat="46.680809" lon="8.854906"><ele>1237.4</ele></trkpt>
      <trkpt lat="46.680038" lon="8.855301"><ele>1239.2</ele></trkpt>
      <trkpt lat="46.679830" lon="8.855427"><ele>1239.2</ele></trkpt>
      <trkpt lat="46.679637" lon="8.855495"><ele>1239.2</ele></trkpt>
      <trkpt lat="46.679333" lon="8.855485"><ele>1239.3</ele></trkpt>
      <trkpt lat="46.678902" lon="8.855281"><ele>1239.3</ele></trkpt>
      <trkpt lat="46.678632" lon="8.855204"><ele>1240.3</ele></trkpt>
      <trkpt lat="46.678037" lon="8.855234"><ele>1243.4</ele></trkpt>
      <trkpt lat="46.677842" lon="8.855206"><ele>1244.5</ele></trkpt>
      <trkpt lat="46.677710" lon="8.855163"><ele>1245.2</ele></trkpt>
      <trkpt lat="46.677094" lon="8.854815"><ele>1248.7</ele></trkpt>
      <trkpt lat="46.676823" lon="8.854752"><ele>1250.1</ele></trkpt>
      <trkpt lat="46.675806" lon="8.854881"><ele>1255.4</ele></trkpt>
      <trkpt lat="46.675659" lon="8.854925"><ele>1256.2</ele></trkpt>
      <trkpt lat="46.675576" lon="8.854983"><ele>1256.7</ele></trkpt>
      <trkpt lat="46.675469" lon="8.855155"><ele>1257.5</ele></trkpt>
      <trkpt lat="46.675440" lon="8.855292"><ele>1258.0</ele></trkpt>
      <trkpt lat="46.675443" lon="8.855411"><ele>1258.5</ele></trkpt>
      <trkpt lat="46.675494" lon="8.855590"><ele>1259.5</ele></trkpt>
      <trkpt lat="46.675558" lon="8.855681"><ele>1260.1</ele></trkpt>
      <trkpt lat="46.675643" lon="8.855741"><ele>1260.8</ele></trkpt>
      <trkpt lat="46.675760" lon="8.855769"><ele>1261.6</ele></trkpt>
      <trkpt lat="46.675903" lon="8.855751"><ele>1262.6</ele></trkpt>
      <trkpt lat="46.677043" lon="8.855498"><ele>1270.8</ele></trkpt>
      <trkpt lat="46.677185" lon="8.855548"><ele>1272.1</ele></trkpt>
      <trkpt lat="46.677264" lon="8.855624"><ele>1273.0</ele></trkpt>
      <trkpt lat="46.677325" lon="8.855742"><ele>1273.9</ele></trkpt>
      <trkpt lat="46.677349" lon="8.855859"><ele>1274.7</ele></trkpt>
      <trkpt lat="46.677329" lon="8.856073"><ele>1276.0</ele></trkpt>
      <trkpt lat="46.677222" lon="8.856262"><ele>1277.6</ele></trkpt>
      <trkpt lat="46.677095" lon="8.856357"><ele>1278.9</ele></trkpt>
      <trkpt lat="46.676490" lon="8.856651"><ele>1284.8</ele></trkpt>
      <trkpt lat="46.676368" lon="8.856746"><ele>1286.1</ele></trkpt>
      <trkpt lat="46.676238" lon="8.856925"><ele>1287.8</ele></trkpt>
      <trkpt lat="46.676120" lon="8.857204"><ele>1290.6</ele></trkpt>
      <trkpt lat="46.675807" lon="8.858320"><ele>1300.7</ele></trkpt>
      <trkpt lat="46.675690" lon="8.858603"><ele>1303.4</ele></trkpt>
      <trkpt lat="46.675600" lon="8.858724"><ele>1304.9</ele></trkpt>
      <trkpt lat="46.675422" lon="8.858842"><ele>1307.3</ele></trkpt>
      <trkpt lat="46.675228" lon="8.858849"><ele>1309.6</ele></trkpt>
      <trkpt lat="46.675055" lon="8.858750"><ele>1311.1</ele></trkpt>
      <trkpt lat="46.674901" lon="8.858527"><ele>1312.7</ele></trkpt>
      <trkpt lat="46.674816" lon="8.858263"><ele>1314.2</ele></trkpt>
      <trkpt lat="46.674647" lon="8.857352"><ele>1319.1</ele></trkpt>
      <trkpt lat="46.674560" lon="8.857150"><ele>1320.4</ele></trkpt>
      <trkpt lat="46.674417" lon="8.857048"><ele>1321.6</ele></trkpt>
      <trkpt lat="46.674254" lon="8.857091"><ele>1322.8</ele></trkpt>
      <trkpt lat="46.673980" lon="8.857341"><ele>1324.7</ele></trkpt>
      <trkpt lat="46.673673" lon="8.857634"><ele>1326.6</ele></trkpt>
      <trkpt lat="46.673034" lon="8.858247"><ele>1330.8</ele></trkpt>
      <trkpt lat="46.672995" lon="8.858281"><ele>1331.0</ele></trkpt>
      <trkpt lat="46.672733" lon="8.858524"><ele>1332.7</ele></trkpt>
      <trkpt lat="46.672695" lon="8.858556"><ele>1332.9</ele></trkpt>
      <trkpt lat="46.672508" lon="8.858672"><ele>1333.3</ele></trkpt>
      <trkpt lat="46.672117" lon="8.858741"><ele>1334.2</ele></trkpt>
      <trkpt lat="46.670286" lon="8.858860"><ele>1339.2</ele></trkpt>
      <trkpt lat="46.669726" lon="8.858886"><ele>1341.2</ele></trkpt>
      <trkpt lat="46.669420" lon="8.858841"><ele>1342.4</ele></trkpt>
      <trkpt lat="46.668350" lon="8.858469"><ele>1347.7</ele></trkpt>
      <trkpt lat="46.668003" lon="8.858394"><ele>1349.5</ele></trkpt>
      <trkpt lat="46.667781" lon="8.858384"><ele>1350.7</ele></trkpt>
      <trkpt lat="46.666744" lon="8.858476"><ele>1357.3</ele></trkpt>
      <trkpt lat="46.666185" lon="8.858431"><ele>1361.2</ele></trkpt>
      <trkpt lat="46.665721" lon="8.858311"><ele>1364.5</ele></trkpt>
      <trkpt lat="46.664655" lon="8.857821"><ele>1372.7</ele></trkpt>
      <trkpt lat="46.664447" lon="8.857752"><ele>1374.3</ele></trkpt>
      <trkpt lat="46.664255" lon="8.857743"><ele>1375.7</ele></trkpt>
      <trkpt lat="46.663603" lon="8.857849"><ele>1379.9</ele></trkpt>
      <trkpt lat="46.663382" lon="8.857803"><ele>1380.8</ele></trkpt>
      <trkpt lat="46.663218" lon="8.857724"><ele>1381.5</ele></trkpt>
      <trkpt lat="46.662988" lon="8.857573"><ele>1382.6</ele></trkpt>
      <trkpt lat="46.662404" lon="8.857187"><ele>1385.3</ele></trkpt>
      <trkpt lat="46.661602" lon="8.856733"><ele>1387.1</ele></trkpt>
      <trkpt lat="46.660338" lon="8.856149"><ele>1388.5</ele></trkpt>
      <trkpt lat="46.659791" lon="8.855749"><ele>1388.8</ele></trkpt>
      <trkpt lat="46.658755" lon="8.854878"><ele>1389.5</ele></trkpt>
      <trkpt lat="46.658685" lon="8.854817"><ele>1389.6</ele></trkpt>
      <trkpt lat="46.657789" lon="8.854063"><ele>1390.5</ele></trkpt>
      <trkpt lat="46.657435" lon="8.853860"><ele>1390.8</ele></trkpt>
      <trkpt lat="46.657255" lon="8.853812"><ele>1391.0</ele></trkpt>
      <trkpt lat="46.656973" lon="8.853793"><ele>1392.5</ele></trkpt>
      <trkpt lat="46.655665" lon="8.853786"><ele>1399.8</ele></trkpt>
      <trkpt lat="46.655536" lon="8.853765"><ele>1400.5</ele></trkpt>
      <trkpt lat="46.655320" lon="8.853695"><ele>1401.4</ele></trkpt>
      <trkpt lat="46.654443" lon="8.853288"><ele>1404.8</ele></trkpt>
      <trkpt lat="46.654225" lon="8.853127"><ele>1405.7</ele></trkpt>
      <trkpt lat="46.654080" lon="8.852943"><ele>1406.5</ele></trkpt>
      <trkpt lat="46.653962" lon="8.852699"><ele>1407.2</ele></trkpt>
      <trkpt lat="46.653599" lon="8.851603"><ele>1408.5</ele></trkpt>
      <trkpt lat="46.653443" lon="8.851354"><ele>1408.8</ele></trkpt>
      <trkpt lat="46.653277" lon="8.851206"><ele>1409.1</ele></trkpt>
      <trkpt lat="46.653070" lon="8.851125"><ele>1409.3</ele></trkpt>
      <trkpt lat="46.652866" lon="8.851128"><ele>1409.6</ele></trkpt>
      <trkpt lat="46.651828" lon="8.851449"><ele>1412.9</ele></trkpt>
      <trkpt lat="46.651446" lon="8.851533"><ele>1414.2</ele></trkpt>
      <trkpt lat="46.651369" lon="8.851537"><ele>1414.5</ele></trkpt>
      <trkpt lat="46.650918" lon="8.851470"><ele>1416.0</ele></trkpt>
      <trkpt lat="46.650362" lon="8.851248"><ele>1416.4</ele></trkpt>
      <trkpt lat="46.650159" lon="8.851201"><ele>1416.5</ele></trkpt>
      <trkpt lat="46.649913" lon="8.851211"><ele>1416.6</ele></trkpt>
      <trkpt lat="46.649420" lon="8.851310"><ele>1416.9</ele></trkpt>
      <trkpt lat="46.649044" lon="8.851323"><ele>1417.2</ele></trkpt>
      <trkpt lat="46.647585" lon="8.851354"><ele>1420.6</ele></trkpt>
      <trkpt lat="46.647011" lon="8.851290"><ele>1421.3</ele></trkpt>
      <trkpt lat="46.646569" lon="8.851138"><ele>1421.5</ele></trkpt>
      <trkpt lat="46.645932" lon="8.850834"><ele>1421.6</ele></trkpt>
      <trkpt lat="46.645656" lon="8.850598"><ele>1421.7</ele></trkpt>
      <trkpt lat="46.645058" lon="8.849941"><ele>1424.3</ele></trkpt>
      <trkpt lat="46.644838" lon="8.849796"><ele>1425.2</ele></trkpt>
      <trkpt lat="46.644461" lon="8.849659"><ele>1426.6</ele></trkpt>
      <trkpt lat="46.643388" lon="8.849400"><ele>1432.0</ele></trkpt>
      <trkpt lat="46.642998" lon="8.849277"><ele>1434.4</ele></trkpt>
      <trkpt lat="46.642664" lon="8.849125"><ele>1436.6</ele></trkpt>
      <trkpt lat="46.642213" lon="8.848861"><ele>1439.6</ele></trkpt>
      <trkpt lat="46.641976" lon="8.848787"><ele>1441.3</ele></trkpt>
      <trkpt lat="46.641662" lon="8.848837"><ele>1443.5</ele></trkpt>
      <trkpt lat="46.641231" lon="8.849042"><ele>1446.7</ele></trkpt>
      <trkpt lat="46.641007" lon="8.849108"><ele>1448.3</ele></trkpt>
      <trkpt lat="46.640836" lon="8.849116"><ele>1449.5</ele></trkpt>
      <trkpt lat="46.640661" lon="8.849082"><ele>1450.8</ele></trkpt>
      <trkpt lat="46.640376" lon="8.848938"><ele>1452.2</ele></trkpt>
      <trkpt lat="46.640116" lon="8.848649"><ele>1453.2</ele></trkpt>
      <trkpt lat="46.639838" lon="8.848163"><ele>1454.4</ele></trkpt>
      <trkpt lat="46.639593" lon="8.847725"><ele>1455.4</ele></trkpt>
      <trkpt lat="46.639413" lon="8.847490"><ele>1456.1</ele></trkpt>
      <trkpt lat="46.639137" lon="8.847261"><ele>1457.1</ele></trkpt>
      <trkpt lat="46.638872" lon="8.847147"><ele>1458.5</ele></trkpt>
      <trkpt lat="46.638616" lon="8.847110"><ele>1459.8</ele></trkpt>
      <trkpt lat="46.638340" lon="8.847147"><ele>1461.2</ele></trkpt>
      <trkpt lat="46.638024" lon="8.847281"><ele>1462.8</ele></trkpt>
      <trkpt lat="46.637274" lon="8.847664"><ele>1467.1</ele></trkpt>
      <trkpt lat="46.637143" lon="8.847706"><ele>1467.9</ele></trkpt>
      <trkpt lat="46.636838" lon="8.847703"><ele>1469.8</ele></trkpt>
      <trkpt lat="46.636559" lon="8.847587"><ele>1471.7</ele></trkpt>
      <trkpt lat="46.636438" lon="8.847534"><ele>1472.5</ele></trkpt>
      <trkpt lat="46.636026" lon="8.847406"><ele>1475.2</ele></trkpt>
      <trkpt lat="46.635386" lon="8.847396"><ele>1478.9</ele></trkpt>
      <trkpt lat="46.635170" lon="8.847365"><ele>1480.1</ele></trkpt>
      <trkpt lat="46.634953" lon="8.847269"><ele>1481.4</ele></trkpt>
      <trkpt lat="46.634732" lon="8.847102"><ele>1482.7</ele></trkpt>
      <trkpt lat="46.634527" lon="8.846874"><ele>1484.1</ele></trkpt>
      <trkpt lat="46.634373" lon="8.846635"><ele>1485.3</ele></trkpt>
      <trkpt lat="46.634258" lon="8.846375"><ele>1486.5</ele></trkpt>
      <trkpt lat="46.633607" lon="8.844511"><ele>1491.7</ele></trkpt>
      <trkpt lat="46.633271" lon="8.843693"><ele>1494.4</ele></trkpt>
      <trkpt lat="46.632958" lon="8.843039"><ele>1497.3</ele></trkpt>
      <trkpt lat="46.632981" lon="8.842916"><ele>1497.8</ele></trkpt>
      <trkpt lat="46.632977" lon="8.842857"><ele>1498.0</ele></trkpt>
      <trkpt lat="46.632493" lon="8.841836"><ele>1502.6</ele></trkpt>
      <trkpt lat="46.632367" lon="8.841363"><ele>1504.7</ele></trkpt>
      <trkpt lat="46.632110" lon="8.840617"><ele>1508.4</ele></trkpt>
      <trkpt lat="46.631172" lon="8.838316"><ele>1519.9</ele></trkpt>
      <trkpt lat="46.630953" lon="8.837787"><ele>1522.5</ele></trkpt>
      <trkpt lat="46.629848" lon="8.836955"><ele>1530.1</ele></trkpt>
      <trkpt lat="46.629517" lon="8.836532"><ele>1532.7</ele></trkpt>
      <trkpt lat="46.629083" lon="8.835793"><ele>1536.8</ele></trkpt>
      <trkpt lat="46.628999" lon="8.835710"><ele>1537.5</ele></trkpt>
      <trkpt lat="46.628888" lon="8.835673"><ele>1538.2</ele></trkpt>
      <trkpt lat="46.628708" lon="8.835683"><ele>1539.4</ele></trkpt>
      <trkpt lat="46.628578" lon="8.835765"><ele>1540.4</ele></trkpt>
      <trkpt lat="46.627908" lon="8.836633"><ele>1546.2</ele></trkpt>
      <trkpt lat="46.627576" lon="8.837203"><ele>1549.8</ele></trkpt>
      <trkpt lat="46.627466" lon="8.837451"><ele>1551.4</ele></trkpt>
      <trkpt lat="46.627446" lon="8.837583"><ele>1552.1</ele></trkpt>
      <trkpt lat="46.626870" lon="8.838195"><ele>1557.5</ele></trkpt>
      <trkpt lat="46.626724" lon="8.838278"><ele>1558.7</ele></trkpt>
      <trkpt lat="46.626551" lon="8.838273"><ele>1560.0</ele></trkpt>
      <trkpt lat="46.626533" lon="8.838267"><ele>1560.1</ele></trkpt>
      <trkpt lat="46.626390" lon="8.838185"><ele>1561.3</ele></trkpt>
      <trkpt lat="46.626279" lon="8.838037"><ele>1562.4</ele></trkpt>
      <trkpt lat="46.626216" lon="8.837872"><ele>1563.4</ele></trkpt>
      <trkpt lat="46.626170" lon="8.837612"><ele>1564.8</ele></trkpt>
      <trkpt lat="46.626142" lon="8.836845"><ele>1568.7</ele></trkpt>
      <trkpt lat="46.626153" lon="8.836370"><ele>1571.2</ele></trkpt>
      <trkpt lat="46.626209" lon="8.836007"><ele>1573.1</ele></trkpt>
      <trkpt lat="46.626612" lon="8.834786"><ele>1580.6</ele></trkpt>
      <trkpt lat="46.626663" lon="8.834551"><ele>1582.1</ele></trkpt>
      <trkpt lat="46.626694" lon="8.834201"><ele>1584.1</ele></trkpt>
      <trkpt lat="46.626667" lon="8.833741"><ele>1586.8</ele></trkpt>
      <trkpt lat="46.626257" lon="8.831388"><ele>1599.4</ele></trkpt>
      <trkpt lat="46.626222" lon="8.831203"><ele>1600.4</ele></trkpt>
      <trkpt lat="46.626069" lon="8.830652"><ele>1603.3</ele></trkpt>
      <trkpt lat="46.625860" lon="8.830174"><ele>1605.0</ele></trkpt>
      <trkpt lat="46.625603" lon="8.829747"><ele>1606.6</ele></trkpt>
      <trkpt lat="46.625360" lon="8.829450"><ele>1607.9</ele></trkpt>
      <trkpt lat="46.625007" lon="8.829149"><ele>1609.6</ele></trkpt>
      <trkpt lat="46.624952" lon="8.828997"><ele>1610.1</ele></trkpt>
      <trkpt lat="46.624295" lon="8.828571"><ele>1614.0</ele></trkpt>
      <trkpt lat="46.624232" lon="8.828502"><ele>1614.5</ele></trkpt>
      <trkpt lat="46.624052" lon="8.827794"><ele>1617.7</ele></trkpt>
      <trkpt lat="46.623877" lon="8.827419"><ele>1619.5</ele></trkpt>
      <trkpt lat="46.623297" lon="8.825515"><ele>1627.8</ele></trkpt>
      <trkpt lat="46.622473" lon="8.824002"><ele>1634.4</ele></trkpt>
      <trkpt lat="46.622160" lon="8.823628"><ele>1636.0</ele></trkpt>
      <trkpt lat="46.621242" lon="8.823003"><ele>1640.1</ele></trkpt>
      <trkpt lat="46.620146" lon="8.822712"><ele>1644.5</ele></trkpt>
      <trkpt lat="46.619365" lon="8.822758"><ele>1647.6</ele></trkpt>
      <trkpt lat="46.619261" lon="8.822795"><ele>1648.0</ele></trkpt>
      <trkpt lat="46.618350" lon="8.822878"><ele>1651.4</ele></trkpt>
      <trkpt lat="46.618188" lon="8.822850"><ele>1652.0</ele></trkpt>
      <trkpt lat="46.616624" lon="8.822105"><ele>1655.8</ele></trkpt>
      <trkpt lat="46.616008" lon="8.821760"><ele>1657.3</ele></trkpt>
      <trkpt lat="46.615221" lon="8.821298"><ele>1659.7</ele></trkpt>
      <trkpt lat="46.614847" lon="8.821169"><ele>1660.8</ele></trkpt>
      <trkpt lat="46.614389" lon="8.821058"><ele>1662.2</ele></trkpt>
      <trkpt lat="46.614162" lon="8.821064"><ele>1663.1</ele></trkpt>
      <trkpt lat="46.613342" lon="8.821212"><ele>1666.2</ele></trkpt>
      <trkpt lat="46.613014" lon="8.821181"><ele>1667.5</ele></trkpt>
      <trkpt lat="46.612685" lon="8.821234"><ele>1668.7</ele></trkpt>
      <trkpt lat="46.612487" lon="8.821213"><ele>1669.5</ele></trkpt>
      <trkpt lat="46.612402" lon="8.821150"><ele>1669.9</ele></trkpt>
      <trkpt lat="46.612181" lon="8.820893"><ele>1671.0</ele></trkpt>
      <trkpt lat="46.612106" lon="8.820851"><ele>1671.3</ele></trkpt>
      <trkpt lat="46.611283" lon="8.820653"><ele>1674.6</ele></trkpt>
      <trkpt lat="46.609330" lon="8.819871"><ele>1682.6</ele></trkpt>
      <trkpt lat="46.608668" lon="8.819722"><ele>1685.0</ele></trkpt>
      <trkpt lat="46.608545" lon="8.819657"><ele>1685.5</ele></trkpt>
      <trkpt lat="46.607846" lon="8.819112"><ele>1688.3</ele></trkpt>
      <trkpt lat="46.607587" lon="8.819006"><ele>1689.3</ele></trkpt>
      <trkpt lat="46.606648" lon="8.818636"><ele>1695.3</ele></trkpt>
      <trkpt lat="46.606409" lon="8.818575"><ele>1696.8</ele></trkpt>
      <trkpt lat="46.605757" lon="8.818716"><ele>1701.0</ele></trkpt>
      <trkpt lat="46.605625" lon="8.818714"><ele>1702.0</ele></trkpt>
      <trkpt lat="46.605002" lon="8.818243"><ele>1707.4</ele></trkpt>
      <trkpt lat="46.604282" lon="8.817959"><ele>1713.2</ele></trkpt>
      <trkpt lat="46.604043" lon="8.817807"><ele>1715.2</ele></trkpt>
      <trkpt lat="46.603688" lon="8.817367"><ele>1718.6</ele></trkpt>
      <trkpt lat="46.603329" lon="8.816984"><ele>1721.8</ele></trkpt>
      <trkpt lat="46.603007" lon="8.816716"><ele>1724.5</ele></trkpt>
      <trkpt lat="46.602767" lon="8.816669"><ele>1726.3</ele></trkpt>
      <trkpt lat="46.601943" lon="8.816694"><ele>1732.8</ele></trkpt>
      <trkpt lat="46.601657" lon="8.816675"><ele>1735.1</ele></trkpt>
      <trkpt lat="46.601382" lon="8.816614"><ele>1737.3</ele></trkpt>
      <trkpt lat="46.601336" lon="8.816638"><ele>1737.7</ele></trkpt>
      <trkpt lat="46.601016" lon="8.816327"><ele>1740.8</ele></trkpt>
      <trkpt lat="46.600906" lon="8.816115"><ele>1742.2</ele></trkpt>
      <trkpt lat="46.600772" lon="8.815685"><ele>1744.4</ele></trkpt>
      <trkpt lat="46.600625" lon="8.815492"><ele>1745.8</ele></trkpt>
      <trkpt lat="46.599940" lon="8.814933"><ele>1751.1</ele></trkpt>
      <trkpt lat="46.599598" lon="8.814860"><ele>1753.5</ele></trkpt>
      <trkpt lat="46.599303" lon="8.814658"><ele>1755.4</ele></trkpt>
      <trkpt lat="46.599165" lon="8.814417"><ele>1756.6</ele></trkpt>
      <trkpt lat="46.598715" lon="8.813075"><ele>1762.3</ele></trkpt>
      <trkpt lat="46.598319" lon="8.811956"><ele>1766.1</ele></trkpt>
      <trkpt lat="46.598257" lon="8.811844"><ele>1766.5</ele></trkpt>
      <trkpt lat="46.597958" lon="8.811578"><ele>1767.8</ele></trkpt>
      <trkpt lat="46.597677" lon="8.811224"><ele>1769.2</ele></trkpt>
      <trkpt lat="46.596972" lon="8.810699"><ele>1771.5</ele></trkpt>
      <trkpt lat="46.596152" lon="8.809691"><ele>1773.8</ele></trkpt>
      <trkpt lat="46.595945" lon="8.809405"><ele>1774.4</ele></trkpt>
      <trkpt lat="46.595852" lon="8.809217"><ele>1774.8</ele></trkpt>
      <trkpt lat="46.595786" lon="8.808960"><ele>1775.5</ele></trkpt>
      <trkpt lat="46.595805" lon="8.808578"><ele>1776.5</ele></trkpt>
      <trkpt lat="46.595915" lon="8.807903"><ele>1778.2</ele></trkpt>
      <trkpt lat="46.595914" lon="8.807813"><ele>1778.4</ele></trkpt>
      <trkpt lat="46.595852" lon="8.807663"><ele>1778.8</ele></trkpt>
      <trkpt lat="46.594503" lon="8.806740"><ele>1785.2</ele></trkpt>
      <trkpt lat="46.594395" lon="8.806632"><ele>1785.9</ele></trkpt>
      <trkpt lat="46.593990" lon="8.806116"><ele>1788.5</ele></trkpt>
      <trkpt lat="46.593415" lon="8.805319"><ele>1792.2</ele></trkpt>
      <trkpt lat="46.592967" lon="8.804813"><ele>1794.9</ele></trkpt>
      <trkpt lat="46.592697" lon="8.804552"><ele>1796.4</ele></trkpt>
      <trkpt lat="46.592550" lon="8.804271"><ele>1797.6</ele></trkpt>
      <trkpt lat="46.592493" lon="8.804158"><ele>1798.0</ele></trkpt>
      <trkpt lat="46.592421" lon="8.803891"><ele>1799.3</ele></trkpt>
      <trkpt lat="46.592379" lon="8.803485"><ele>1801.2</ele></trkpt>
      <trkpt lat="46.592201" lon="8.803558"><ele>1802.4</ele></trkpt>
      <trkpt lat="46.592157" lon="8.803674"><ele>1803.0</ele></trkpt>
      <trkpt lat="46.592172" lon="8.803837"><ele>1803.8</ele></trkpt>
      <trkpt lat="46.592293" lon="8.804277"><ele>1806.0</ele></trkpt>
      <trkpt lat="46.592294" lon="8.804976"><ele>1809.2</ele></trkpt>
      <trkpt lat="46.592326" lon="8.805346"><ele>1811.1</ele></trkpt>
      <trkpt lat="46.592420" lon="8.805573"><ele>1812.8</ele></trkpt>
      <trkpt lat="46.592751" lon="8.806177"><ele>1817.5</ele></trkpt>
      <trkpt lat="46.592779" lon="8.806267"><ele>1818.2</ele></trkpt>
      <trkpt lat="46.592827" lon="8.806694"><ele>1820.8</ele></trkpt>
      <trkpt lat="46.592893" lon="8.806809"><ele>1821.8</ele></trkpt>
      <trkpt lat="46.593011" lon="8.806924"><ele>1823.0</ele></trkpt>
      <trkpt lat="46.593087" lon="8.807141"><ele>1824.5</ele></trkpt>
      <trkpt lat="46.593045" lon="8.807456"><ele>1826.5</ele></trkpt>
      <trkpt lat="46.593043" lon="8.807679"><ele>1827.8</ele></trkpt>
      <trkpt lat="46.593185" lon="8.808148"><ele>1830.8</ele></trkpt>
      <trkpt lat="46.593159" lon="8.808309"><ele>1831.7</ele></trkpt>
      <trkpt lat="46.592924" lon="8.808015"><ele>1834.3</ele></trkpt>
      <trkpt lat="46.592752" lon="8.807725"><ele>1836.6</ele></trkpt>
      <trkpt lat="46.592340" lon="8.806689"><ele>1843.4</ele></trkpt>
      <trkpt lat="46.592247" lon="8.806515"><ele>1844.6</ele></trkpt>
      <trkpt lat="46.592159" lon="8.806422"><ele>1845.4</ele></trkpt>
      <trkpt lat="46.592036" lon="8.806387"><ele>1846.4</ele></trkpt>
      <trkpt lat="46.591955" lon="8.806411"><ele>1847.1</ele></trkpt>
      <trkpt lat="46.591871" lon="8.806504"><ele>1847.9</ele></trkpt>
      <trkpt lat="46.591804" lon="8.806752"><ele>1849.3</ele></trkpt>
      <trkpt lat="46.591809" lon="8.806824"><ele>1849.7</ele></trkpt>
      <trkpt lat="46.591893" lon="8.807065"><ele>1851.2</ele></trkpt>
      <trkpt lat="46.592739" lon="8.808565"><ele>1861.8</ele></trkpt>
      <trkpt lat="46.592839" lon="8.808826"><ele>1863.5</ele></trkpt>
      <trkpt lat="46.592841" lon="8.809069"><ele>1864.8</ele></trkpt>
      <trkpt lat="46.592754" lon="8.809237"><ele>1866.0</ele></trkpt>
      <trkpt lat="46.592706" lon="8.809284"><ele>1866.4</ele></trkpt>
      <trkpt lat="46.592610" lon="8.809314"><ele>1867.2</ele></trkpt>
      <trkpt lat="46.592484" lon="8.809263"><ele>1868.3</ele></trkpt>
      <trkpt lat="46.592373" lon="8.809126"><ele>1869.4</ele></trkpt>
      <trkpt lat="46.591755" lon="8.807833"><ele>1877.8</ele></trkpt>
      <trkpt lat="46.591443" lon="8.807298"><ele>1881.5</ele></trkpt>
      <trkpt lat="46.590162" lon="8.805763"><ele>1896.2</ele></trkpt>
      <trkpt lat="46.589842" lon="8.805449"><ele>1899.8</ele></trkpt>
      <trkpt lat="46.589533" lon="8.805224"><ele>1902.4</ele></trkpt>
      <trkpt lat="46.589012" lon="8.804899"><ele>1906.4</ele></trkpt>
      <trkpt lat="46.588109" lon="8.804377"><ele>1913.1</ele></trkpt>
      <trkpt lat="46.587640" lon="8.804167"><ele>1913.6</ele></trkpt>
      <trkpt lat="46.586965" lon="8.803939"><ele>1914.2</ele></trkpt>
      <trkpt lat="46.586718" lon="8.803885"><ele>1914.5</ele></trkpt>
      <trkpt lat="46.585375" lon="8.803711"><ele>1917.4</ele></trkpt>
      <trkpt lat="46.584047" lon="8.803587"><ele>1921.5</ele></trkpt>
      <trkpt lat="46.583306" lon="8.803517"><ele>1924.4</ele></trkpt>
      <trkpt lat="46.583234" lon="8.803515"><ele>1924.7</ele></trkpt>
      <trkpt lat="46.582056" lon="8.803342"><ele>1926.7</ele></trkpt>
      <trkpt lat="46.581381" lon="8.803147"><ele>1926.9</ele></trkpt>
      <trkpt lat="46.580774" lon="8.802864"><ele>1927.0</ele></trkpt>
      <trkpt lat="46.580437" lon="8.802661"><ele>1926.8</ele></trkpt>
      <trkpt lat="46.579448" lon="8.801947"><ele>1926.4</ele></trkpt>
      <trkpt lat="46.578959" lon="8.801676"><ele>1926.2</ele></trkpt>
      <trkpt lat="46.578468" lon="8.801495"><ele>1926.0</ele></trkpt>
      <trkpt lat="46.577091" lon="8.801185"><ele>1925.5</ele></trkpt>
      <trkpt lat="46.576609" lon="8.801151"><ele>1925.3</ele></trkpt>
      <trkpt lat="46.575441" lon="8.801199"><ele>1924.9</ele></trkpt>
      <trkpt lat="46.574569" lon="8.801122"><ele>1924.6</ele></trkpt>
      <trkpt lat="46.573862" lon="8.801327"><ele>1924.4</ele></trkpt>
      <trkpt lat="46.573573" lon="8.801359"><ele>1924.3</ele></trkpt>
      <trkpt lat="46.571709" lon="8.801057"><ele>1923.6</ele></trkpt>
      <trkpt lat="46.570868" lon="8.800995"><ele>1923.3</ele></trkpt>
      <trkpt lat="46.568802" lon="8.801019"><ele>1922.5</ele></trkpt>
      <trkpt lat="46.567880" lon="8.800807"><ele>1922.0</ele></trkpt>
      <trkpt lat="46.567485" lon="8.800771"><ele>1921.8</ele></trkpt>
      <trkpt lat="46.567345" lon="8.800779"><ele>1921.7</ele></trkpt>
      <trkpt lat="46.566998" lon="8.800884"><ele>1921.5</ele></trkpt>
      <trkpt lat="46.566111" lon="8.801391"><ele>1920.2</ele></trkpt>
      <trkpt lat="46.565941" lon="8.801492"><ele>1919.9</ele></trkpt>
      <trkpt lat="46.565512" lon="8.801738"><ele>1919.1</ele></trkpt>
      <trkpt lat="46.565225" lon="8.801851"><ele>1918.7</ele></trkpt>
      <trkpt lat="46.564951" lon="8.801900"><ele>1918.4</ele></trkpt>
      <trkpt lat="46.564573" lon="8.801857"><ele>1918.1</ele></trkpt>
      <trkpt lat="46.564313" lon="8.801750"><ele>1917.8</ele></trkpt>
      <trkpt lat="46.563922" lon="8.801512"><ele>1917.4</ele></trkpt>
      <trkpt lat="46.563542" lon="8.801245"><ele>1917.1</ele></trkpt>
      <trkpt lat="46.563440" lon="8.801187"><ele>1917.0</ele></trkpt>
      <trkpt lat="46.563001" lon="8.800975"><ele>1916.5</ele></trkpt>
      <trkpt lat="46.563028" lon="8.800790"><ele>1916.3</ele></trkpt>
      <trkpt lat="46.563394" lon="8.800650"><ele>1915.9</ele></trkpt>
      <trkpt lat="46.563689" lon="8.800506"><ele>1915.6</ele></trkpt>
      <trkpt lat="46.563967" lon="8.800271"><ele>1915.2</ele></trkpt>
      <trkpt lat="46.564220" lon="8.800085"><ele>1915.3</ele></trkpt>
      <trkpt lat="46.564548" lon="8.799925"><ele>1915.9</ele></trkpt>
      <trkpt lat="46.564622" lon="8.799858"><ele>1916.1</ele></trkpt>
      <trkpt lat="46.564732" lon="8.799661"><ele>1916.4</ele></trkpt>
      <trkpt lat="46.564934" lon="8.799428"><ele>1916.8</ele></trkpt>
      <trkpt lat="46.565029" lon="8.799205"><ele>1917.1</ele></trkpt>
      <trkpt lat="46.565052" lon="8.799055"><ele>1917.3</ele></trkpt>
      <trkpt lat="46.565036" lon="8.798846"><ele>1917.6</ele></trkpt>
      <trkpt lat="46.564943" lon="8.798623"><ele>1917.9</ele></trkpt>
      <trkpt lat="46.564674" lon="8.798313"><ele>1918.7</ele></trkpt>
      <trkpt lat="46.564399" lon="8.797766"><ele>1920.2</ele></trkpt>
      <trkpt lat="46.564289" lon="8.797705"><ele>1920.6</ele></trkpt>
      <trkpt lat="46.564087" lon="8.797689"><ele>1921.2</ele></trkpt>
      <trkpt lat="46.564003" lon="8.797636"><ele>1921.5</ele></trkpt>
      <trkpt lat="46.563951" lon="8.797545"><ele>1921.8</ele></trkpt>
      <trkpt lat="46.563936" lon="8.797380"><ele>1922.1</ele></trkpt>
      <trkpt lat="46.564114" lon="8.796605"><ele>1923.9</ele></trkpt>
      <trkpt lat="46.564110" lon="8.796505"><ele>1923.7</ele></trkpt>
      <trkpt lat="46.564064" lon="8.796332"><ele>1923.4</ele></trkpt>
      <trkpt lat="46.564059" lon="8.796185"><ele>1923.2</ele></trkpt>
      <trkpt lat="46.564147" lon="8.795971"><ele>1922.7</ele></trkpt>
      <trkpt lat="46.564222" lon="8.795865"><ele>1922.5</ele></trkpt>
      <trkpt lat="46.564375" lon="8.795795"><ele>1922.1</ele></trkpt>
      <trkpt lat="46.564653" lon="8.795925"><ele>1921.4</ele></trkpt>
      <trkpt lat="46.564809" lon="8.795920"><ele>1921.0</ele></trkpt>
      <trkpt lat="46.565420" lon="8.795505"><ele>1919.4</ele></trkpt>
      <trkpt lat="46.566070" lon="8.795401"><ele>1918.0</ele></trkpt>
      <trkpt lat="46.566347" lon="8.795254"><ele>1917.4</ele></trkpt>
      <trkpt lat="46.566475" lon="8.795133"><ele>1917.1</ele></trkpt>
      <trkpt lat="46.567007" lon="8.794535"><ele>1915.7</ele></trkpt>
      <trkpt lat="46.567141" lon="8.794426"><ele>1915.7</ele></trkpt>
      <trkpt lat="46.567324" lon="8.794365"><ele>1915.6</ele></trkpt>
      <trkpt lat="46.567527" lon="8.794251"><ele>1915.5</ele></trkpt>
      <trkpt lat="46.567776" lon="8.794234"><ele>1915.4</ele></trkpt>
      <trkpt lat="46.567886" lon="8.794172"><ele>1915.4</ele></trkpt>
      <trkpt lat="46.567994" lon="8.794013"><ele>1915.3</ele></trkpt>
      <trkpt lat="46.568312" lon="8.793314"><ele>1915.1</ele></trkpt>
      <trkpt lat="46.568375" lon="8.793115"><ele>1915.1</ele></trkpt>
      <trkpt lat="46.568592" lon="8.792139"><ele>1915.7</ele></trkpt>
      <trkpt lat="46.568588" lon="8.791572"><ele>1916.0</ele></trkpt>
      <trkpt lat="46.568637" lon="8.790844"><ele>1916.5</ele></trkpt>
      <trkpt lat="46.568610" lon="8.790660"><ele>1916.6</ele></trkpt>
      <trkpt lat="46.568442" lon="8.790303"><ele>1916.6</ele></trkpt>
      <trkpt lat="46.568370" lon="8.789960"><ele>1916.7</ele></trkpt>
      <trkpt lat="46.568338" lon="8.789380"><ele>1916.7</ele></trkpt>
      <trkpt lat="46.568232" lon="8.788800"><ele>1916.8</ele></trkpt>
      <trkpt lat="46.568040" lon="8.788325"><ele>1916.8</ele></trkpt>
      <trkpt lat="46.567967" lon="8.788199"><ele>1916.8</ele></trkpt>
      <trkpt lat="46.567872" lon="8.787933"><ele>1916.8</ele></trkpt>
      <trkpt lat="46.567703" lon="8.787638"><ele>1916.8</ele></trkpt>
      <trkpt lat="46.567447" lon="8.786905"><ele>1916.8</ele></trkpt>
      <trkpt lat="46.567103" lon="8.786086"><ele>1916.9</ele></trkpt>
      <trkpt lat="46.566945" lon="8.785621"><ele>1918.6</ele></trkpt>
      <trkpt lat="46.566902" lon="8.785366"><ele>1919.8</ele></trkpt>
      <trkpt lat="46.566803" lon="8.785149"><ele>1921.0</ele></trkpt>
      <trkpt lat="46.566772" lon="8.784916"><ele>1922.0</ele></trkpt>
      <trkpt lat="46.566679" lon="8.784634"><ele>1923.4</ele></trkpt>
      <trkpt lat="46.566692" lon="8.784562"><ele>1923.7</ele></trkpt>
      <trkpt lat="46.566648" lon="8.784402"><ele>1924.5</ele></trkpt>
      <trkpt lat="46.566523" lon="8.784155"><ele>1925.8</ele></trkpt>
      <trkpt lat="46.566293" lon="8.783852"><ele>1927.8</ele></trkpt>
      <trkpt lat="46.566200" lon="8.783672"><ele>1929.2</ele></trkpt>
      <trkpt lat="46.566094" lon="8.783383"><ele>1931.9</ele></trkpt>
      <trkpt lat="46.566040" lon="8.783140"><ele>1934.1</ele></trkpt>
      <trkpt lat="46.566040" lon="8.783032"><ele>1935.0</ele></trkpt>
      <trkpt lat="46.565873" lon="8.782550"><ele>1939.5</ele></trkpt>
      <trkpt lat="46.565742" lon="8.782348"><ele>1941.9</ele></trkpt>
      <trkpt lat="46.565630" lon="8.782021"><ele>1945.0</ele></trkpt>
      <trkpt lat="46.565492" lon="8.781814"><ele>1947.4</ele></trkpt>
      <trkpt lat="46.565438" lon="8.781624"><ele>1949.1</ele></trkpt>
      <trkpt lat="46.565119" lon="8.780879"><ele>1957.2</ele></trkpt>
      <trkpt lat="46.564980" lon="8.780474"><ele>1961.4</ele></trkpt>
      <trkpt lat="46.564759" lon="8.780088"><ele>1966.2</ele></trkpt>
      <trkpt lat="46.564391" lon="8.779815"><ele>1971.8</ele></trkpt>
      <trkpt lat="46.564082" lon="8.779439"><ele>1977.5</ele></trkpt>
      <trkpt lat="46.563846" lon="8.779339"><ele>1981.1</ele></trkpt>
      <trkpt lat="46.563554" lon="8.779067"><ele>1986.2</ele></trkpt>
      <trkpt lat="46.563232" lon="8.778719"><ele>1992.1</ele></trkpt>
      <trkpt lat="46.562907" lon="8.778265"><ele>1998.7</ele></trkpt>
      <trkpt lat="46.562730" lon="8.778113"><ele>2001.9</ele></trkpt>
      <trkpt lat="46.562221" lon="8.777537"><ele>2014.4</ele></trkpt>
      <trkpt lat="46.561909" lon="8.777323"><ele>2021.1</ele></trkpt>
      <trkpt lat="46.561719" lon="8.776996"><ele>2026.8</ele></trkpt>
      <trkpt lat="46.561550" lon="8.776790"><ele>2031.1</ele></trkpt>
      <trkpt lat="46.561238" lon="8.776467"><ele>2038.5</ele></trkpt>
      <trkpt lat="46.560976" lon="8.776313"><ele>2044.0</ele></trkpt>
      <trkpt lat="46.560724" lon="8.776093"><ele>2049.7</ele></trkpt>
      <trkpt lat="46.560580" lon="8.775888"><ele>2053.6</ele></trkpt>
      <trkpt lat="46.560389" lon="8.775453"><ele>2060.5</ele></trkpt>
      <trkpt lat="46.560249" lon="8.775257"><ele>2064.3</ele></trkpt>
      <trkpt lat="46.560038" lon="8.775114"><ele>2068.8</ele></trkpt>
      <trkpt lat="46.559970" lon="8.775028"><ele>2070.6</ele></trkpt>
      <trkpt lat="46.559944" lon="8.774926"><ele>2072.1</ele></trkpt>
      <trkpt lat="46.559927" lon="8.774748"><ele>2074.5</ele></trkpt>
      <trkpt lat="46.559911" lon="8.774574"><ele>2076.9</ele></trkpt>
      <trkpt lat="46.559872" lon="8.774434"><ele>2079.0</ele></trkpt>
      <trkpt lat="46.559755" lon="8.774222"><ele>2082.7</ele></trkpt>
      <trkpt lat="46.559370" lon="8.773924"><ele>2091.4</ele></trkpt>
      <trkpt lat="46.559281" lon="8.773757"><ele>2094.3</ele></trkpt>
      <trkpt lat="46.559189" lon="8.773459"><ele>2098.8</ele></trkpt>
      <trkpt lat="46.559041" lon="8.773173"><ele>2103.7</ele></trkpt>
      <trkpt lat="46.558946" lon="8.772929"><ele>2107.5</ele></trkpt>
      <trkpt lat="46.558856" lon="8.772918"><ele>2109.3</ele></trkpt>
      <trkpt lat="46.558661" lon="8.772604"><ele>2114.9</ele></trkpt>
      <trkpt lat="46.558483" lon="8.772446"><ele>2119.0</ele></trkpt>
      <trkpt lat="46.558169" lon="8.772023"><ele>2127.3</ele></trkpt>
      <trkpt lat="46.557902" lon="8.771688"><ele>2134.1</ele></trkpt>
      <trkpt lat="46.557831" lon="8.771540"><ele>2136.5</ele></trkpt>
      <trkpt lat="46.557496" lon="8.771088"><ele>2144.9</ele></trkpt>
      <trkpt lat="46.557292" lon="8.770677"><ele>2150.6</ele></trkpt>
      <trkpt lat="46.557180" lon="8.770566"><ele>2152.8</ele></trkpt>
      <trkpt lat="46.557015" lon="8.770253"><ele>2157.3</ele></trkpt>
      <trkpt lat="46.556887" lon="8.769820"><ele>2162.6</ele></trkpt>
      <trkpt lat="46.556730" lon="8.769417"><ele>2167.8</ele></trkpt>
      <trkpt lat="46.556546" lon="8.769099"><ele>2172.2</ele></trkpt>
      <trkpt lat="46.556262" lon="8.768503"><ele>2177.8</ele></trkpt>
      <trkpt lat="46.556140" lon="8.768091"><ele>2181.2</ele></trkpt>
      <trkpt lat="46.555940" lon="8.767784"><ele>2184.5</ele></trkpt>
      <trkpt lat="46.555655" lon="8.767247"><ele>2189.7</ele></trkpt>
      <trkpt lat="46.555289" lon="8.766729"><ele>2194.3</ele></trkpt>
      <trkpt lat="46.555153" lon="8.766436"><ele>2196.3</ele></trkpt>
      <trkpt lat="46.554151" lon="8.765018"><ele>2207.0</ele></trkpt>
      <trkpt lat="46.553831" lon="8.764629"><ele>2208.9</ele></trkpt>
      <trkpt lat="46.553702" lon="8.764530"><ele>2209.6</ele></trkpt>
      <trkpt lat="46.553320" lon="8.764329"><ele>2211.4</ele></trkpt>
      <trkpt lat="46.553135" lon="8.764182"><ele>2212.4</ele></trkpt>
      <trkpt lat="46.552951" lon="8.763978"><ele>2213.5</ele></trkpt>
      <trkpt lat="46.552615" lon="8.763714"><ele>2214.3</ele></trkpt>
      <trkpt lat="46.552454" lon="8.763655"><ele>2214.1</ele></trkpt>
      <trkpt lat="46.552215" lon="8.763366"><ele>2213.9</ele></trkpt>
      <trkpt lat="46.551908" lon="8.763143"><ele>2213.6</ele></trkpt>
      <trkpt lat="46.551769" lon="8.762935"><ele>2213.4</ele></trkpt>
      <trkpt lat="46.551694" lon="8.762901"><ele>2213.4</ele></trkpt>
      <trkpt lat="46.550752" lon="8.761937"><ele>2211.6</ele></trkpt>
      <trkpt lat="46.550021" lon="8.760988"><ele>2209.5</ele></trkpt>
      <trkpt lat="46.549692" lon="8.760679"><ele>2208.6</ele></trkpt>
      <trkpt lat="46.549503" lon="8.760553"><ele>2208.0</ele></trkpt>
      <trkpt lat="46.549238" lon="8.760221"><ele>2207.0</ele></trkpt>
      <trkpt lat="46.549092" lon="8.759971"><ele>2206.4</ele></trkpt>
      <trkpt lat="46.548832" lon="8.759658"><ele>2205.4</ele></trkpt>
      <trkpt lat="46.548547" lon="8.759475"><ele>2204.5</ele></trkpt>
      <trkpt lat="46.548240" lon="8.759211"><ele>2203.2</ele></trkpt>
      <trkpt lat="46.548018" lon="8.758904"><ele>2201.7</ele></trkpt>
      <trkpt lat="46.547552" lon="8.758577"><ele>2199.2</ele></trkpt>
      <trkpt lat="46.547461" lon="8.758476"><ele>2198.6</ele></trkpt>
      <trkpt lat="46.547201" lon="8.758064"><ele>2196.8</ele></trkpt>
      <trkpt lat="46.547075" lon="8.757995"><ele>2196.1</ele></trkpt>
      <trkpt lat="46.546815" lon="8.757667"><ele>2195.2</ele></trkpt>
      <trkpt lat="46.546737" lon="8.757685"><ele>2195.1</ele></trkpt>
      <trkpt lat="46.546528" lon="8.757973"><ele>2194.9</ele></trkpt>
      <trkpt lat="46.546403" lon="8.758207"><ele>2194.7</ele></trkpt>
      <trkpt lat="46.546364" lon="8.758352"><ele>2194.6</ele></trkpt>
      <trkpt lat="46.546300" lon="8.758479"><ele>2194.5</ele></trkpt>
      <trkpt lat="46.546097" lon="8.758757"><ele>2194.2</ele></trkpt>
      <trkpt lat="46.545882" lon="8.759139"><ele>2193.9</ele></trkpt>
      <trkpt lat="46.545836" lon="8.759267"><ele>2193.8</ele></trkpt>
      <trkpt lat="46.545796" lon="8.759524"><ele>2193.9</ele></trkpt>
      <trkpt lat="46.545715" lon="8.759744"><ele>2194.5</ele></trkpt>
      <trkpt lat="46.545575" lon="8.759870"><ele>2195.0</ele></trkpt>
      <trkpt lat="46.545130" lon="8.760532"><ele>2197.1</ele></trkpt>
      <trkpt lat="46.544750" lon="8.760698"><ele>2198.3</ele></trkpt>
      <trkpt lat="46.544549" lon="8.760664"><ele>2199.0</ele></trkpt>
      <trkpt lat="46.544393" lon="8.760683"><ele>2199.5</ele></trkpt>
      <trkpt lat="46.544345" lon="8.760738"><ele>2200.1</ele></trkpt>
      <trkpt lat="46.544333" lon="8.760979"><ele>2201.6</ele></trkpt>
      <trkpt lat="46.544314" lon="8.761021"><ele>2201.9</ele></trkpt>
      <trkpt lat="46.544053" lon="8.761304"><ele>2204.8</ele></trkpt>
      <trkpt lat="46.543935" lon="8.761318"><ele>2205.8</ele></trkpt>
      <trkpt lat="46.543830" lon="8.761262"><ele>2206.8</ele></trkpt>
      <trkpt lat="46.543542" lon="8.761230"><ele>2209.4</ele></trkpt>
      <trkpt lat="46.543428" lon="8.761251"><ele>2210.4</ele></trkpt>
      <trkpt lat="46.543164" lon="8.761559"><ele>2213.4</ele></trkpt>
      <trkpt lat="46.543127" lon="8.761570"><ele>2213.7</ele></trkpt>
      <trkpt lat="46.543080" lon="8.761535"><ele>2214.2</ele></trkpt>
      <trkpt lat="46.542970" lon="8.761285"><ele>2216.1</ele></trkpt>
      <trkpt lat="46.542886" lon="8.761254"><ele>2216.9</ele></trkpt>
      <trkpt lat="46.542780" lon="8.761141"><ele>2218.1</ele></trkpt>
      <trkpt lat="46.542738" lon="8.761002"><ele>2219.1</ele></trkpt>
      <trkpt lat="46.542696" lon="8.760949"><ele>2219.6</ele></trkpt>
      <trkpt lat="46.542553" lon="8.760920"><ele>2221.0</ele></trkpt>
      <trkpt lat="46.542480" lon="8.760824"><ele>2221.9</ele></trkpt>
      <trkpt lat="46.542245" lon="8.760358"><ele>2225.6</ele></trkpt>
      <trkpt lat="46.541989" lon="8.760060"><ele>2228.7</ele></trkpt>
      <trkpt lat="46.541889" lon="8.759834"><ele>2230.4</ele></trkpt>
      <trkpt lat="46.541664" lon="8.759705"><ele>2232.4</ele></trkpt>
      <trkpt lat="46.541497" lon="8.759338"><ele>2232.4</ele></trkpt>
      <trkpt lat="46.541418" lon="8.759263"><ele>2232.4</ele></trkpt>
      <trkpt lat="46.541142" lon="8.759218"><ele>2232.4</ele></trkpt>
      <trkpt lat="46.541045" lon="8.759316"><ele>2232.4</ele></trkpt>
      <trkpt lat="46.540860" lon="8.759325"><ele>2232.4</ele></trkpt>
      <trkpt lat="46.540723" lon="8.759373"><ele>2232.4</ele></trkpt>
      <trkpt lat="46.540682" lon="8.759352"><ele>2232.4</ele></trkpt>
      <trkpt lat="46.540619" lon="8.759213"><ele>2232.4</ele></trkpt>
      <trkpt lat="46.540577" lon="8.759188"><ele>2232.4</ele></trkpt>
      <trkpt lat="46.540411" lon="8.759202"><ele>2232.4</ele></trkpt>
      <trkpt lat="46.540388" lon="8.759144"><ele>2232.4</ele></trkpt>
      <trkpt lat="46.540547" lon="8.758634"><ele>2231.0</ele></trkpt>
      <trkpt lat="46.540553" lon="8.758266"><ele>2228.7</ele></trkpt>
      <trkpt lat="46.540668" lon="8.757909"><ele>2226.2</ele></trkpt>
      <trkpt lat="46.540762" lon="8.757366"><ele>2222.6</ele></trkpt>
      <trkpt lat="46.540710" lon="8.757125"><ele>2221.1</ele></trkpt>
      <trkpt lat="46.540689" lon="8.756863"><ele>2219.4</ele></trkpt>
      <trkpt lat="46.540710" lon="8.756728"><ele>2218.5</ele></trkpt>
      <trkpt lat="46.540678" lon="8.755939"><ele>2212.8</ele></trkpt>
      <trkpt lat="46.540695" lon="8.755794"><ele>2211.6</ele></trkpt>
      <trkpt lat="46.540771" lon="8.755730"><ele>2210.6</ele></trkpt>
      <trkpt lat="46.540782" lon="8.755654"><ele>2210.0</ele></trkpt>
      <trkpt lat="46.540730" lon="8.755422"><ele>2208.0</ele></trkpt>
      <trkpt lat="46.540730" lon="8.755177"><ele>2206.0</ele></trkpt>
      <trkpt lat="46.540657" lon="8.755033"><ele>2204.5</ele></trkpt>
      <trkpt lat="46.540686" lon="8.754864"><ele>2203.1</ele></trkpt>
      <trkpt lat="46.540756" lon="8.754716"><ele>2201.6</ele></trkpt>
      <trkpt lat="46.540721" lon="8.754530"><ele>2200.1</ele></trkpt>
      <trkpt lat="46.540747" lon="8.754352"><ele>2198.6</ele></trkpt>
      <trkpt lat="46.540739" lon="8.754183"><ele>2197.2</ele></trkpt>
      <trkpt lat="46.540785" lon="8.754078"><ele>2196.2</ele></trkpt>
      <trkpt lat="46.540764" lon="8.753797"><ele>2193.7</ele></trkpt>
      <trkpt lat="46.540701" lon="8.753609"><ele>2191.7</ele></trkpt>
      <trkpt lat="46.540936" lon="8.753174"><ele>2186.3</ele></trkpt>
      <trkpt lat="46.540951" lon="8.753068"><ele>2185.3</ele></trkpt>
      <trkpt lat="46.541018" lon="8.752971"><ele>2183.9</ele></trkpt>
      <trkpt lat="46.541027" lon="8.752802"><ele>2182.3</ele></trkpt>
      <trkpt lat="46.541120" lon="8.752616"><ele>2180.1</ele></trkpt>
      <trkpt lat="46.541190" lon="8.752598"><ele>2179.1</ele></trkpt>
      <trkpt lat="46.541353" lon="8.752439"><ele>2176.3</ele></trkpt>
      <trkpt lat="46.541522" lon="8.752223"><ele>2173.1</ele></trkpt>
      <trkpt lat="46.541612" lon="8.752000"><ele>2170.6</ele></trkpt>
      <trkpt lat="46.541640" lon="8.751507"><ele>2166.7</ele></trkpt>
      <trkpt lat="46.541734" lon="8.751122"><ele>2163.8</ele></trkpt>
      <trkpt lat="46.541762" lon="8.750862"><ele>2162.0</ele></trkpt>
      <trkpt lat="46.541695" lon="8.750004"><ele>2155.8</ele></trkpt>
      <trkpt lat="46.541771" lon="8.748289"><ele>2145.8</ele></trkpt>
      <trkpt lat="46.541800" lon="8.747920"><ele>2144.0</ele></trkpt>
      <trkpt lat="46.541899" lon="8.747582"><ele>2142.2</ele></trkpt>
      <trkpt lat="46.542005" lon="8.746961"><ele>2139.1</ele></trkpt>
      <trkpt lat="46.542000" lon="8.746576"><ele>2137.4</ele></trkpt>
      <trkpt lat="46.541962" lon="8.746239"><ele>2136.3</ele></trkpt>
      <trkpt lat="46.541820" lon="8.745423"><ele>2133.5</ele></trkpt>
      <trkpt lat="46.541722" lon="8.745248"><ele>2132.8</ele></trkpt>
      <trkpt lat="46.541615" lon="8.745137"><ele>2132.1</ele></trkpt>
      <trkpt lat="46.541470" lon="8.745080"><ele>2131.4</ele></trkpt>
      <trkpt lat="46.541181" lon="8.745034"><ele>2130.0</ele></trkpt>
      <trkpt lat="46.540902" lon="8.744829"><ele>2128.8</ele></trkpt>
      <trkpt lat="46.540710" lon="8.744751"><ele>2128.2</ele></trkpt>
      <trkpt lat="46.540373" lon="8.744649"><ele>2127.3</ele></trkpt>
      <trkpt lat="46.540268" lon="8.744661"><ele>2127.0</ele></trkpt>
      <trkpt lat="46.540067" lon="8.744682"><ele>2126.4</ele></trkpt>
      <trkpt lat="46.540008" lon="8.744630"><ele>2126.3</ele></trkpt>
      <trkpt lat="46.539890" lon="8.744393"><ele>2125.7</ele></trkpt>
      <trkpt lat="46.539738" lon="8.744163"><ele>2125.1</ele></trkpt>
      <trkpt lat="46.539721" lon="8.744068"><ele>2124.9</ele></trkpt>
      <trkpt lat="46.539729" lon="8.743927"><ele>2124.6</ele></trkpt>
      <trkpt lat="46.539746" lon="8.743705"><ele>2124.2</ele></trkpt>
      <trkpt lat="46.540059" lon="8.742726"><ele>2117.9</ele></trkpt>
      <trkpt lat="46.540195" lon="8.742066"><ele>2114.0</ele></trkpt>
      <trkpt lat="46.540216" lon="8.741535"><ele>2110.9</ele></trkpt>
      <trkpt lat="46.540186" lon="8.741366"><ele>2109.9</ele></trkpt>
      <trkpt lat="46.540140" lon="8.741273"><ele>2109.2</ele></trkpt>
      <trkpt lat="46.539919" lon="8.741265"><ele>2107.6</ele></trkpt>
      <trkpt lat="46.539756" lon="8.741201"><ele>2106.4</ele></trkpt>
      <trkpt lat="46.539366" lon="8.740887"><ele>2103.1</ele></trkpt>
      <trkpt lat="46.539323" lon="8.740685"><ele>2102.1</ele></trkpt>
      <trkpt lat="46.539265" lon="8.740647"><ele>2101.6</ele></trkpt>
      <trkpt lat="46.538986" lon="8.740702"><ele>2099.6</ele></trkpt>
      <trkpt lat="46.538942" lon="8.740631"><ele>2099.1</ele></trkpt>
      <trkpt lat="46.539004" lon="8.740214"><ele>2097.0</ele></trkpt>
      <trkpt lat="46.539009" lon="8.740039"><ele>2096.1</ele></trkpt>
      <trkpt lat="46.538660" lon="8.739722"><ele>2092.8</ele></trkpt>
      <trkpt lat="46.538544" lon="8.739582"><ele>2091.6</ele></trkpt>
      <trkpt lat="46.538428" lon="8.739519"><ele>2090.6</ele></trkpt>
      <trkpt lat="46.538391" lon="8.739416"><ele>2090.0</ele></trkpt>
      <trkpt lat="46.538463" lon="8.738712"><ele>2086.1</ele></trkpt>
      <trkpt lat="46.538555" lon="8.738363"><ele>2084.0</ele></trkpt>
      <trkpt lat="46.539059" lon="8.737531"><ele>2077.7</ele></trkpt>
      <trkpt lat="46.539660" lon="8.737195"><ele>2072.3</ele></trkpt>
      <trkpt lat="46.540107" lon="8.736775"><ele>2067.7</ele></trkpt>
      <trkpt lat="46.540668" lon="8.736042"><ele>2061.1</ele></trkpt>
      <trkpt lat="46.541015" lon="8.735394"><ele>2056.1</ele></trkpt>
      <trkpt lat="46.541092" lon="8.735202"><ele>2054.7</ele></trkpt>
      <trkpt lat="46.541125" lon="8.735123"><ele>2054.1</ele></trkpt>
      <trkpt lat="46.541835" lon="8.733666"><ele>2042.5</ele></trkpt>
      <trkpt lat="46.541939" lon="8.733632"><ele>2041.5</ele></trkpt>
      <trkpt lat="46.542137" lon="8.733687"><ele>2039.5</ele></trkpt>
      <trkpt lat="46.542555" lon="8.733391"><ele>2035.0</ele></trkpt>
      <trkpt lat="46.542794" lon="8.733063"><ele>2031.9</ele></trkpt>
      <trkpt lat="46.542945" lon="8.732745"><ele>2029.8</ele></trkpt>
      <trkpt lat="46.543506" lon="8.731325"><ele>2020.5</ele></trkpt>
      <trkpt lat="46.543541" lon="8.731101"><ele>2019.2</ele></trkpt>
      <trkpt lat="46.543520" lon="8.730573"><ele>2016.4</ele></trkpt>
      <trkpt lat="46.543739" lon="8.729415"><ele>2010.0</ele></trkpt>
      <trkpt lat="46.544212" lon="8.728303"><ele>2002.8</ele></trkpt>
      <trkpt lat="46.544491" lon="8.727340"><ele>1996.0</ele></trkpt>
      <trkpt lat="46.544806" lon="8.726611"><ele>1990.4</ele></trkpt>
      <trkpt lat="46.545122" lon="8.726358"><ele>1987.1</ele></trkpt>
      <trkpt lat="46.545140" lon="8.726345"><ele>1987.0</ele></trkpt>
      <trkpt lat="46.545237" lon="8.726280"><ele>1986.5</ele></trkpt>
      <trkpt lat="46.545418" lon="8.726156"><ele>1985.4</ele></trkpt>
      <trkpt lat="46.545529" lon="8.725992"><ele>1984.6</ele></trkpt>
      <trkpt lat="46.545703" lon="8.725548"><ele>1982.8</ele></trkpt>
      <trkpt lat="46.545729" lon="8.725208"><ele>1981.6</ele></trkpt>
      <trkpt lat="46.545764" lon="8.724394"><ele>1978.7</ele></trkpt>
      <trkpt lat="46.545933" lon="8.723752"><ele>1977.2</ele></trkpt>
      <trkpt lat="46.546216" lon="8.723167"><ele>1976.1</ele></trkpt>
      <trkpt lat="46.546366" lon="8.722932"><ele>1975.5</ele></trkpt>
      <trkpt lat="46.546407" lon="8.722797"><ele>1975.3</ele></trkpt>
      <trkpt lat="46.546489" lon="8.722410"><ele>1974.7</ele></trkpt>
      <trkpt lat="46.546500" lon="8.721723"><ele>1973.5</ele></trkpt>
      <trkpt lat="46.546535" lon="8.721542"><ele>1973.0</ele></trkpt>
      <trkpt lat="46.546630" lon="8.721278"><ele>1972.4</ele></trkpt>
      <trkpt lat="46.546688" lon="8.720934"><ele>1971.6</ele></trkpt>
      <trkpt lat="46.546780" lon="8.720356"><ele>1970.3</ele></trkpt>
      <trkpt lat="46.546807" lon="8.719728"><ele>1968.9</ele></trkpt>
      <trkpt lat="46.546912" lon="8.719513"><ele>1968.3</ele></trkpt>
      <trkpt lat="46.546946" lon="8.719419"><ele>1968.0</ele></trkpt>
      <trkpt lat="46.546945" lon="8.719321"><ele>1967.6</ele></trkpt>
      <trkpt lat="46.546895" lon="8.719221"><ele>1967.0</ele></trkpt>
      <trkpt lat="46.546404" lon="8.718220"><ele>1960.7</ele></trkpt>
      <trkpt lat="46.546333" lon="8.716431"><ele>1951.9</ele></trkpt>
      <trkpt lat="46.546340" lon="8.715372"><ele>1946.9</ele></trkpt>
      <trkpt lat="46.546455" lon="8.714652"><ele>1943.4</ele></trkpt>
      <trkpt lat="46.546460" lon="8.714396"><ele>1942.2</ele></trkpt>
      <trkpt lat="46.546363" lon="8.713724"><ele>1940.2</ele></trkpt>
      <trkpt lat="46.546367" lon="8.713644"><ele>1940.0</ele></trkpt>
      <trkpt lat="46.546499" lon="8.713227"><ele>1938.7</ele></trkpt>
      <trkpt lat="46.546590" lon="8.712550"><ele>1936.7</ele></trkpt>
      <trkpt lat="46.546801" lon="8.711419"><ele>1933.3</ele></trkpt>
      <trkpt lat="46.546850" lon="8.711230"><ele>1932.8</ele></trkpt>
      <trkpt lat="46.547039" lon="8.710742"><ele>1931.2</ele></trkpt>
      <trkpt lat="46.547121" lon="8.710693"><ele>1930.8</ele></trkpt>
      <trkpt lat="46.547431" lon="8.710668"><ele>1929.6</ele></trkpt>
      <trkpt lat="46.547524" lon="8.710553"><ele>1929.1</ele></trkpt>
      <trkpt lat="46.547575" lon="8.710345"><ele>1928.5</ele></trkpt>
      <trkpt lat="46.547566" lon="8.709760"><ele>1927.1</ele></trkpt>
      <trkpt lat="46.547801" lon="8.709057"><ele>1925.7</ele></trkpt>
      <trkpt lat="46.547872" lon="8.708737"><ele>1925.1</ele></trkpt>
      <trkpt lat="46.547859" lon="8.708389"><ele>1924.5</ele></trkpt>
      <trkpt lat="46.547946" lon="8.707943"><ele>1923.7</ele></trkpt>
      <trkpt lat="46.547850" lon="8.707411"><ele>1922.8</ele></trkpt>
      <trkpt lat="46.547851" lon="8.707067"><ele>1922.1</ele></trkpt>
      <trkpt lat="46.547953" lon="8.706603"><ele>1921.2</ele></trkpt>
      <trkpt lat="46.547920" lon="8.706379"><ele>1920.7</ele></trkpt>
      <trkpt lat="46.547843" lon="8.706080"><ele>1920.1</ele></trkpt>
      <trkpt lat="46.547723" lon="8.705753"><ele>1919.4</ele></trkpt>
      <trkpt lat="46.547630" lon="8.705269"><ele>1918.5</ele></trkpt>
      <trkpt lat="46.547472" lon="8.704476"><ele>1914.8</ele></trkpt>
      <trkpt lat="46.547401" lon="8.704346"><ele>1913.8</ele></trkpt>
      <trkpt lat="46.547174" lon="8.704050"><ele>1911.3</ele></trkpt>
      <trkpt lat="46.547021" lon="8.703773"><ele>1909.2</ele></trkpt>
      <trkpt lat="46.546962" lon="8.703632"><ele>1908.3</ele></trkpt>
      <trkpt lat="46.546761" lon="8.702706"><ele>1902.6</ele></trkpt>
      <trkpt lat="46.546599" lon="8.702461"><ele>1899.9</ele></trkpt>
      <trkpt lat="46.546628" lon="8.701882"><ele>1895.3</ele></trkpt>
      <trkpt lat="46.546537" lon="8.701734"><ele>1893.7</ele></trkpt>
      <trkpt lat="46.546459" lon="8.701421"><ele>1891.1</ele></trkpt>
      <trkpt lat="46.546320" lon="8.701125"><ele>1888.2</ele></trkpt>
      <trkpt lat="46.546168" lon="8.700940"><ele>1885.9</ele></trkpt>
      <trkpt lat="46.546067" lon="8.700852"><ele>1884.6</ele></trkpt>
      <trkpt lat="46.546049" lon="8.700213"><ele>1881.2</ele></trkpt>
      <trkpt lat="46.546183" lon="8.699465"><ele>1879.0</ele></trkpt>
      <trkpt lat="46.546207" lon="8.699053"><ele>1877.9</ele></trkpt>
      <trkpt lat="46.546189" lon="8.698615"><ele>1876.6</ele></trkpt>
      <trkpt lat="46.546125" lon="8.698510"><ele>1876.3</ele></trkpt>
      <trkpt lat="46.546011" lon="8.698438"><ele>1875.7</ele></trkpt>
      <trkpt lat="46.545852" lon="8.698210"><ele>1874.8</ele></trkpt>
      <trkpt lat="46.545712" lon="8.698100"><ele>1873.8</ele></trkpt>
      <trkpt lat="46.545468" lon="8.697052"><ele>1868.5</ele></trkpt>
      <trkpt lat="46.545372" lon="8.696747"><ele>1866.9</ele></trkpt>
      <trkpt lat="46.545349" lon="8.696468"><ele>1865.6</ele></trkpt>
      <trkpt lat="46.545264" lon="8.696359"><ele>1864.8</ele></trkpt>
      <trkpt lat="46.545189" lon="8.695522"><ele>1860.9</ele></trkpt>
      <trkpt lat="46.545180" lon="8.695040"><ele>1858.7</ele></trkpt>
      <trkpt lat="46.545145" lon="8.694833"><ele>1857.7</ele></trkpt>
      <trkpt lat="46.545010" lon="8.694527"><ele>1856.0</ele></trkpt>
      <trkpt lat="46.544881" lon="8.694157"><ele>1854.1</ele></trkpt>
      <trkpt lat="46.544642" lon="8.693650"><ele>1851.2</ele></trkpt>
      <trkpt lat="46.544402" lon="8.693314"><ele>1849.5</ele></trkpt>
      <trkpt lat="46.544148" lon="8.692750"><ele>1847.6</ele></trkpt>
      <trkpt lat="46.544096" lon="8.692585"><ele>1847.0</ele></trkpt>
      <trkpt lat="46.544102" lon="8.692458"><ele>1846.7</ele></trkpt>
      <trkpt lat="46.543968" lon="8.691980"><ele>1845.2</ele></trkpt>
      <trkpt lat="46.543776" lon="8.691444"><ele>1843.4</ele></trkpt>
      <trkpt lat="46.543471" lon="8.690396"><ele>1842.2</ele></trkpt>
      <trkpt lat="46.543352" lon="8.689542"><ele>1841.6</ele></trkpt>
      <trkpt lat="46.543361" lon="8.689322"><ele>1841.4</ele></trkpt>
      <trkpt lat="46.543323" lon="8.689022"><ele>1841.2</ele></trkpt>
      <trkpt lat="46.543180" lon="8.688448"><ele>1841.2</ele></trkpt>
      <trkpt lat="46.543175" lon="8.687936"><ele>1841.4</ele></trkpt>
      <trkpt lat="46.543053" lon="8.686905"><ele>1841.9</ele></trkpt>
      <trkpt lat="46.542922" lon="8.686174"><ele>1842.3</ele></trkpt>
      <trkpt lat="46.542759" lon="8.685937"><ele>1843.0</ele></trkpt>
      <trkpt lat="46.542635" lon="8.685655"><ele>1843.6</ele></trkpt>
      <trkpt lat="46.542564" lon="8.685160"><ele>1844.7</ele></trkpt>
      <trkpt lat="46.542580" lon="8.684871"><ele>1845.3</ele></trkpt>
      <trkpt lat="46.542630" lon="8.684754"><ele>1845.6</ele></trkpt>
      <trkpt lat="46.542704" lon="8.684662"><ele>1845.9</ele></trkpt>
      <trkpt lat="46.542743" lon="8.684524"><ele>1846.2</ele></trkpt>
      <trkpt lat="46.542755" lon="8.684448"><ele>1846.4</ele></trkpt>
      <trkpt lat="46.542748" lon="8.684246"><ele>1846.8</ele></trkpt>
      <trkpt lat="46.542610" lon="8.683979"><ele>1847.5</ele></trkpt>
      <trkpt lat="46.542621" lon="8.683398"><ele>1847.2</ele></trkpt>
      <trkpt lat="46.542502" lon="8.682717"><ele>1846.5</ele></trkpt>
      <trkpt lat="46.542459" lon="8.682597"><ele>1846.4</ele></trkpt>
      <trkpt lat="46.542189" lon="8.682187"><ele>1845.9</ele></trkpt>
      <trkpt lat="46.541835" lon="8.681705"><ele>1845.2</ele></trkpt>
      <trkpt lat="46.541779" lon="8.681668"><ele>1845.1</ele></trkpt>
      <trkpt lat="46.541671" lon="8.681497"><ele>1844.9</ele></trkpt>
      <trkpt lat="46.541534" lon="8.681045"><ele>1844.3</ele></trkpt>
      <trkpt lat="46.541043" lon="8.679908"><ele>1842.8</ele></trkpt>
      <trkpt lat="46.540909" lon="8.679708"><ele>1842.5</ele></trkpt>
      <trkpt lat="46.540810" lon="8.679608"><ele>1842.3</ele></trkpt>
      <trkpt lat="46.540491" lon="8.679426"><ele>1842.3</ele></trkpt>
      <trkpt lat="46.540257" lon="8.679112"><ele>1842.3</ele></trkpt>
      <trkpt lat="46.540127" lon="8.678778"><ele>1842.3</ele></trkpt>
      <trkpt lat="46.540028" lon="8.678638"><ele>1842.3</ele></trkpt>
      <trkpt lat="46.539677" lon="8.677889"><ele>1842.3</ele></trkpt>
      <trkpt lat="46.539530" lon="8.677668"><ele>1842.2</ele></trkpt>
      <trkpt lat="46.539478" lon="8.677598"><ele>1842.2</ele></trkpt>
      <trkpt lat="46.539243" lon="8.677407"><ele>1842.2</ele></trkpt>
      <trkpt lat="46.538485" lon="8.676559"><ele>1842.0</ele></trkpt>
      <trkpt lat="46.538100" lon="8.675901"><ele>1842.2</ele></trkpt>
      <trkpt lat="46.537995" lon="8.675664"><ele>1842.5</ele></trkpt>
      <trkpt lat="46.537797" lon="8.675448"><ele>1842.8</ele></trkpt>
      <trkpt lat="46.536665" lon="8.674696"><ele>1844.9</ele></trkpt>
      <trkpt lat="46.536436" lon="8.674652"><ele>1846.8</ele></trkpt>
      <trkpt lat="46.536179" lon="8.674550"><ele>1848.9</ele></trkpt>
      <trkpt lat="46.536033" lon="8.674450"><ele>1850.3</ele></trkpt>
      <trkpt lat="46.535739" lon="8.674351"><ele>1852.7</ele></trkpt>
      <trkpt lat="46.535474" lon="8.674146"><ele>1855.2</ele></trkpt>
      <trkpt lat="46.535357" lon="8.674153"><ele>1856.2</ele></trkpt>
      <trkpt lat="46.534904" lon="8.674285"><ele>1858.8</ele></trkpt>
      <trkpt lat="46.534764" lon="8.674377"><ele>1858.5</ele></trkpt>
      <trkpt lat="46.534673" lon="8.674496"><ele>1858.3</ele></trkpt>
      <trkpt lat="46.534445" lon="8.674950"><ele>1857.5</ele></trkpt>
      <trkpt lat="46.534335" lon="8.675324"><ele>1856.9</ele></trkpt>
      <trkpt lat="46.534303" lon="8.675506"><ele>1856.6</ele></trkpt>
      <trkpt lat="46.534281" lon="8.676165"><ele>1855.6</ele></trkpt>
      <trkpt lat="46.534202" lon="8.676585"><ele>1853.2</ele></trkpt>
      <trkpt lat="46.534069" lon="8.676830"><ele>1850.0</ele></trkpt>
      <trkpt lat="46.533815" lon="8.677108"><ele>1845.1</ele></trkpt>
      <trkpt lat="46.533737" lon="8.677230"><ele>1843.3</ele></trkpt>
      <trkpt lat="46.533745" lon="8.677304"><ele>1842.6</ele></trkpt>
      <trkpt lat="46.533796" lon="8.677308"><ele>1841.8</ele></trkpt>
      <trkpt lat="46.533896" lon="8.677129"><ele>1839.4</ele></trkpt>
      <trkpt lat="46.534151" lon="8.676953"><ele>1835.0</ele></trkpt>
      <trkpt lat="46.534195" lon="8.676979"><ele>1834.3</ele></trkpt>
      <trkpt lat="46.534194" lon="8.677049"><ele>1833.6</ele></trkpt>
      <trkpt lat="46.534070" lon="8.677131"><ele>1831.5</ele></trkpt>
      <trkpt lat="46.533960" lon="8.677265"><ele>1829.3</ele></trkpt>
      <trkpt lat="46.533778" lon="8.677416"><ele>1825.8</ele></trkpt>
      <trkpt lat="46.533751" lon="8.677424"><ele>1825.3</ele></trkpt>
      <trkpt lat="46.533684" lon="8.677425"><ele>1824.1</ele></trkpt>
      <trkpt lat="46.533609" lon="8.677414"><ele>1822.8</ele></trkpt>
      <trkpt lat="46.533430" lon="8.677395"><ele>1819.5</ele></trkpt>
      <trkpt lat="46.533105" lon="8.677559"><ele>1813.4</ele></trkpt>
      <trkpt lat="46.532967" lon="8.677565"><ele>1810.9</ele></trkpt>
      <trkpt lat="46.532882" lon="8.677529"><ele>1809.3</ele></trkpt>
      <trkpt lat="46.532754" lon="8.677406"><ele>1806.6</ele></trkpt>
      <trkpt lat="46.532502" lon="8.677032"><ele>1800.1</ele></trkpt>
      <trkpt lat="46.532228" lon="8.676831"><ele>1795.8</ele></trkpt>
      <trkpt lat="46.532173" lon="8.676707"><ele>1796.2</ele></trkpt>
      <trkpt lat="46.532133" lon="8.676453"><ele>1797.0</ele></trkpt>
      <trkpt lat="46.531951" lon="8.675733"><ele>1799.3</ele></trkpt>
      <trkpt lat="46.531908" lon="8.675372"><ele>1800.4</ele></trkpt>
      <trkpt lat="46.531922" lon="8.675092"><ele>1801.2</ele></trkpt>
      <trkpt lat="46.531965" lon="8.674807"><ele>1802.1</ele></trkpt>
      <trkpt lat="46.531976" lon="8.674610"><ele>1802.6</ele></trkpt>
      <trkpt lat="46.531957" lon="8.674474"><ele>1803.1</ele></trkpt>
      <trkpt lat="46.531884" lon="8.674327"><ele>1803.5</ele></trkpt>
      <trkpt lat="46.531692" lon="8.674050"><ele>1804.1</ele></trkpt>
      <trkpt lat="46.531503" lon="8.673896"><ele>1804.7</ele></trkpt>
      <trkpt lat="46.531258" lon="8.673834"><ele>1805.3</ele></trkpt>
      <trkpt lat="46.530885" lon="8.673878"><ele>1806.2</ele></trkpt>
      <trkpt lat="46.530182" lon="8.674061"><ele>1806.2</ele></trkpt>
      <trkpt lat="46.530096" lon="8.674125"><ele>1804.7</ele></trkpt>
      <trkpt lat="46.529764" lon="8.674258"><ele>1799.2</ele></trkpt>
      <trkpt lat="46.529401" lon="8.674595"><ele>1792.3</ele></trkpt>
      <trkpt lat="46.529279" lon="8.674805"><ele>1789.3</ele></trkpt>
      <trkpt lat="46.529256" lon="8.675028"><ele>1786.8</ele></trkpt>
      <trkpt lat="46.529191" lon="8.675218"><ele>1784.5</ele></trkpt>
      <trkpt lat="46.529112" lon="8.675259"><ele>1783.1</ele></trkpt>
      <trkpt lat="46.529007" lon="8.675225"><ele>1781.4</ele></trkpt>
      <trkpt lat="46.528774" lon="8.675007"><ele>1777.8</ele></trkpt>
    </trkseg>
  </trk>
</gpx>
