<?xml version="1.0" encoding="UTF-8"?>
<kml xmlns="http://www.opengis.net/kml/2.2"><Document>
<name>Konstanz-Genua: die zwei Schiebepaesse</name>
<Style id="s0"><LineStyle><color>ff00a5ff</color><width>3</width></LineStyle></Style>
<Style id="s1"><LineStyle><color>ff0000ff</color><width>5</width></LineStyle></Style>
<Style id="s2"><LineStyle><color>ff00c8c8</color><width>4</width></LineStyle></Style>
<Style id="s3"><LineStyle><color>ff00a5ff</color><width>3</width></LineStyle></Style>
<Style id="s4"><LineStyle><color>ff0000ff</color><width>5</width></LineStyle></Style>
<Style id="s5"><LineStyle><color>ff00c8c8</color><width>4</width></LineStyle></Style>
<Style id="pin"><IconStyle><Icon><href>http://maps.google.com/mapfiles/kml/pushpin/red-pushpin.png</href></Icon></IconStyle></Style>
<Placemark><name>Anfahrt Lukmanier (Strasse)</name><styleUrl>#s0</styleUrl><LineString><tessellate>1</tessellate><coordinates>8.804813,46.592967,1795 8.804552,46.592697,1796 8.804271,46.592550,1798 8.804158,46.592493,1798 8.803891,46.592421,1799 8.803485,46.592379,1801 8.803558,46.592201,1802 8.803674,46.592157,1803 8.803837,46.592172,1804 8.804277,46.592293,1806 8.804976,46.592294,1809 8.805346,46.592326,1811 8.805573,46.592420,1813 8.806177,46.592751,1818 8.806267,46.592779,1818 8.806694,46.592827,1821 8.806809,46.592893,1822 8.806924,46.593011,1823 8.807141,46.593087,1825 8.807456,46.593045,1827 8.807679,46.593043,1828 8.808148,46.593185,1831 8.808309,46.593159,1832 8.808015,46.592924,1834 8.807725,46.592752,1837 8.806689,46.592340,1843 8.806515,46.592247,1845 8.806422,46.592159,1845 8.806387,46.592036,1846 8.806411,46.591955,1847 8.806504,46.591871,1848 8.806752,46.591804,1849 8.806824,46.591809,1850 8.807065,46.591893,1851 8.808565,46.592739,1862 8.808826,46.592839,1863 8.809069,46.592841,1865 8.809237,46.592754,1866 8.809284,46.592706,1866 8.809314,46.592610,1867 8.809263,46.592484,1868 8.809126,46.592373,1869 8.807833,46.591755,1878 8.807298,46.591443,1882 8.805763,46.590162,1896 8.805449,46.589842,1900 8.805224,46.589533,1902 8.804899,46.589012,1906 8.804377,46.588109,1913 8.804167,46.587640,1914 8.803939,46.586965,1914 8.803885,46.586718,1914 8.803711,46.585375,1917 8.803587,46.584047,1922 8.803517,46.583306,1924 8.803515,46.583234,1925 8.803342,46.582056,1927 8.803147,46.581381,1927 8.802864,46.580774,1927 8.802661,46.580437,1927 8.801947,46.579448,1926 8.801676,46.578959,1926 8.801495,46.578468,1926 8.801185,46.577091,1926 8.801151,46.576609,1925 8.801199,46.575441,1925 8.801122,46.574569,1925 8.801327,46.573862,1924 8.801359,46.573573,1924 8.801057,46.571709,1924 8.800995,46.570868,1923 8.801019,46.568802,1923 8.800807,46.567880,1922 8.800771,46.567485,1922 8.800779,46.567345,1922 8.800884,46.566998,1922 8.801391,46.566111,1920 8.801492,46.565941,1920 8.801738,46.565512,1919 8.801851,46.565225,1919 8.801900,46.564951,1918 8.801857,46.564573,1918 8.801750,46.564313,1918 8.801512,46.563922,1917 8.801245,46.563542,1917 8.801187,46.563440,1917 8.800975,46.563001,1916 8.800790,46.563028,1916 8.800650,46.563394,1916 8.800506,46.563689,1916 8.800271,46.563967,1915 8.800085,46.564220,1915 8.799925,46.564548,1916 8.799858,46.564622,1916 8.799661,46.564732,1916 8.799428,46.564934,1917 8.799205,46.565029,1917 8.799055,46.565052,1917 8.798846,46.565036,1918 8.798623,46.564943,1918 8.798313,46.564674,1919 8.797766,46.564399,1920 8.797705,46.564289,1921 8.797689,46.564087,1921 8.797636,46.564003,1922 8.797545,46.563951,1922 8.797380,46.563936,1922 8.796605,46.564114,1924 8.796505,46.564110,1924 8.796332,46.564064,1923 8.796185,46.564059,1923 8.795971,46.564147,1923 8.795865,46.564222,1922 8.795795,46.564375,1922 8.795925,46.564653,1921 8.795920,46.564809,1921 8.795505,46.565420,1919 8.795401,46.566070,1918 8.795254,46.566347,1917 8.795133,46.566475,1917 8.794535,46.567007,1916 8.794426,46.567141,1916 8.794365,46.567324,1916 8.794251,46.567527,1915 8.794234,46.567776,1915 8.794172,46.567886,1915 8.794013,46.567994,1915 8.793314,46.568312,1915 8.793115,46.568375,1915 8.792139,46.568592,1916 8.791572,46.568588,1916 8.790844,46.568637,1916 8.790660,46.568610,1917 8.790303,46.568442,1917 8.789960,46.568370,1917 8.789380,46.568338,1917 8.788800,46.568232,1917 8.788325,46.568040,1917 8.788199,46.567967,1917 8.787933,46.567872,1917 8.787638,46.567703,1917 8.786905,46.567447,1917 8.786086,46.567103,1917 8.785621,46.566945,1919 8.785366,46.566902,1920 8.785149,46.566803,1921 8.784916,46.566772,1922 8.784634,46.566679,1923 8.784562,46.566692,1924 8.784402,46.566648,1924 8.784155,46.566523,1926 8.783852,46.566293,1928 8.783672,46.566200,1929</coordinates></LineString></Placemark>
<Placemark><name>SCHIEBEN 1 - Val Termine (1.9 km, 18%)</name><styleUrl>#s1</styleUrl><LineString><tessellate>1</tessellate><coordinates>8.783672,46.566200,1929 8.783383,46.566094,1932 8.783140,46.566040,1934 8.783032,46.566040,1935 8.782550,46.565873,1940 8.782348,46.565742,1942 8.782021,46.565630,1945 8.781814,46.565492,1947 8.781624,46.565438,1949 8.780879,46.565119,1957 8.780474,46.564980,1961 8.780088,46.564759,1966 8.779815,46.564391,1972 8.779439,46.564082,1977 8.779339,46.563846,1981 8.779067,46.563554,1986 8.778719,46.563232,1992 8.778265,46.562907,1999 8.778113,46.562730,2002 8.777537,46.562221,2014 8.777323,46.561909,2021 8.776996,46.561719,2027 8.776790,46.561550,2031 8.776467,46.561238,2039 8.776313,46.560976,2044 8.776093,46.560724,2050 8.775888,46.560580,2054 8.775453,46.560389,2061 8.775257,46.560249,2064 8.775114,46.560038,2069 8.775028,46.559970,2071 8.774926,46.559944,2072 8.774748,46.559927,2075 8.774574,46.559911,2077 8.774434,46.559872,2079 8.774222,46.559755,2083 8.773924,46.559370,2091 8.773757,46.559281,2094 8.773459,46.559189,2099 8.773173,46.559041,2104 8.772929,46.558946,2108 8.772918,46.558856,2109 8.772604,46.558661,2115 8.772446,46.558483,2119 8.772023,46.558169,2127 8.771688,46.557902,2134 8.771540,46.557831,2137 8.771088,46.557496,2145 8.770677,46.557292,2151 8.770566,46.557180,2153 8.770253,46.557015,2157 8.769820,46.556887,2163 8.769417,46.556730,2168 8.769099,46.556546,2172 8.768503,46.556262,2178 8.768091,46.556140,2181 8.767784,46.555940,2184 8.767247,46.555655,2190 8.766729,46.555289,2194 8.766436,46.555153,2196 8.765018,46.554151,2207</coordinates></LineString></Placemark>
<Placemark><name>Abfahrt Passo dell&#x27;Uomo - Val Piora</name><styleUrl>#s2</styleUrl><LineString><tessellate>1</tessellate><coordinates>8.765018,46.554151,2207 8.764629,46.553831,2209 8.764530,46.553702,2210 8.764329,46.553320,2211 8.764182,46.553135,2212 8.763978,46.552951,2213 8.763714,46.552615,2214 8.763655,46.552454,2214 8.763366,46.552215,2214 8.763143,46.551908,2214 8.762935,46.551769,2213 8.762901,46.551694,2213 8.761937,46.550752,2212 8.760988,46.550021,2210 8.760679,46.549692,2209 8.760553,46.549503,2208 8.760221,46.549238,2207 8.759971,46.549092,2206 8.759658,46.548832,2205 8.759475,46.548547,2205 8.759211,46.548240,2203 8.758904,46.548018,2202 8.758577,46.547552,2199 8.758476,46.547461,2199 8.758064,46.547201,2197 8.757995,46.547075,2196 8.757667,46.546815,2195 8.757685,46.546737,2195 8.757973,46.546528,2195 8.758207,46.546403,2195 8.758352,46.546364,2195 8.758479,46.546300,2194 8.758757,46.546097,2194 8.759139,46.545882,2194 8.759267,46.545836,2194 8.759524,46.545796,2194 8.759744,46.545715,2194 8.759870,46.545575,2195 8.760532,46.545130,2197 8.760698,46.544750,2198 8.760664,46.544549,2199 8.760683,46.544393,2200 8.760738,46.544345,2200 8.760979,46.544333,2202 8.761021,46.544314,2202 8.761304,46.544053,2205 8.761318,46.543935,2206 8.761262,46.543830,2207 8.761230,46.543542,2209 8.761251,46.543428,2210 8.761559,46.543164,2213 8.761570,46.543127,2214 8.761535,46.543080,2214 8.761285,46.542970,2216 8.761254,46.542886,2217 8.761141,46.542780,2218 8.761002,46.542738,2219 8.760949,46.542696,2220 8.760920,46.542553,2221 8.760824,46.542480,2222 8.760358,46.542245,2226 8.760060,46.541989,2229 8.759834,46.541889,2230 8.759705,46.541664,2232 8.759338,46.541497,2232 8.759263,46.541418,2232 8.759218,46.541142,2232 8.759316,46.541045,2232 8.759325,46.540860,2232 8.759373,46.540723,2232 8.759352,46.540682,2232 8.759213,46.540619,2232 8.759188,46.540577,2232 8.759202,46.540411,2232 8.759144,46.540388,2232 8.758634,46.540547,2231 8.758266,46.540553,2229 8.757909,46.540668,2226 8.757366,46.540762,2223 8.757125,46.540710,2221 8.756863,46.540689,2219 8.756728,46.540710,2219 8.755939,46.540678,2213 8.755794,46.540695,2212 8.755730,46.540771,2211 8.755654,46.540782,2210 8.755422,46.540730,2208 8.755177,46.540730,2206 8.755033,46.540657,2205 8.754864,46.540686,2203 8.754716,46.540756,2202 8.754530,46.540721,2200 8.754352,46.540747,2199 8.754183,46.540739,2197 8.754078,46.540785,2196 8.753797,46.540764,2194 8.753609,46.540701,2192 8.753174,46.540936,2186 8.753068,46.540951,2185 8.752971,46.541018,2184 8.752802,46.541027,2182 8.752616,46.541120,2180 8.752598,46.541190,2179 8.752439,46.541353,2176 8.752223,46.541522,2173 8.752000,46.541612,2171 8.751507,46.541640,2167 8.751122,46.541734,2164 8.750862,46.541762,2162 8.750004,46.541695,2156 8.748289,46.541771,2146 8.747920,46.541800,2144 8.747582,46.541899,2142 8.746961,46.542005,2139 8.746576,46.542000,2137 8.746239,46.541962,2136 8.745423,46.541820,2134 8.745248,46.541722,2133 8.745137,46.541615,2132 8.745080,46.541470,2131 8.745034,46.541181,2130 8.744829,46.540902,2129 8.744751,46.540710,2128 8.744649,46.540373,2127 8.744661,46.540268,2127 8.744682,46.540067,2126 8.744630,46.540008,2126 8.744393,46.539890,2126 8.744163,46.539738,2125 8.744068,46.539721,2125 8.743927,46.539729,2125 8.743705,46.539746,2124 8.742726,46.540059,2118 8.742066,46.540195,2114 8.741535,46.540216,2111 8.741366,46.540186,2110 8.741273,46.540140,2109 8.741265,46.539919,2108 8.741201,46.539756,2106 8.740887,46.539366,2103 8.740685,46.539323,2102 8.740647,46.539265,2102 8.740702,46.538986,2100 8.740631,46.538942,2099 8.740214,46.539004,2097 8.740039,46.539009,2096 8.739722,46.538660,2093 8.739582,46.538544,2092 8.739519,46.538428,2091 8.739416,46.538391,2090 8.738712,46.538463,2086 8.738363,46.538555,2084 8.737531,46.539059,2078 8.737195,46.539660,2072 8.736775,46.540107,2068 8.736042,46.540668,2061 8.735394,46.541015,2056 8.735202,46.541092,2055 8.735123,46.541125,2054 8.733666,46.541835,2042 8.733632,46.541939,2041 8.733687,46.542137,2039 8.733391,46.542555,2035 8.733063,46.542794,2032 8.732745,46.542945,2030 8.731325,46.543506,2021 8.731101,46.543541,2019 8.730573,46.543520,2016 8.729415,46.543739,2010 8.728303,46.544212,2003 8.727340,46.544491,1996 8.726611,46.544806,1990 8.726358,46.545122,1987 8.726345,46.545140,1987 8.726280,46.545237,1986 8.726156,46.545418,1985 8.725992,46.545529,1985 8.725548,46.545703,1983 8.725208,46.545729,1982 8.724394,46.545764,1979 8.723752,46.545933,1977 8.723167,46.546216,1976 8.722932,46.546366,1976 8.722797,46.546407,1975 8.722410,46.546489,1975 8.721723,46.546500,1973 8.721542,46.546535,1973 8.721278,46.546630,1972 8.720934,46.546688,1972 8.720356,46.546780,1970 8.719728,46.546807,1969 8.719513,46.546912,1968 8.719419,46.546946,1968 8.719321,46.546945,1968 8.719221,46.546895,1967 8.718220,46.546404,1961 8.716431,46.546333,1952 8.715372,46.546340,1947 8.714652,46.546455,1943 8.714396,46.546460,1942 8.713724,46.546363,1940 8.713644,46.546367,1940 8.713227,46.546499,1939 8.712550,46.546590,1937 8.711419,46.546801,1933 8.711230,46.546850,1933 8.710742,46.547039,1931 8.710693,46.547121,1931 8.710668,46.547431,1930 8.710553,46.547524,1929 8.710345,46.547575,1928 8.709760,46.547566,1927 8.709057,46.547801,1926 8.708737,46.547872,1925 8.708389,46.547859,1925 8.707943,46.547946,1924 8.707411,46.547850,1923 8.707067,46.547851,1922 8.706603,46.547953,1921 8.706379,46.547920,1921 8.706080,46.547843,1920 8.705753,46.547723,1919 8.705269,46.547630,1918 8.704476,46.547472,1915 8.704346,46.547401,1914 8.704050,46.547174,1911 8.703773,46.547021,1909 8.703632,46.546962,1908 8.702706,46.546761,1903 8.702461,46.546599,1900 8.701882,46.546628,1895 8.701734,46.546537,1894 8.701421,46.546459,1891 8.701125,46.546320,1888 8.700940,46.546168,1886 8.700852,46.546067,1885 8.700213,46.546049,1881 8.699465,46.546183,1879 8.699053,46.546207,1878 8.698615,46.546189,1877 8.698510,46.546125,1876 8.698438,46.546011,1876 8.698210,46.545852,1875 8.698100,46.545712,1874 8.697052,46.545468,1869 8.696747,46.545372,1867 8.696468,46.545349,1866 8.696359,46.545264,1865 8.695522,46.545189,1861 8.695040,46.545180,1859 8.694833,46.545145,1858 8.694527,46.545010,1856 8.694157,46.544881,1854 8.693650,46.544642,1851 8.693314,46.544402,1850 8.692750,46.544148,1848 8.692585,46.544096,1847 8.692458,46.544102,1847 8.691980,46.543968,1845 8.691444,46.543776,1843 8.690396,46.543471,1842 8.689542,46.543352,1842 8.689322,46.543361,1841 8.689022,46.543323,1841 8.688448,46.543180,1841 8.687936,46.543175,1841 8.686905,46.543053,1842 8.686174,46.542922,1842 8.685937,46.542759,1843 8.685655,46.542635,1844 8.685160,46.542564,1845 8.684871,46.542580,1845 8.684754,46.542630,1846 8.684662,46.542704,1846 8.684524,46.542743,1846 8.684448,46.542755,1846 8.684246,46.542748,1847 8.683979,46.542610,1847 8.683398,46.542621,1847 8.682717,46.542502,1847 8.682597,46.542459,1846 8.682187,46.542189,1846 8.681705,46.541835,1845 8.681668,46.541779,1845 8.681497,46.541671,1845 8.681045,46.541534,1844 8.679908,46.541043,1843 8.679708,46.540909,1843 8.679608,46.540810,1842 8.679426,46.540491,1842 8.679112,46.540257,1842 8.678778,46.540127,1842 8.678638,46.540028,1842 8.677889,46.539677,1842 8.677668,46.539530,1842 8.677598,46.539478,1842 8.677407,46.539243,1842 8.676559,46.538485,1842 8.675901,46.538100,1842 8.675664,46.537995,1842 8.675448,46.537797,1843 8.674696,46.536665,1845 8.674652,46.536436,1847 8.674550,46.536179,1849 8.674450,46.536033,1850 8.674351,46.535739,1853 8.674146,46.535474,1855 8.674153,46.535357,1856 8.674285,46.534904,1859 8.674377,46.534764,1859 8.674496,46.534673,1858 8.674950,46.534445,1857 8.675324,46.534335,1857 8.675506,46.534303,1857 8.676165,46.534281,1856 8.676585,46.534202,1853 8.676830,46.534069,1850 8.677108,46.533815,1845 8.677230,46.533737,1843 8.677304,46.533745,1843 8.677308,46.533796,1842 8.677129,46.533896,1839 8.676953,46.534151,1835 8.676979,46.534195,1834 8.677049,46.534194,1834 8.677131,46.534070,1831 8.677265,46.533960,1829 8.677416,46.533778,1826 8.677424,46.533751,1825 8.677425,46.533684,1824 8.677414,46.533609,1823 8.677395,46.533430,1820 8.677559,46.533105,1813 8.677565,46.532967,1811</coordinates></LineString></Placemark>
<Placemark><name>Val Bedretto / Nufenenstrasse</name><styleUrl>#s3</styleUrl><LineString><tessellate>1</tessellate><coordinates>8.551258,46.516752,1291 8.550507,46.516537,1293 8.549930,46.516343,1295 8.549904,46.516290,1296 8.549214,46.516047,1298 8.547846,46.515364,1304 8.547282,46.515194,1305 8.546509,46.515041,1308 8.546159,46.514922,1309 8.545822,46.514748,1309 8.544971,46.514207,1310 8.544763,46.514125,1310 8.544406,46.514031,1311 8.541644,46.513458,1313 8.541016,46.513421,1313 8.540439,46.513449,1313 8.540163,46.513434,1312 8.539823,46.513371,1312 8.539436,46.513222,1312 8.538015,46.512425,1313 8.537944,46.512391,1313 8.537800,46.512322,1313 8.537202,46.512112,1314 8.536447,46.511941,1316 8.535656,46.511773,1318 8.535325,46.511678,1319 8.535077,46.511582,1319 8.534430,46.511261,1321 8.534209,46.511185,1322 8.533955,46.511132,1323 8.533669,46.511110,1323 8.533092,46.511130,1325 8.532717,46.511119,1326 8.531520,46.511035,1330 8.530979,46.510952,1332 8.530511,46.510786,1334 8.530133,46.510621,1336 8.529093,46.510094,1340 8.528827,46.509984,1340 8.528111,46.509753,1342 8.526995,46.509473,1342 8.526332,46.509257,1340 8.526063,46.509190,1339 8.525739,46.509154,1338 8.525547,46.509151,1337 8.524800,46.509157,1335 8.524699,46.509155,1335 8.524280,46.509135,1335 8.523899,46.509077,1336 8.523668,46.509019,1336 8.523295,46.508891,1336 8.520253,46.507689,1345 8.518332,46.506861,1352 8.518163,46.506788,1352 8.517232,46.506406,1356 8.516688,46.506271,1358 8.516600,46.506253,1358 8.516405,46.506216,1359 8.514097,46.505797,1366 8.513681,46.505699,1368 8.513344,46.505592,1369 8.509765,46.503961,1381 8.508820,46.503557,1384 8.508737,46.503522,1384 8.508771,46.503459,1385 8.508999,46.503117,1387 8.509105,46.502899,1388 8.509268,46.502683,1390 8.509263,46.502550,1390 8.509209,46.502489,1391 8.508558,46.502093,1394 8.507658,46.501689,1399 8.506561,46.500985,1404 8.506348,46.500807,1405 8.505759,46.500471,1409 8.504481,46.499888,1417 8.503906,46.499275,1424 8.503063,46.498936,1430 8.502881,46.498642,1434 8.502732,46.498488,1435 8.502495,46.498303,1438 8.501847,46.497932,1444 8.501150,46.497616,1450 8.500880,46.497521,1452 8.500297,46.497405,1456 8.499928,46.497381,1458 8.499317,46.497384,1462 8.498848,46.497364,1465 8.498498,46.497310,1467 8.497962,46.497149,1470 8.497348,46.496871,1472 8.496962,46.496684,1474 8.496870,46.496645,1475 8.496606,46.496535,1476 8.496065,46.496320,1478 8.494972,46.495890,1483 8.494316,46.495635,1487 8.493760,46.495302,1490 8.493635,46.495223,1491 8.492636,46.494578,1498 8.492468,46.494437,1500 8.492215,46.494169,1502 8.491934,46.493879,1505 8.491705,46.493708,1506 8.491015,46.493342,1511 8.490646,46.493107,1513 8.490494,46.492973,1515 8.489768,46.492181,1521 8.489505,46.491932,1523 8.489315,46.491796,1524 8.489023,46.491633,1526 8.488751,46.491518,1527 8.488008,46.491292,1531 8.484943,46.490395,1544 8.483463,46.489958,1551 8.481545,46.489401,1564 8.481195,46.489272,1566 8.480141,46.488728,1573 8.478568,46.487901,1585 8.478038,46.487676,1588 8.477657,46.487582,1591 8.477149,46.487508,1594 8.476869,46.487470,1595 8.476426,46.487382,1598 8.476098,46.487284,1599 8.475609,46.487082,1602 8.475321,46.486917,1603 8.475078,46.486742,1604 8.475034,46.486708,1605 8.474787,46.486511,1606 8.474301,46.486124,1609 8.473863,46.485863,1611 8.473438,46.485703,1612 8.473152,46.485628,1613 8.473061,46.485604,1614 8.471939,46.485321,1618 8.470729,46.485008,1624 8.470415,46.484884,1626 8.470044,46.484655,1628 8.469941,46.484565,1629 8.469612,46.484184,1633 8.469199,46.483620,1638 8.468930,46.483343,1641 8.468713,46.483180,1642 8.468471,46.483048,1644 8.468097,46.482911,1647 8.467790,46.482848,1649 8.467455,46.482817,1651 8.466329,46.482843,1658 8.465784,46.482825,1661 8.465358,46.482747,1664 8.464922,46.482589,1667 8.464525,46.482339,1670 8.463651,46.481593,1678 8.463267,46.481357,1682 8.462727,46.481152,1686 8.461647,46.480866,1693 8.461318,46.480748,1695 8.460993,46.480583,1698 8.460587,46.480254,1702 8.459751,46.479240,1713 8.459317,46.478915,1717 8.459017,46.478762,1719 8.458670,46.478631,1722 8.457146,46.478257,1733 8.456773,46.478121,1736 8.456475,46.477983,1739 8.454994,46.477089,1753 8.454718,46.476945,1756 8.454313,46.476782,1759 8.453427,46.476545,1767 8.452966,46.476393,1772 8.452594,46.476208,1776 8.452284,46.475988,1780 8.451795,46.475538,1787 8.451429,46.475255,1791 8.451163,46.475111,1793 8.450549,46.474839,1798 8.450271,46.474664,1801 8.450109,46.474491,1803 8.449944,46.474237,1805 8.449822,46.474170,1806 8.449694,46.474195,1807 8.449638,46.474289,1808 8.449846,46.474839,1812 8.450005,46.475115,1814 8.450366,46.475414,1817 8.450427,46.475496,1817 8.450388,46.475581,1818 8.450317,46.475614,1819 8.450227,46.475614,1819 8.450118,46.475570,1820 8.449732,46.475324,1824 8.448530,46.474758,1833 8.447400,46.474041,1846 8.446905,46.473776,1851 8.446552,46.473643,1854 8.446034,46.473525,1859 8.445652,46.473488,1862 8.445268,46.473491,1866 8.445200,46.473450,1867 8.444760,46.473446,1871 8.444716,46.473397,1872 8.444569,46.473397,1873 8.444551,46.473206,1876 8.444667,46.473081,1878 8.444983,46.472773,1884 8.445063,46.472632,1887 8.445036,46.472466,1890 8.444895,46.472275,1894 8.444744,46.472189,1896 8.444633,46.472157,1898 8.445412,46.471977,1909 8.445375,46.471795,1912 8.445420,46.471696,1914 8.446077,46.471714,1923</coordinates></LineString></Placemark>
<Placemark><name>SCHIEBEN 2 - San Giacomo (3.3 km, 26%)</name><styleUrl>#s4</styleUrl><LineString><tessellate>1</tessellate><coordinates>8.446077,46.471714,1923 8.446184,46.471653,1924 8.446123,46.471524,1927 8.446221,46.471415,1929 8.446312,46.471381,1931 8.446306,46.471312,1932 8.446547,46.471169,1936 8.446684,46.471121,1938 8.447027,46.471060,1942 8.447216,46.470994,1945 8.447284,46.471035,1946 8.447443,46.470991,1948 8.447591,46.470901,1951 8.447863,46.470850,1954 8.448011,46.470845,1956 8.448384,46.470721,1961 8.448628,46.470482,1966 8.448910,46.470463,1969 8.449246,46.470513,1973 8.449410,46.470484,1975 8.449648,46.470387,1979 8.449808,46.470356,1980 8.450083,46.470404,1983 8.450985,46.470436,1991 8.451550,46.470541,1996 8.452082,46.470494,2001 8.452450,46.470484,2004 8.452607,46.470328,2007 8.452639,46.470326,2007 8.453147,46.470503,2013 8.453252,46.470484,2014 8.453271,46.470459,2015 8.453248,46.470433,2015 8.453133,46.470433,2016 8.452563,46.470211,2023 8.452704,46.470148,2024 8.452824,46.470198,2026 8.453067,46.470230,2028 8.453242,46.470150,2031 8.453036,46.470108,2035 8.452658,46.469954,2042 8.452601,46.469893,2044 8.452780,46.469908,2047 8.452893,46.469961,2049 8.452901,46.469940,2050 8.452626,46.469754,2056 8.452345,46.469837,2061 8.452239,46.469837,2063 8.452222,46.469797,2064 8.452500,46.469633,2070 8.452628,46.469479,2075 8.452748,46.469412,2078 8.452979,46.469309,2083 8.453030,46.469311,2084 8.453116,46.469259,2087 8.453154,46.469267,2087 8.453297,46.469217,2091 8.453122,46.469103,2095 8.453032,46.469084,2097 8.453118,46.469042,2099 8.453095,46.469017,2100 8.452656,46.468941,2109 8.452527,46.468954,2112 8.452374,46.468935,2115 8.452323,46.468863,2117 8.452340,46.468828,2118 8.452550,46.468760,2123 8.453015,46.468493,2134 8.453055,46.468491,2135 8.453149,46.468411,2138 8.453381,46.468288,2144 8.452750,46.468256,2156 8.452462,46.468309,2162 8.452433,46.468271,2163 8.452321,46.468266,2165 8.452319,46.468023,2172 8.452416,46.467842,2176 8.452658,46.467735,2180 8.452975,46.467648,2185 8.453030,46.467573,2187 8.453076,46.467554,2188 8.453179,46.467550,2189 8.453254,46.467583,2191 8.453332,46.467560,2192 8.453395,46.467487,2194 8.453536,46.467451,2196 8.453563,46.467403,2197 8.453694,46.467392,2199 8.453803,46.467312,2201 8.453858,46.467310,2202 8.454003,46.467226,2204 8.454186,46.467094,2208 8.454244,46.467144,2210 8.454318,46.467041,2211 8.454352,46.466843,2213 8.454441,46.466631,2215 8.454550,46.466531,2216 8.454701,46.466496,2217 8.454837,46.466538,2218 8.455021,46.466706,2219 8.455147,46.466735,2220 8.455318,46.466812,2221 8.455660,46.466851,2223 8.455691,46.466840,2223 8.455969,46.466944,2225 8.456192,46.466964,2226 8.456777,46.466952,2227 8.457162,46.466791,2227 8.457516,46.466515,2228 8.457896,46.466307,2229 8.458447,46.466153,2230 8.458690,46.465958,2231 8.458803,46.465999,2232 8.458987,46.465910,2233 8.459242,46.465839,2234 8.459799,46.465465,2236 8.460007,46.465418,2237 8.460191,46.465287,2238 8.460475,46.465175,2239 8.460600,46.465086,2240 8.460824,46.465053,2241 8.460745,46.464937,2241 8.460797,46.464682,2243 8.460756,46.464623,2243 8.460690,46.464613,2243 8.460230,46.464335,2245 8.460073,46.464207,2246 8.459434,46.463946,2250 8.459017,46.463714,2253 8.458468,46.463359,2258 8.457755,46.463096,2264 8.457192,46.462777,2270 8.456565,46.462365,2279 8.455952,46.461627,2292 8.455721,46.461260,2295 8.455497,46.461075,2297 8.455303,46.460954,2298 8.455153,46.460802,2300 8.454855,46.460704,2301 8.454146,46.460560,2305 8.453810,46.460349,2306 8.453646,46.460154,2305 8.453412,46.459961,2305 8.452125,46.459128,2303 8.452116,46.459112,2303 8.451588,46.458861,2300 8.451162,46.458810,2298 8.450752,46.458700,2297</coordinates></LineString></Placemark>
<Placemark><name>Abfahrt Toggia-Strasse nach Riale</name><styleUrl>#s5</styleUrl><LineString><tessellate>1</tessellate><coordinates>8.450752,46.458700,2297 8.450469,46.458688,2295 8.449134,46.458426,2291 8.448963,46.458434,2291 8.448791,46.458578,2290 8.448728,46.458597,2290 8.448077,46.458462,2289 8.447652,46.458403,2288 8.446514,46.457924,2286 8.445667,46.457686,2285 8.445043,46.457391,2283 8.444673,46.457188,2282 8.444143,46.457037,2281 8.443902,46.457012,2281 8.443678,46.457120,2280 8.443265,46.457133,2279 8.441662,46.456842,2274 8.441355,46.456764,2272 8.440957,46.456555,2271 8.440877,46.456533,2270 8.440577,46.456532,2269 8.440515,46.456472,2269 8.440553,46.456285,2268 8.440504,46.456218,2267 8.439875,46.455783,2264 8.439488,46.455416,2261 8.439148,46.455288,2259 8.438480,46.454523,2254 8.438298,46.454368,2253 8.437855,46.453876,2250 8.437650,46.453579,2248 8.437467,46.453216,2247 8.437392,46.453139,2247 8.437202,46.452983,2246 8.436772,46.452423,2244 8.436494,46.452240,2243 8.436375,46.452090,2242 8.436268,46.452007,2241 8.436180,46.451956,2241 8.435847,46.451954,2240 8.435745,46.451894,2240 8.435754,46.451584,2239 8.435671,46.451446,2238 8.435669,46.451287,2238 8.435581,46.451157,2237 8.435318,46.451050,2236 8.435255,46.450988,2236 8.435163,46.450659,2235 8.434993,46.450550,2234 8.434786,46.450510,2234 8.434695,46.450473,2233 8.434674,46.450422,2233 8.434739,46.450329,2233 8.434891,46.450256,2232 8.434949,46.450188,2232 8.434942,46.449937,2231 8.434803,46.449760,2230 8.434679,46.449700,2229 8.434605,46.449624,2229 8.434554,46.449525,2229 8.434322,46.449275,2227 8.434311,46.449176,2227 8.434379,46.449018,2226 8.434279,46.448822,2226 8.434303,46.448642,2225 8.434255,46.448351,2224 8.434221,46.448279,2224 8.433908,46.448039,2223 8.433802,46.447894,2222 8.433656,46.447456,2221 8.433594,46.447413,2220 8.433428,46.447416,2220 8.433336,46.447361,2220 8.433301,46.447233,2219 8.433334,46.446922,2218 8.433283,46.446797,2218 8.433226,46.446711,2217 8.432929,46.446456,2216 8.432887,46.446343,2216 8.432945,46.446160,2215 8.433150,46.445852,2214 8.433145,46.445540,2213 8.433065,46.445435,2213 8.432846,46.445330,2212 8.432653,46.445178,2212 8.432467,46.445088,2211 8.432313,46.445045,2211 8.432095,46.444901,2210 8.431959,46.444629,2210 8.431837,46.444459,2209 8.431760,46.444192,2208 8.431622,46.443980,2207 8.431543,46.443730,2206 8.431547,46.443512,2206 8.431422,46.443288,2205 8.431383,46.443063,2204 8.431261,46.442827,2203 8.431037,46.441833,2200 8.431029,46.441276,2198 8.431093,46.440980,2197 8.430948,46.440506,2195 8.430964,46.440021,2194 8.430786,46.439608,2193 8.430745,46.439195,2191 8.430786,46.438950,2190 8.430765,46.438714,2189 8.430655,46.438550,2189 8.430707,46.438210,2187 8.430552,46.438014,2186 8.430405,46.437886,2186 8.430350,46.437584,2184 8.430334,46.437413,2182 8.430517,46.437295,2181 8.430617,46.437146,2179 8.430563,46.437056,2178 8.430347,46.436829,2176 8.430347,46.436695,2175 8.430436,46.436544,2173 8.430408,46.436421,2172 8.430171,46.435989,2168 8.429998,46.435860,2167 8.429813,46.435769,2166 8.429161,46.435531,2163 8.428552,46.435249,2160 8.428315,46.435046,2159 8.428284,46.434954,2158 8.428273,46.434815,2158 8.428287,46.434697,2157 8.428314,46.434617,2157 8.428451,46.434549,2157 8.428617,46.434520,2156 8.428814,46.434576,2156 8.429152,46.434685,2155 8.429604,46.434906,2154 8.429852,46.434914,2154 8.429961,46.434907,2154 8.430088,46.434825,2153 8.430154,46.434650,2153 8.430252,46.434548,2153 8.430426,46.434444,2153 8.430492,46.434390,2154 8.430438,46.434007,2154 8.430399,46.433261,2154 8.430421,46.433065,2155 8.430469,46.432929,2155 8.430540,46.432854,2155 8.430638,46.432736,2155 8.430676,46.432640,2155 8.430661,46.432555,2155 8.430616,46.432488,2155 8.430508,46.432408,2155 8.429946,46.432120,2155 8.429541,46.431823,2155 8.429067,46.431665,2154 8.428801,46.431640,2153 8.428469,46.431426,2150 8.427992,46.431235,2147 8.427823,46.430910,2145 8.427558,46.430588,2142 8.427313,46.430372,2138 8.426763,46.430121,2132 8.426390,46.430025,2128 8.426235,46.429943,2126 8.426039,46.429745,2123 8.425178,46.429381,2112 8.424875,46.429224,2107 8.424542,46.429267,2103 8.424333,46.429357,2099 8.424124,46.429394,2097 8.423904,46.429375,2094 8.423501,46.429281,2088 8.423351,46.429275,2086 8.423125,46.429290,2083 8.422940,46.429263,2081 8.422694,46.429322,2079 8.422553,46.429273,2077 8.422370,46.429130,2075 8.422201,46.429058,2073 8.421907,46.429066,2071 8.421746,46.429039,2069 8.421673,46.429018,2069 8.421620,46.428951,2068 8.421653,46.428911,2067 8.421710,46.428900,2067 8.421927,46.428986,2065 8.422037,46.428986,2064 8.422240,46.428948,2062 8.422383,46.428886,2061 8.422663,46.428883,2060 8.422743,46.428844,2060 8.422759,46.428792,2060 8.422720,46.428759,2060 8.422527,46.428732,2060 8.422303,46.428756,2060 8.422129,46.428837,2060 8.422033,46.428830,2060 8.421954,46.428795,2060 8.421911,46.428729,2060 8.421940,46.428654,2060 8.422025,46.428602,2060 8.422116,46.428589,2060 8.422244,46.428607,2060 8.422643,46.428561,2061 8.423033,46.428608,2061 8.423281,46.428719,2059 8.423403,46.428746,2059 8.423521,46.428772,2058 8.423822,46.428752,2057 8.423999,46.428698,2056 8.424131,46.428630,2055 8.424233,46.428532,2054 8.424257,46.428462,2053 8.424226,46.428373,2053 8.424109,46.428320,2052 8.423962,46.428355,2051 8.423848,46.428462,2050 8.423715,46.428482,2049 8.423472,46.428433,2048 8.423369,46.428389,2047 8.423297,46.428307,2046 8.423277,46.428211,2045 8.423203,46.428113,2043 8.422678,46.427811,2037 8.422584,46.427805,2036 8.422249,46.427865,2033 8.422151,46.427814,2032 8.422151,46.427769,2031 8.422190,46.427740,2031 8.422909,46.427632,2024 8.423064,46.427638,2023 8.423234,46.427716,2022 8.423342,46.427733,2022 8.423430,46.427737,2021 8.423542,46.427708,2021 8.423625,46.427586,2020 8.423948,46.427380,2018 8.424078,46.427138,2017 8.424210,46.427021,2016 8.424316,46.426979,2015 8.424665,46.426940,2014 8.424785,46.426902,2013 8.424972,46.426748,2012 8.425070,46.426608,2011 8.425035,46.426385,2009 8.425169,46.426154,2008 8.425206,46.425861,2006 8.425454,46.425100,2000 8.425418,46.425068,2000 8.425316,46.425064,1999 8.425275,46.425159,1997 8.425320,46.425302,1995 8.424714,46.425962,1984 8.424183,46.426260,1977 8.423822,46.426400,1973 8.423396,46.426444,1968 8.423224,46.426507,1966 8.422718,46.426566,1961 8.422253,46.426563,1956 8.422023,46.426723,1952 8.421738,46.426766,1949 8.421532,46.426746,1947 8.421314,46.426546,1945 8.421215,46.426509,1944 8.421065,46.426490,1943 8.421003,46.426440,1943 8.421019,46.426389,1942 8.421089,46.426333,1942 8.421363,46.426387,1940 8.421591,46.426367,1939 8.421791,46.426430,1938 8.421984,46.426358,1937 8.422433,46.426096,1934 8.422985,46.425979,1931 8.423031,46.425904,1930 8.423102,46.425733,1929 8.423023,46.425560,1928 8.423254,46.425427,1926 8.423200,46.424936,1922 8.423331,46.424820,1921 8.423521,46.424717,1920 8.423612,46.424300,1916 8.423526,46.423757,1910 8.423585,46.423648,1908 8.423751,46.423495,1906 8.423832,46.423344,1904 8.423890,46.423004,1901 8.423966,46.422864,1899 8.423944,46.422813,1899 8.423834,46.422833,1898 8.423661,46.423097,1895 8.423222,46.423506,1889 8.422938,46.423931,1884 8.422577,46.424086,1881 8.422533,46.424221,1879 8.422469,46.424284,1879 8.422256,46.424352,1877 8.422150,46.424412,1876 8.422044,46.424576,1874 8.421959,46.424641,1873 8.421617,46.424784,1869 8.421547,46.424782,1869 8.421511,46.424730,1868 8.421530,46.424676,1868 8.421620,46.424625,1867 8.421853,46.424516,1865 8.422047,46.424164,1860 8.421865,46.423948,1858 8.421857,46.423786,1856 8.422351,46.423237,1849 8.422547,46.422684,1844 8.422588,46.422396,1841 8.422695,46.422212,1839 8.422684,46.422109,1837 8.422787,46.421737,1833 8.422783,46.421277,1828 8.422873,46.420862,1823 8.422886,46.420599,1821 8.422840,46.420075,1816 8.422759,46.419807,1813 8.422740,46.419624,1811 8.422393,46.419033,1805 8.422364,46.418850,1803 8.422056,46.418182,1796 8.421838,46.417906,1793 8.421526,46.417586,1789 8.421455,46.417478,1788 8.421380,46.417199,1785 8.421327,46.417168,1785 8.421253,46.417162,1784 8.421210,46.417197,1784 8.421298,46.417329,1783 8.421313,46.417608,1780 8.421487,46.417948,1777 8.421574,46.418230,1775 8.421539,46.418466,1773 8.421464,46.418612,1772 8.421258,46.419334,1764 8.421193,46.419460,1763 8.421112,46.419495,1762 8.421071,46.419562,1761 8.420952,46.419751,1759 8.420796,46.419766,1758 8.420756,46.419886,1757 8.420676,46.419936,1756 8.420636,46.420052,1755 8.420332,46.420288,1751 8.420169,46.420300,1750 8.420025,46.420363,1749 8.419931,46.420444,1748 8.419849,46.420451,1748 8.419567,46.420651,1745 8.419367,46.420739,1743 8.419166,46.420896,1741 8.418661,46.421215,1737 8.418548,46.421245,1736 8.418331,46.421235,1734 8.418205,46.421227,1734 8.418067,46.421219,1734 8.417964,46.421213,1734 8.417714,46.421196,1733 8.417424,46.421101,1732 8.417314,46.421062,1732 8.416867,46.420910,1731 8.416401,46.420735,1730 8.416267,46.420626,1730 8.416252,46.420516,1729 8.416307,46.420277,1729 8.416480,46.419727,1729 8.416488,46.419696,1729 8.416513,46.419584,1729 8.416491,46.419318,1729</coordinates></LineString></Placemark>
<Placemark><name>Lukmanierpass 1915 m</name><description>Asphalt-Passstrasse, Hospiz Santa Maria

km 223.7 der Gesamtroute, 1926 m
WGS84 46.57896, 8.80168
LV95 2704476 / 1159539</description><styleUrl>#pin</styleUrl><Point><coordinates>8.801676,46.578959,1926</coordinates></Point></Placemark>
<Placemark><name>SCHIEBEN 1 Beginn</name><description>Track wird Pfad. 1.9 km, +278 m, im Mittel 15%, steilste 200 m 18%. OSM: smoothness=very_horrible, mtb:scale 2

km 227.5 der Gesamtroute, 1929 m
WGS84 46.56620, 8.78367
LV95 2703121 / 1158097</description><styleUrl>#pin</styleUrl><Point><coordinates>8.783672,46.566200,1929</coordinates></Point></Placemark>
<Placemark><name>Passo dell&#x27;Uomo 2218 m</name><description>Hoechster Punkt der Etappe 4

km 231.4 der Gesamtroute, 2232 m
WGS84 46.54086, 8.75933
LV95 2701302 / 1155248</description><styleUrl>#pin</styleUrl><Point><coordinates>8.759325,46.540860,2232</coordinates></Point></Placemark>
<Placemark><name>Lago di Cadagno 1968 m</name><description>Wildcamp-Kandidat, Capanna Cadagno

km 235.3 der Gesamtroute, 1968 m
WGS84 46.54695, 8.71932
LV95 2698223 / 1155874</description><styleUrl>#pin</styleUrl><Point><coordinates>8.719321,46.546945,1968</coordinates></Point></Placemark>
<Placemark><name>Lago Ritom 1780 m</name><description>Rifugio, Ende Etappe 4

km 240.0 der Gesamtroute, 1811 m
WGS84 46.53297, 8.67756
LV95 2695045 / 1154269</description><styleUrl>#pin</styleUrl><Point><coordinates>8.677565,46.532967,1811</coordinates></Point></Placemark>
<Placemark><name>Airolo 1140 m</name><description>Sechs Hotels, Bahnhof - der Ausstieg

km 249.9 der Gesamtroute, 1140 m
WGS84 46.52592, 8.61002
LV95 2689875 / 1153406</description><styleUrl>#pin</styleUrl><Point><coordinates>8.610020,46.525922,1140</coordinates></Point></Placemark>
<Placemark><name>All&#x27;Acqua 1603 m</name><description>Letzte Unterkunft vor San Giacomo

km 262.0 der Gesamtroute, 1603 m
WGS84 46.48692, 8.47532
LV95 2679598 / 1148925</description><styleUrl>#pin</styleUrl><Point><coordinates>8.475321,46.486917,1603</coordinates></Point></Placemark>
<Placemark><name>SCHIEBEN 2 Beginn</name><description>Abzweig von der Nufenenstrasse. 3.3 km, +374 m, steilste 200 m 26%. Teils sac_scale=mountain_hiking (T2)

km 265.5 der Gesamtroute, 1923 m
WGS84 46.47171, 8.44608
LV95 2677375 / 1147206</description><styleUrl>#pin</styleUrl><Point><coordinates>8.446077,46.471714,1923</coordinates></Point></Placemark>
<Placemark><name>Passo San Giacomo 2313 m</name><description>Hoechster Punkt der Tour. Alte Finanzkaserne

km 268.8 der Gesamtroute, 2297 m
WGS84 46.45870, 8.45075
LV95 2677752 / 1145764</description><styleUrl>#pin</styleUrl><Point><coordinates>8.450752,46.458700,2297</coordinates></Point></Placemark>
<Placemark><name>Rifugio Maria Luisa 2157 m</name><description>Beginn der guten Schotterstrasse

km 272.5 der Gesamtroute, 2158 m
WGS84 46.43482, 8.42827
LV95 2676059 / 1143087</description><styleUrl>#pin</styleUrl><Point><coordinates>8.428273,46.434815,2158</coordinates></Point></Placemark>
<Placemark><name>Riale 1730 m</name><description>Walserdorf, Ende der Toggia-Strasse

km 277.9 der Gesamtroute, 1729 m
WGS84 46.42028, 8.41631
LV95 2675159 / 1141460</description><styleUrl>#pin</styleUrl><Point><coordinates>8.416307,46.420277,1729</coordinates></Point></Placemark>
</Document></kml>